     0.05000000      -12345.00      -12345.00   4.467770e+09      -12345.00
   0.0005360000       659.9506      -230.0195      -12345.00      -12345.00
      -12345.00      -12345.00      -12345.00      -12345.00      -12345.00
      -12345.00      -12345.00      -12345.00      -12345.00      -12345.00
      -12345.00      -12345.00      -12345.00      -12345.00      -12345.00
      -12345.00      -12345.00      -12345.00      -12345.00      -12345.00
      -12345.00       31.09480       121.1908       40.00000       0.000000
       9.831100       126.5297      -12345.00       24.71000      -12345.00
      -12345.00      -12345.00      -12345.00      -12345.00      -12345.00
      -12345.00      -12345.00      -12345.00      -12345.00      -12345.00
       2416.499       347.5515       165.6619       21.73306      -12345.00
      -12345.00      -12345.00       90.00000       90.00000      -12345.00
      -12345.00      -12345.00      -12345.00      -12345.00      -12345.00
      -12345.00      -12345.00      -12345.00      -12345.00      -12345.00
      2019        39        11        58        58
        19         6    -12345    -12345     13200
    -12345    -12345    -12345    -12345    -12345
         1    -12345    -12345    -12345    -12345
    -12345    -12345    -12345    -12345    -12345
    -12345    -12345    -12345    -12345    -12345
    -12345    -12345    -12345    -12345    -12345
         1    -12345    -12345    -12345    -12345
SSE     Mindanao, Philip
00      -12345  -12345  
-12345  -12345  -12345  
-12345  -12345  -12345  
-12345  -12345  -12345  
-12345  -12345  -12345  
-12345  -12345  BH2     
IC      -12345  Streckei
[...]
      -2306.000      -2477.000      -2523.000      -2483.000      -2548.000
      -2453.000      -2324.000      -2169.000      -2143.000      -2066.000
      -1737.000      -1590.000      -1285.000      -973.0000      -722.0000
      -324.0000      -72.00000       219.0000       422.0000       692.0000
       937.0000       990.0000       1079.000       1149.000       1293.000
       1267.000       1294.000       1390.000       1295.000       1243.000
       1153.000       1160.000       1111.000       983.0000       1007.000
       880.0000       842.0000       756.0000       523.0000       444.0000
       225.0000       118.0000       25.00000      -72.00000      -93.00000
      -255.0000      -288.0000      -281.0000      -233.0000      -289.0000
      -270.0000      -122.0000      -74.00000       201.0000       483.0000
       727.0000       1074.000       1406.000       1708.000       2001.000
       2339.000       2663.000       2990.000       3297.000       3556.000
       3831.000       4156.000       4578.000       4908.000       5103.000
       5400.000       5606.000       5664.000       5711.000       5657.000
       5452.000       5203.000       5080.000       4833.000       4581.000
       4310.000       3834.000       3597.000       3311.000       2837.000
       2572.000       2265.000       1956.000       1850.000       1666.000
       1394.000       1183.000       1162.000       1092.000       995.0000
       1059.000       1026.000       1023.000       985.0000       1065.000
       1106.000       1136.000       1260.000       1134.000       1107.000
       954.0000       704.0000       457.0000       287.0000       295.0000
       154.0000       102.0000       136.0000       135.0000       165.0000
       394.0000       652.0000       840.0000       1021.000       1088.000
       1159.000       1118.000       1076.000       1061.000       1021.000
       1018.000       992.0000       950.0000       900.0000       877.0000
       831.0000       722.0000       533.0000       375.0000       126.0000
      -72.00000      -155.0000      -430.0000      -538.0000      -604.0000
      -749.0000      -711.0000      -922.0000      -1208.000      -1180.000
      -1269.000      -1307.000      -1266.000      -1325.000      -1248.000
      -1286.000      -1048.000      -771.0000      -765.0000      -437.0000
      -146.0000       45.00000       296.0000       567.0000       944.0000
       1205.000       1439.000       1708.000       1852.000       2038.000
       2344.000       2483.000       2446.000       2284.000       1915.000
       1626.000       1318.000       963.0000       609.0000       151.0000
      -135.0000      -220.0000      -391.0000      -663.0000      -713.0000
      -797.0000      -861.0000      -778.0000      -688.0000      -549.0000
      -511.0000      -326.0000      -232.0000      -165.0000       129.0000
       230.0000       300.0000       430.0000       606.0000       763.0000
       776.0000       782.0000       832.0000       867.0000       776.0000
       686.0000       629.0000       558.0000       462.0000       332.0000
       226.0000       106.0000      -86.00000      -215.0000      -280.0000
      -319.0000      -326.0000      -405.0000      -357.0000      -408.0000
      -396.0000      -247.0000      -327.0000      -200.0000      -100.0000
      -78.00000       110.0000       59.00000       149.0000       437.0000
       542.0000       605.0000       689.0000       853.0000       1003.000
       1149.000       1381.000       1610.000       1860.000       1983.000
       2141.000       2447.000       2648.000       2949.000       3195.000
       3383.000       3617.000       3845.000       4094.000       4110.000
       4247.000       4207.000       4033.000       4011.000       3827.000
       3723.000       3545.000       3376.000       3203.000       3025.000
       2909.000       2738.000       2673.000       2575.000       2516.000
       2511.000       2480.000       2444.000       2318.000       2220.000
       2070.000       2020.000       2011.000       1867.000       1839.000
       1662.000       1528.000       1376.000       1253.000       1279.000
       1114.000       1178.000       1317.000       1325.000       1399.000
       1459.000       1414.000       1494.000       1437.000       1206.000
       1170.000       937.0000       702.0000       493.0000       187.0000
      -48.00000      -411.0000      -812.0000      -1159.000      -1543.000
      -1965.000      -2301.000      -2535.000      -2665.000      -2612.000
      -2632.000      -2716.000      -2513.000      -2351.000      -2285.000
      -2141.000      -2045.000      -1829.000      -1739.000      -1659.000
      -1438.000      -1330.000      -1148.000      -1009.000      -966.0000
      -890.0000      -761.0000      -715.0000      -843.0000      -945.0000
      -1047.000      -1178.000      -1325.000      -1467.000      -1529.000
      -1566.000      -1674.000      -1768.000      -1778.000      -1699.000
      -1627.000      -1639.000      -1604.000      -1589.000      -1485.000
      -1392.000      -1367.000      -1210.000      -1176.000      -1085.000
      -968.0000      -1036.000      -1013.000      -913.0000      -802.0000
      -702.0000      -497.0000      -309.0000      -143.0000       55.00000
       130.0000       408.0000       769.0000       995.0000       1246.000
       1405.000       1580.000       1903.000       2081.000       2348.000
       2705.000       2815.000       2946.000       3128.000       3283.000
       3348.000       3363.000       3197.000       3041.000       2918.000
       2547.000       2306.000       2058.000       1752.000       1489.000
       1319.000       1230.000       1041.000       831.0000       678.0000
       513.0000       456.0000       518.0000       447.0000       397.0000
       343.0000       284.0000       248.0000       222.0000       224.0000
       115.0000      -54.00000      -325.0000      -587.0000      -777.0000
      -1034.000      -1209.000      -1382.000      -1644.000      -1791.000
      -1976.000      -2139.000      -2215.000      -2229.000      -2206.000
      -2219.000      -2105.000      -1969.000      -1753.000      -1635.000
      -1446.000      -1078.000      -786.0000      -480.0000      -246.0000
       150.0000       535.0000       936.0000       1494.000       2024.000
       2496.000       2860.000       3329.000       3750.000       4191.000
       4644.000       5054.000       5517.000       5892.000       6459.000
       6975.000       7515.000       8200.000       8681.000       9339.000
       10059.00       10732.00       11565.00       12443.00       13493.00
       14523.00       15454.00       16462.00       17479.00       18489.00
       19534.00       20762.00       21923.00       22991.00       24131.00
       25240.00       26420.00       27500.00       28634.00       29690.00
       30581.00       31569.00       32421.00       33259.00       34135.00
       34996.00       35890.00       36725.00       37379.00       38072.00
       38799.00       39418.00       40030.00       40713.00       41521.00
       42143.00       42828.00       43480.00       43989.00       44617.00
       45110.00       45580.00       46057.00       46461.00       46868.00
       47240.00       47534.00       47682.00       47755.00       47731.00
       47566.00       47314.00       46954.00       46440.00       45641.00
       44827.00       43918.00       42764.00       41590.00       40123.00
       38603.00       37113.00       35480.00       33790.00       31898.00
       29945.00       27811.00       25508.00       23187.00       20891.00
       18699.00       16308.00       13888.00       11486.00       9059.000
       6642.000       4121.000       1786.000      -485.0000      -2651.000
      -4813.000      -6960.000      -8772.000      -10568.00      -12251.00
      -13855.00      -15424.00      -16929.00      -18305.00      -19330.00
      -20253.00      -21072.00      -21715.00      -22292.00      -22710.00
      -22901.00      -22932.00      -22705.00      -22107.00      -21481.00
      -20712.00      -19601.00      -18498.00      -17139.00      -15622.00
      -13983.00      -12121.00      -10133.00      -8020.000      -5973.000
      -3710.000      -1411.000       1012.000       3505.000       5977.000
       8663.000       11174.00       13731.00       16199.00       18552.00
       21038.00       23275.00       25258.00       27020.00       28625.00
       30120.00       31420.00       32569.00       33446.00       34031.00
       34543.00       34758.00       34684.00       34421.00       33800.00
       32992.00       31854.00       30395.00       28535.00       26392.00
       24218.00       21597.00       18655.00       15498.00       12173.00
       8708.000       4910.000       1061.000      -2863.000      -7066.000
      -11316.00      -15430.00      -19595.00      -23926.00      -28204.00
      -32428.00      -36612.00      -40711.00      -44557.00      -48286.00
      -52193.00      -55804.00      -59198.00      -62509.00      -65527.00
      -68442.00      -71057.00      -73427.00      -75785.00      -77833.00
      -79709.00      -81515.00      -83055.00      -84449.00      -85685.00
      -86825.00      -87836.00      -88788.00      -89678.00      -90437.00
      -91190.00      -91721.00      -92191.00      -92512.00      -92643.00
      -92913.00      -93009.00      -93019.00      -93083.00      -92850.00
      -92450.00      -91989.00      -91377.00      -90815.00      -90024.00
      -89045.00      -87896.00      -86416.00      -84953.00      -83314.00
      -81511.00      -79571.00      -77621.00      -75627.00      -73381.00
      -71183.00      -68825.00      -66203.00      -63563.00      -60837.00
      -57976.00      -55014.00      -51902.00      -48781.00      -45561.00
      -42165.00      -38771.00      -35442.00      -32108.00      -28693.00
      -25303.00      -21879.00      -18493.00      -14987.00      -11571.00
      -8487.000      -5214.000      -2102.000       808.0000       3714.000
       6286.000       8820.000       11252.00       13473.00       15774.00
       17968.00       20202.00       22529.00       24686.00       26713.00
       28733.00       30680.00       32524.00       34420.00       36216.00
       37984.00       39734.00       41367.00       42958.00       44421.00
       45976.00       47606.00       49200.00       50905.00       52285.00
       53575.00       55006.00       56225.00       57518.00       58795.00
       59965.00       61049.00       61948.00       62626.00       63216.00
       63735.00       63995.00       64138.00       64104.00       63974.00
       63698.00       63137.00       62514.00       61751.00       60912.00
       60060.00       58830.00       57397.00       56011.00       54505.00
       52910.00       51345.00       49806.00       47962.00       46063.00
       44171.00       42133.00       40328.00       38331.00       36217.00
       34230.00       32164.00       30112.00       27969.00       25862.00
       23913.00       22144.00       20412.00       18643.00       16993.00
       15400.00       13950.00       12627.00       11513.00       10527.00
       9536.000       8811.000       8329.000       8184.000       8256.000
       8527.000       9017.000       9602.000       10384.00       11243.00
       12405.00       13829.00       15306.00       17037.00       19090.00
       21270.00       23544.00       26047.00       28696.00       31585.00
       34680.00       37794.00       40893.00       44084.00       47386.00
       50718.00       54072.00       57450.00       60801.00       63990.00
       67129.00       70151.00       73007.00       75761.00       78411.00
       80984.00       83360.00       85546.00       87552.00       89408.00
       91180.00       92684.00       93924.00       94982.00       95742.00
       96221.00       96359.00       96261.00       96093.00       95623.00
       94852.00       93873.00       92641.00       91137.00       89337.00
       87294.00       85036.00       82432.00       79395.00       76210.00
       72857.00       69181.00       65090.00       60599.00       55907.00
       50997.00       45884.00       40546.00       34885.00       29066.00
       23139.00       16991.00       10753.00       4440.000      -1804.000
      -7986.000      -14203.00      -20501.00      -26689.00      -32785.00
      -38978.00      -45029.00      -51128.00      -57071.00      -62851.00
      -68524.00      -73870.00      -79076.00      -84225.00      -89174.00
      -93660.00      -97931.00      -101951.0      -105783.0      -109439.0
      -112403.0      -115230.0      -117877.0      -119927.0      -121936.0
      -123467.0      -124503.0      -125357.0      -125870.0      -126132.0
      -125996.0      -125518.0      -124566.0      -123229.0      -121716.0
      -119885.0      -117580.0      -115159.0      -112515.0      -109501.0
      -106427.0      -102887.0      -99179.00      -95469.00      -91583.00
      -87566.00      -83359.00      -79215.00      -75113.00      -70850.00
      -66743.00      -62677.00      -58466.00      -54648.00      -50823.00
      -47043.00      -43386.00      -39658.00      -36157.00      -32634.00
      -29349.00      -26151.00      -22893.00      -19818.00      -16711.00
      -13600.00      -10649.00      -7791.000      -4890.000      -2083.000
       688.0000       3611.000       6564.000       9310.000       11899.00
       14483.00       16997.00       19546.00       22014.00       24307.00
       26671.00       28964.00       30931.00       32733.00       34468.00
       36015.00       37414.00       38515.00       39432.00       40314.00
       41024.00       41446.00       41662.00       41762.00       41507.00
       41196.00       40729.00       40011.00       39090.00       37914.00
       36668.00       35162.00       33396.00       31330.00       29087.00
       26602.00       24004.00       21358.00       18612.00       15804.00
       12721.00       9724.000       6617.000       3371.000       312.0000
      -2613.000      -5552.000      -8446.000      -11345.00      -14218.00
      -16952.00      -19706.00      -22102.00      -24201.00      -26129.00
      -28003.00      -29725.00      -31168.00      -32430.00      -33408.00
      -34227.00      -34713.00      -35044.00      -35289.00      -35318.00
      -35186.00      -34925.00      -34659.00      -34291.00      -33803.00
      -33378.00      -32937.00      -32267.00      -31663.00      -30965.00
      -30161.00      -29457.00      -28680.00      -28031.00      -27342.00
      -26623.00      -25897.00      -25081.00      -24258.00      -23426.00
      -22655.00      -21732.00      -20724.00      -19621.00      -18349.00
      -17036.00      -15516.00      -14017.00      -12528.00      -10849.00
      -9143.000      -7215.000      -5261.000      -3270.000      -1335.000
       444.0000       2406.000       4164.000       5953.000       7868.000
       9608.000       11284.00       12854.00       14350.00       15775.00
       17194.00       18437.00       19632.00       20768.00       21686.00
       22634.00       23407.00       24093.00       24824.00       25514.00
       26143.00       26633.00       27074.00       27348.00       27593.00
       27843.00       28056.00       28360.00       28727.00       29132.00
       29458.00       29766.00       29935.00       30209.00       30553.00
       30746.00       30891.00       30871.00       30958.00       30969.00
       30753.00       30382.00       29985.00       29496.00       28669.00
       27848.00       26820.00       25561.00       24201.00       22681.00
       21246.00       19558.00       17721.00       15833.00       13842.00
       12037.00       9968.000       7833.000       5787.000       3626.000
       1425.000      -634.0000      -2483.000      -4550.000      -6405.000
      -8352.000      -10235.00      -11883.00      -13702.00      -15054.00
      -16410.00      -17551.00      -18576.00      -19674.00      -20399.00
      -21087.00      -21528.00      -21944.00      -21939.00      -21622.00
      -21572.00      -21251.00      -20685.00      -19868.00      -18938.00
      -18092.00      -17205.00      -16211.00      -15115.00      -14117.00
      -13023.00      -11853.00      -10583.00      -9228.000      -8056.000
      -6751.000      -5600.000      -4476.000      -3259.000      -2267.000
      -1216.000      -289.0000       589.0000       1358.000       2105.000
       2895.000       3496.000       4069.000       4673.000       5300.000
       5704.000       6044.000       6395.000       6611.000       6732.000
       6876.000       6892.000       6703.000       6531.000       6204.000
       5911.000       5544.000       5137.000       4642.000       4010.000
       3474.000       2741.000       1969.000       978.0000      -83.00000
      -1121.000      -2285.000      -3390.000      -4669.000      -6044.000
      -7449.000      -8678.000      -9939.000      -11372.00      -12734.00
      -13947.00      -14960.00      -16146.00      -17248.00      -18218.00
      -19101.00      -19761.00      -20486.00      -20893.00      -21146.00
      -21403.00      -21372.00      -21336.00      -21166.00      -20923.00
      -20657.00      -20117.00      -19505.00      -18802.00      -17953.00
      -17151.00      -16304.00      -15410.00      -14430.00      -13403.00
      -12648.00      -11840.00      -11120.00      -10739.00      -10137.00
      -9594.000      -9207.000      -8708.000      -8324.000      -7991.000
      -7865.000      -7849.000      -7909.000      -8050.000      -8261.000
      -8697.000      -8998.000      -9526.000      -10100.00      -10564.00
      -11209.00      -11887.00      -12565.00      -13091.00      -13800.00
      -14401.00      -14874.00      -15494.00      -15975.00      -16342.00
      -16719.00      -17023.00      -17073.00      -17189.00      -17323.00
      -17358.00      -17395.00      -17387.00      -17356.00      -17279.00
      -17086.00      -16727.00      -16389.00      -16081.00      -15779.00
      -15405.00      -14907.00      -14397.00      -13826.00      -13360.00
      -12938.00      -12450.00      -11931.00      -11381.00      -10898.00
