     0.05000000      -12345.00      -12345.00   3.478790e+09      -12345.00
   0.0005380000       659.9506      -946.0195      -12345.00      -12345.00
      -12345.00      -12345.00      -12345.00      -12345.00      -12345.00
      -12345.00      -12345.00      -12345.00      -12345.00      -12345.00
      -12345.00      -12345.00      -12345.00      -12345.00      -12345.00
      -12345.00      -12345.00      -12345.00      -12345.00      -12345.00
      -12345.00      -7.932700      -14.36010       173.0000       100.0000
       9.831100       126.5297      -12345.00       24.71000      -12345.00
      -12345.00      -12345.00      -12345.00      -12345.00      -12345.00
      -12345.00      -12345.00      -12345.00      -12345.00      -12345.00
       15714.15       269.5659       84.19599       141.3270      -12345.00
      -12345.00      -12345.00       357.8000       90.00000      -12345.00
      -12345.00      -12345.00      -12345.00      -12345.00      -12345.00
      -12345.00      -12345.00      -12345.00      -12345.00      -12345.00
      2019        39        12        10        54
        19         6    -12345    -12345     13200
    -12345    -12345    -12345    -12345    -12345
         1    -12345    -12345    -12345    -12345
    -12345    -12345    -12345    -12345    -12345
    -12345    -12345    -12345    -12345    -12345
    -12345    -12345    -12345    -12345    -12345
         1    -12345    -12345    -12345    -12345
ASCN    Mindanao, Philip
00      -12345  -12345  
-12345  -12345  -12345  
-12345  -12345  -12345  
-12345  -12345  -12345  
-12345  -12345  -12345  
-12345  -12345  BH1     
II      -12345  Geotech 
[...]
      -2998.000      -2865.000      -2719.000      -2551.000      -2004.000
      -1164.000      -244.0000       746.0000       1790.000       2904.000
       4030.000       5115.000       5994.000       6785.000       7413.000
       7716.000       7617.000       7088.000       6345.000       5553.000
       4706.000       3529.000       2086.000       779.0000      -378.0000
      -1487.000      -2335.000      -2836.000      -3199.000      -3412.000
      -3478.000      -3571.000      -3668.000      -3912.000      -4223.000
      -4496.000      -4810.000      -5214.000      -5717.000      -6138.000
      -6487.000      -6855.000      -7170.000      -7182.000      -7107.000
      -6935.000      -6464.000      -6084.000      -5863.000      -5635.000
      -5336.000      -5065.000      -5010.000      -4935.000      -4590.000
      -4007.000      -3129.000      -2269.000      -1479.000      -627.0000
       14.00000       471.0000       780.0000       863.0000       1032.000
       1451.000       1867.000       2339.000       2733.000       3001.000
       3319.000       3423.000       3255.000       2960.000       2620.000
       2399.000       2240.000       1981.000       1788.000       1725.000
       1846.000       2035.000       1988.000       1824.000       1457.000
       871.0000       203.0000      -666.0000      -1597.000      -2393.000
      -2919.000      -3213.000      -3407.000      -3386.000      -3144.000
      -2763.000      -2315.000      -1855.000      -1541.000      -1467.000
      -1453.000      -1445.000      -1434.000      -1336.000      -1062.000
      -572.0000       128.0000       816.0000       1290.000       1610.000
       1878.000       2059.000       1925.000       1400.000       577.0000
      -253.0000      -895.0000      -1369.000      -1675.000      -1931.000
      -2224.000      -2430.000      -2450.000      -2396.000      -2485.000
      -2720.000      -3026.000      -3504.000      -3962.000      -4356.000
      -4758.000      -4964.000      -4942.000      -4627.000      -4132.000
      -3587.000      -3069.000      -2608.000      -2125.000      -1675.000
      -1291.000      -975.0000      -599.0000      -249.0000      -19.00000
       115.0000       230.0000       588.0000       1029.000       1303.000
       1389.000       1311.000       1024.000       456.0000      -234.0000
      -962.0000      -1617.000      -2131.000      -2597.000      -3012.000
      -3343.000      -3490.000      -3630.000      -3823.000      -3914.000
      -4050.000      -4106.000      -3919.000      -3702.000      -3590.000
      -3487.000      -3366.000      -3366.000      -3420.000      -3368.000
      -3344.000      -3506.000      -3694.000      -3747.000      -3587.000
      -3130.000      -2470.000      -1610.000      -475.0000       648.0000
       1528.000       2329.000       3102.000       3806.000       4420.000
       4851.000       5157.000       5355.000       5403.000       5316.000
       5096.000       4728.000       4187.000       3533.000       2887.000
       2338.000       1905.000       1547.000       1253.000       995.0000
       703.0000       376.0000      -37.00000      -510.0000      -915.0000
      -1302.000      -1650.000      -1897.000      -2119.000      -2363.000
      -2487.000      -2454.000      -2385.000      -2194.000      -1948.000
      -1761.000      -1577.000      -1458.000      -1532.000      -1798.000
      -2089.000      -2372.000      -2611.000      -2749.000      -2815.000
      -2774.000      -2656.000      -2539.000      -2566.000      -2684.000
      -2667.000      -2550.000      -2447.000      -2365.000      -2326.000
      -2250.000      -2109.000      -2000.000      -1844.000      -1700.000
      -1678.000      -1769.000      -2050.000      -2468.000      -2888.000
      -3224.000      -3411.000      -3423.000      -3238.000      -2836.000
      -2263.000      -1726.000      -1438.000      -1419.000      -1508.000
      -1545.000      -1551.000      -1619.000      -1731.000      -1799.000
      -1822.000      -1763.000      -1569.000      -1329.000      -1098.000
      -971.0000      -1076.000      -1251.000      -1413.000      -1595.000
      -1773.000      -2037.000      -2296.000      -2466.000      -2513.000
      -2454.000      -2388.000      -2243.000      -2011.000      -1649.000
      -1133.000      -589.0000      -91.00000       388.0000       871.0000
       1215.000       1400.000       1498.000       1406.000       1092.000
       668.0000       267.0000      -109.0000      -524.0000      -784.0000
      -714.0000      -513.0000      -420.0000      -408.0000      -378.0000
      -414.0000      -591.0000      -704.0000      -654.0000      -655.0000
      -790.0000      -881.0000      -865.0000      -800.0000      -674.0000
      -572.0000      -517.0000      -408.0000      -303.0000      -227.0000
      -147.0000      -176.0000      -170.0000       84.00000       491.0000
       1047.000       1692.000       2250.000       2740.000       3087.000
       3209.000       3257.000       3156.000       2699.000       1912.000
       983.0000       183.0000      -523.0000      -1286.000      -1931.000
      -2255.000      -2294.000      -2235.000      -2247.000      -2411.000
      -2546.000      -2545.000      -2617.000      -2730.000      -2697.000
      -2541.000      -2386.000      -2392.000      -2504.000      -2580.000
      -2700.000      -2891.000      -3061.000      -3094.000      -3029.000
      -3006.000      -2977.000      -2858.000      -2775.000      -2795.000
      -2641.000      -2284.000      -1945.000      -1764.000      -1782.000
      -1831.000      -1894.000      -2003.000      -2118.000      -2174.000
      -2026.000      -1755.000      -1425.000      -924.0000      -383.0000
       49.00000       447.0000       750.0000       891.0000       951.0000
       966.0000       949.0000       959.0000       1041.000       1053.000
       860.0000       465.0000      -257.0000      -1145.000      -1852.000
      -2476.000      -3079.000      -3517.000      -3733.000      -3840.000
      -4003.000      -4094.000      -3967.000      -3703.000      -3445.000
      -3282.000      -3170.000      -3108.000      -3154.000      -3233.000
      -3314.000      -3517.000      -3777.000      -3816.000      -3567.000
      -3080.000      -2379.000      -1588.000      -763.0000       124.0000
       972.0000       1682.000       2274.000       2687.000       2832.000
       2739.000       2471.000       2101.000       1690.000       1191.000
       625.0000       86.00000      -428.0000      -858.0000      -1166.000
      -1425.000      -1627.000      -1873.000      -2222.000      -2461.000
      -2448.000      -2285.000      -2176.000      -2083.000      -1869.000
      -1615.000      -1422.000      -1212.000      -962.0000      -860.0000
      -831.0000      -735.0000      -651.0000      -476.0000      -78.00000
       505.0000       1173.000       1795.000       2296.000       2751.000
       3249.000       3755.000       4145.000       4306.000       4276.000
       4074.000       3725.000       3278.000       2613.000       1783.000
       938.0000       172.0000      -435.0000      -952.0000      -1399.000
      -1808.000      -2158.000      -2385.000      -2557.000      -2774.000
      -3080.000      -3354.000      -3512.000      -3654.000      -3890.000
      -4167.000      -4385.000      -4579.000      -4730.000      -4740.000
      -4655.000      -4598.000      -4553.000      -4409.000      -4250.000
      -4201.000      -4112.000      -3954.000      -3843.000      -3610.000
      -3286.000      -3192.000      -3314.000      -3543.000      -3883.000
      -4243.000      -4543.000      -4694.000      -4680.000      -4532.000
      -4150.000      -3569.000      -2997.000      -2469.000      -1910.000
      -1327.000      -752.0000      -170.0000       448.0000       1013.000
       1486.000       1895.000       2158.000       2342.000       2475.000
       2492.000       2532.000       2661.000       2817.000       2973.000
       3136.000       3340.000       3549.000       3685.000       3766.000
       3813.000       3680.000       3287.000       2770.000       2278.000
       1888.000       1418.000       762.0000       124.0000      -412.0000
      -834.0000      -1159.000      -1586.000      -2162.000      -2589.000
      -2780.000      -2762.000      -2488.000      -2149.000      -1727.000
      -1271.000      -983.0000      -726.0000      -591.0000      -650.0000
      -653.0000      -604.0000      -675.0000      -844.0000      -1003.000
      -1099.000      -1248.000      -1541.000      -1786.000      -1901.000
      -1936.000      -1948.000      -1990.000      -2029.000      -1979.000
      -1768.000      -1447.000      -1007.000      -487.0000       14.00000
       531.0000       1007.000       1356.000       1463.000       1351.000
       1129.000       683.0000       30.00000      -651.0000      -1178.000
      -1425.000      -1491.000      -1615.000      -1798.000      -1757.000
      -1497.000      -1247.000      -1137.000      -1244.000      -1540.000
      -1897.000      -2281.000      -2742.000      -3287.000      -3863.000
      -4467.000      -5159.000      -5654.000      -5874.000      -6144.000
      -6421.000      -6693.000      -6948.000      -7016.000      -6900.000
      -6683.000      -6411.000      -6152.000      -5954.000      -5614.000
      -5072.000      -4377.000      -3596.000      -2825.000      -2100.000
      -1551.000      -1220.000      -1101.000      -952.0000      -823.0000
      -989.0000      -1243.000      -1531.000      -1757.000      -1718.000
      -1667.000      -1687.000      -1522.000      -1158.000      -855.0000
      -782.0000      -861.0000      -1026.000      -1351.000      -1827.000
      -2357.000      -2889.000      -3294.000      -3477.000      -3406.000
      -3171.000      -2778.000      -2049.000      -1005.000       238.0000
       1387.000       2477.000       3783.000       5068.000       6249.000
       7299.000       7990.000       8477.000       8954.000       9424.000
       9897.000       10268.00       10427.00       10481.00       10545.00
       10607.00       10643.00       10609.00       10409.00       10023.00
       9442.000       8541.000       7397.000       6177.000       4798.000
       3229.000       1635.000       157.0000      -1321.000      -2765.000
      -3898.000      -4634.000      -4936.000      -4925.000      -4779.000
      -4444.000      -3977.000      -3631.000      -3445.000      -3332.000
      -3406.000      -3625.000      -3902.000      -4237.000      -4618.000
      -5122.000      -5701.000      -6210.000      -6481.000      -6507.000
      -6440.000      -6236.000      -5912.000      -5693.000      -5541.000
      -5397.000      -5448.000      -5703.000      -6022.000      -6247.000
      -6375.000      -6478.000      -6401.000      -6127.000      -5758.000
      -5312.000      -4860.000      -4509.000      -4304.000      -4082.000
      -3780.000      -3546.000      -3392.000      -3344.000      -3369.000
      -3330.000      -3181.000      -2939.000      -2716.000      -2507.000
      -2216.000      -1960.000      -1746.000      -1418.000      -1053.000
      -740.0000      -464.0000      -224.0000      -131.0000      -344.0000
      -746.0000      -1202.000      -1731.000      -2280.000      -2819.000
      -3469.000      -4044.000      -4283.000      -4418.000      -4533.000
      -4502.000      -4339.000      -4183.000      -4180.000      -4155.000
      -4012.000      -3793.000      -3355.000      -2779.000      -2242.000
      -1669.000      -1052.000      -470.0000       78.00000       580.0000
       963.0000       1271.000       1569.000       1760.000       1901.000
       2116.000       2452.000       2865.000       3209.000       3479.000
       3678.000       3755.000       3719.000       3621.000       3480.000
       3394.000       3460.000       3481.000       3428.000       3460.000
       3409.000       3174.000       2920.000       2664.000       2368.000
       2184.000       2143.000       2141.000       2181.000       2327.000
       2556.000       2717.000       2850.000       3120.000       3427.000
       3588.000       3667.000       3866.000       4109.000       4320.000
       4664.000       5056.000       5471.000       5866.000       6004.000
       5949.000       5850.000       5627.000       5144.000       4552.000
       3992.000       3363.000       2593.000       1827.000       1176.000
       408.0000      -544.0000      -1542.000      -2506.000      -3547.000
      -4738.000      -5852.000      -6817.000      -7716.000      -8641.000
      -9642.000      -10712.00      -11801.00      -12765.00      -13603.00
      -14349.00      -14943.00      -15341.00      -15475.00      -15274.00
      -14796.00      -14147.00      -13265.00      -12091.00      -10808.00
      -9575.000      -8382.000      -7168.000      -5724.000      -4139.000
      -2672.000      -1193.000       172.0000       1121.000       1774.000
       2237.000       2458.000       2475.000       2247.000       1841.000
       1501.000       1192.000       937.0000       907.0000       963.0000
       1036.000       1174.000       1305.000       1347.000       1524.000
       2020.000       2603.000       3127.000       3561.000       3968.000
       4321.000       4503.000       4529.000       4338.000       4016.000
       3650.000       3311.000       3019.000       2617.000       2200.000
       1864.000       1545.000       1304.000       1120.000       955.0000
       972.0000       1068.000       1060.000       1165.000       1392.000
       1608.000       1881.000       2117.000       2187.000       2066.000
       1832.000       1606.000       1405.000       1217.000       951.0000
       527.0000      -71.00000      -847.0000      -1603.000      -2254.000
      -2930.000      -3520.000      -3868.000      -4042.000      -4171.000
      -4284.000      -4365.000      -4338.000      -4232.000      -4217.000
      -4139.000      -3790.000      -3282.000      -2765.000      -2215.000
      -1585.000      -926.0000      -245.0000       430.0000       1058.000
       1491.000       1665.000       1687.000       1591.000       1278.000
       708.0000       103.0000      -479.0000      -1107.000      -1715.000
      -2262.000      -2760.000      -3297.000      -3951.000      -4691.000
      -5291.000      -5555.000      -5570.000      -5488.000      -5410.000
      -5300.000      -5046.000      -4777.000      -4563.000      -4285.000
      -4047.000      -3951.000      -4025.000      -4215.000      -4239.000
      -4061.000      -3822.000      -3582.000      -3270.000      -2878.000
      -2605.000      -2350.000      -1943.000      -1446.000      -930.0000
      -259.0000       606.0000       1588.000       2707.000       3730.000
       4667.000       5689.000       6632.000       7401.000       8088.000
       8740.000       9224.000       9441.000       9392.000       9034.000
       8308.000       7325.000       6155.000       4890.000       3718.000
       2588.000       1387.000       142.0000      -960.0000      -1880.000
      -2588.000      -2840.000      -2872.000      -2951.000      -2870.000
      -2557.000      -2153.000      -1759.000      -1436.000      -1290.000
      -1235.000      -1125.000      -1028.000      -1067.000      -1237.000
      -1402.000      -1603.000      -1877.000      -2068.000      -2143.000
      -2117.000      -1926.000      -1642.000      -1451.000      -1439.000
      -1621.000      -1927.000      -2232.000      -2493.000      -2720.000
      -2958.000      -3237.000      -3422.000      -3361.000      -3204.000
      -3135.000      -3144.000      -3263.000      -3476.000      -3781.000
      -4333.000      -5057.000      -5767.000      -6506.000      -7262.000
      -8033.000      -8839.000      -9406.000      -9620.000      -9626.000
      -9392.000      -8816.000      -8080.000      -7464.000      -6947.000
      -6443.000      -5934.000      -5421.000      -4842.000      -4150.000
      -3441.000      -2601.000      -1553.000      -468.0000       524.0000
       1460.000       2498.000       3595.000       4707.000       5856.000
       6738.000       7235.000       7519.000       7589.000       7354.000
       6777.000       5988.000       5131.000       4316.000       3618.000
       3005.000       2431.000       1940.000       1636.000       1486.000
       1583.000       1911.000       2231.000       2502.000       2734.000
       2990.000       3153.000       3030.000       2657.000       2184.000
       1773.000       1434.000       1101.000       790.0000       695.0000
       789.0000       912.0000       1110.000       1348.000       1512.000
       1505.000       1386.000       1185.000       881.0000       479.0000
       107.0000       27.00000       171.0000       440.0000       749.0000
       882.0000       795.0000       649.0000       566.0000       451.0000
       406.0000       493.0000       573.0000       740.0000       1038.000
       1237.000       1199.000       1076.000       904.0000       655.0000
       283.0000      -335.0000      -1054.000      -1807.000      -2600.000
      -3267.000      -3815.000      -4273.000      -4562.000      -4710.000
      -4770.000      -4721.000      -4612.000      -4437.000      -4142.000
      -3863.000      -3797.000      -3752.000      -3429.000      -3001.000
      -2553.000      -2079.000      -1836.000      -1913.000      -2193.000
      -2567.000      -3036.000      -3569.000      -4178.000      -4958.000
      -5793.000      -6581.000      -7281.000      -7858.000      -8394.000
      -8760.000      -8768.000      -8448.000      -7861.000      -7192.000
      -6498.000      -5665.000      -4699.000      -3640.000      -2665.000
      -1778.000      -914.0000      -248.0000       281.0000       725.0000
       1039.000       1236.000       1253.000       993.0000       498.0000
       60.00000      -300.0000      -687.0000      -939.0000      -1086.000
      -1253.000      -1388.000      -1494.000      -1537.000      -1342.000
      -1095.000      -940.0000      -778.0000      -747.0000      -710.0000
      -498.0000      -225.0000       180.0000       793.0000       1500.000
