     0.05000000      -12345.00      -12345.00   4.013060e+09      -12345.00
   0.0005380000       659.9506      -353.0196      -12345.00      -12345.00
      -12345.00      -12345.00      -12345.00      -12345.00      -12345.00
      -12345.00      -12345.00      -12345.00      -12345.00      -12345.00
      -12345.00      -12345.00      -12345.00      -12345.00      -12345.00
      -12345.00      -12345.00      -12345.00      -12345.00      -12345.00
      -12345.00       42.01500       143.1572       40.00000       0.000000
       9.831100       126.5297      -12345.00       24.71000      -12345.00
      -12345.00      -12345.00      -12345.00      -12345.00      -12345.00
      -12345.00      -12345.00      -12345.00      -12345.00      -12345.00
       3917.581       21.69238       209.2628       35.23321      -12345.00
      -12345.00      -12345.00       359.9000       90.00000      -12345.00
      -12345.00      -12345.00      -12345.00      -12345.00      -12345.00
      -12345.00      -12345.00      -12345.00      -12345.00      -12345.00
      2019        39        12         1         1
        19         6    -12345    -12345     13200
    -12345    -12345    -12345    -12345    -12345
         1    -12345    -12345    -12345    -12345
    -12345    -12345    -12345    -12345    -12345
    -12345    -12345    -12345    -12345    -12345
    -12345    -12345    -12345    -12345    -12345
         1    -12345    -12345    -12345    -12345
ERM     Mindanao, Philip
00      -12345  -12345  
-12345  -12345  -12345  
-12345  -12345  -12345  
-12345  -12345  -12345  
-12345  -12345  -12345  
-12345  -12345  BH1     
II      -12345  Metrozet
[...]
      -3872.000      -3762.000      -3674.000      -3655.000      -3555.000
      -3438.000      -3393.000      -3344.000      -3237.000      -3118.000
      -3051.000      -2915.000      -2737.000      -2582.000      -2661.000
      -2947.000      -3089.000      -3215.000      -3492.000      -3863.000
      -4186.000      -4480.000      -4831.000      -5227.000      -5587.000
      -5954.000      -6347.000      -6622.000      -6774.000      -6714.000
      -6549.000      -6435.000      -6134.000      -5620.000      -5155.000
      -4752.000      -4194.000      -3595.000      -3214.000      -2871.000
      -2429.000      -2120.000      -1946.000      -1724.000      -1526.000
      -1392.000      -1307.000      -1284.000      -1216.000      -1140.000
      -1155.000      -1136.000      -1007.000      -923.0000      -926.0000
      -910.0000      -923.0000      -976.0000      -1090.000      -1305.000
      -1562.000      -1824.000      -2087.000      -2431.000      -2725.000
      -2987.000      -3238.000      -3406.000      -3674.000      -3857.000
      -3968.000      -4092.000      -4175.000      -4302.000      -4355.000
      -4377.000      -4461.000      -4500.000      -4520.000      -4796.000
      -5138.000      -5338.000      -5577.000      -5782.000      -6030.000
      -6306.000      -6412.000      -6424.000      -6464.000      -6505.000
      -6426.000      -6262.000      -6148.000      -6091.000      -6000.000
      -5912.000      -5943.000      -6050.000      -6054.000      -5996.000
      -5945.000      -5889.000      -5931.000      -5970.000      -5998.000
      -6119.000      -6240.000      -6212.000      -6113.000      -6214.000
      -6285.000      -6160.000      -6134.000      -6172.000      -6274.000
      -6426.000      -6413.000      -6418.000      -6535.000      -6661.000
      -6746.000      -6859.000      -7037.000      -7258.000      -7507.000
      -7633.000      -7664.000      -7605.000      -7544.000      -7453.000
      -7271.000      -7109.000      -6781.000      -6499.000      -6427.000
      -6221.000      -5943.000      -5924.000      -6021.000      -6008.000
      -5997.000      -6047.000      -6080.000      -6093.000      -6041.000
      -5715.000      -5349.000      -4992.000      -4486.000      -3938.000
      -3347.000      -2761.000      -2150.000      -1612.000      -1191.000
      -769.0000      -480.0000      -462.0000      -530.0000      -601.0000
      -782.0000      -1015.000      -1257.000      -1429.000      -1484.000
      -1538.000      -1610.000      -1542.000      -1561.000      -1750.000
      -1946.000      -2308.000      -2750.000      -3214.000      -3791.000
      -4389.000      -4933.000      -5456.000      -5979.000      -6436.000
      -6823.000      -7166.000      -7392.000      -7470.000      -7495.000
      -7549.000      -7571.000      -7531.000      -7551.000      -7633.000
      -7763.000      -7980.000      -8221.000      -8519.000      -8915.000
      -9306.000      -9658.000      -10053.00      -10456.00      -10757.00
      -10933.00      -10980.00      -10957.00      -10927.00      -10893.00
      -10808.00      -10644.00      -10503.00      -10417.00      -10322.00
      -10243.00      -10181.00      -10028.00      -9778.000      -9498.000
      -9169.000      -8740.000      -8276.000      -7757.000      -7258.000
      -6911.000      -6504.000      -6002.000      -5527.000      -5060.000
      -4601.000      -4025.000      -3365.000      -2796.000      -2218.000
      -1598.000      -1002.000      -404.0000       205.0000       792.0000
       1311.000       1743.000       2102.000       2332.000       2418.000
       2441.000       2333.000       2163.000       1989.000       1695.000
       1310.000       884.0000       366.0000      -213.0000      -859.0000
      -1518.000      -2037.000      -2543.000      -3025.000      -3378.000
      -3673.000      -3927.000      -4107.000      -4318.000      -4560.000
      -4791.000      -5108.000      -5489.000      -6015.000      -6640.000
      -7200.000      -7769.000      -8336.000      -8909.000      -9531.000
      -10092.00      -10574.00      -10999.00      -11399.00      -11814.00
      -12195.00      -12401.00      -12437.00      -12527.00      -12618.00
      -12700.00      -12805.00      -12819.00      -12872.00      -13063.00
      -13203.00      -13245.00      -13394.00      -13567.00      -13631.00
      -13640.00      -13658.00      -13588.00      -13327.00      -13034.00
      -12684.00      -12234.00      -11795.00      -11361.00      -10795.00
      -10166.00      -9604.000      -9061.000      -8544.000      -7990.000
      -7473.000      -7014.000      -6543.000      -6133.000      -5652.000
      -5244.000      -5051.000      -4744.000      -4360.000      -4173.000
      -4151.000      -4034.000      -3894.000      -3910.000      -3961.000
      -4025.000      -3993.000      -3941.000      -3952.000      -3928.000
      -3855.000      -3812.000      -3907.000      -3968.000      -4069.000
      -4311.000      -4571.000      -4731.000      -4754.000      -4800.000
      -4857.000      -4897.000      -4895.000      -4925.000      -5097.000
      -5308.000      -5553.000      -5744.000      -5909.000      -6078.000
      -6180.000      -6311.000      -6451.000      -6537.000      -6618.000
      -6791.000      -7057.000      -7376.000      -7763.000      -8272.000
      -8834.000      -9369.000      -9895.000      -10469.00      -10972.00
      -11345.00      -11770.00      -12190.00      -12487.00      -12548.00
      -12539.00      -12643.00      -12670.00      -12520.00      -12274.00
      -12127.00      -11944.00      -11691.00      -11574.00      -11483.00
      -11461.00      -11514.00      -11591.00      -11728.00      -11983.00
      -12352.00      -12695.00      -13132.00      -13645.00      -14139.00
      -14637.00      -15052.00      -15418.00      -15688.00      -15824.00
      -15896.00      -15860.00      -15687.00      -15305.00      -14869.00
      -14491.00      -14049.00      -13615.00      -13185.00      -12817.00
      -12562.00      -12357.00      -12203.00      -12088.00      -12047.00
      -12131.00      -12254.00      -12221.00      -12042.00      -11885.00
      -11692.00      -11305.00      -10881.00      -10585.00      -10316.00
      -10004.00      -9680.000      -9421.000      -9241.000      -8983.000
      -8771.000      -8668.000      -8494.000      -8381.000      -8263.000
      -8138.000      -8172.000      -8193.000      -8157.000      -8141.000
      -8206.000      -8349.000      -8499.000      -8601.000      -8673.000
      -8868.000      -9114.000      -9185.000      -9195.000      -9319.000
      -9329.000      -9089.000      -8970.000      -8954.000      -8738.000
      -8490.000      -8265.000      -8054.000      -7931.000      -7871.000
      -7816.000      -7722.000      -7615.000      -7540.000      -7564.000
      -7656.000      -7763.000      -7849.000      -8048.000      -8225.000
      -8240.000      -8374.000      -8553.000      -8677.000      -8885.000
      -9000.000      -9019.000      -9220.000      -9338.000      -9347.000
      -9484.000      -9513.000      -9423.000      -9473.000      -9542.000
      -9395.000      -9158.000      -8960.000      -8705.000      -8358.000
      -7994.000      -7727.000      -7477.000      -7020.000      -6550.000
      -6218.000      -5741.000      -5148.000      -4623.000      -4135.000
      -3640.000      -3120.000      -2697.000      -2404.000      -2083.000
      -1811.000      -1575.000      -1366.000      -1278.000      -1073.000
      -796.0000      -613.0000      -414.0000      -124.0000       223.0000
       545.0000       811.0000       966.0000       1046.000       1070.000
       998.0000       865.0000       716.0000       624.0000       532.0000
       365.0000       307.0000       335.0000       415.0000       560.0000
       603.0000       651.0000       787.0000       919.0000       982.0000
       1003.000       966.0000       812.0000       635.0000       502.0000
       275.0000      -104.0000      -370.0000      -552.0000      -759.0000
      -883.0000      -1009.000      -1131.000      -1210.000      -1270.000
      -1355.000      -1540.000      -1610.000      -1581.000      -1627.000
      -1601.000      -1551.000      -1462.000      -1273.000      -1173.000
      -1141.000      -1120.000      -1132.000      -1199.000      -1270.000
      -1404.000      -1615.000      -1748.000      -1892.000      -1986.000
      -1948.000      -1773.000      -1601.000      -1453.000      -1041.000
      -562.0000      -177.0000       49.00000       333.0000       790.0000
       1044.000       1266.000       1519.000       1750.000       1946.000
       2013.000       2103.000       2256.000       2388.000       2441.000
       2575.000       2719.000       2844.000       3089.000       3295.000
       3486.000       3655.000       3734.000       3678.000       3557.000
       3434.000       3114.000       2785.000       2373.000       1888.000
       1477.000       909.0000       345.0000      -332.0000      -1223.000
      -2145.000      -3036.000      -3815.000      -4574.000      -5244.000
      -5801.000      -6191.000      -6458.000      -6707.000      -6729.000
      -6708.000      -6833.000      -6993.000      -7055.000      -7075.000
      -7217.000      -7535.000      -7924.000      -8347.000      -8959.000
      -9518.000      -10035.00      -10626.00      -11219.00      -11757.00
      -12014.00      -12296.00      -12618.00      -12657.00      -12538.00
      -12312.00      -12073.00      -11844.00      -11620.00      -11396.00
      -11085.00      -10850.00      -10642.00      -10417.00      -10214.00
      -9982.000      -9663.000      -9229.000      -8898.000      -8610.000
      -8272.000      -7838.000      -7294.000      -6837.000      -6440.000
      -6056.000      -5594.000      -5177.000      -4852.000      -4478.000
      -4162.000      -3801.000      -3514.000      -3325.000      -3097.000
      -2910.000      -2682.000      -2522.000      -2450.000      -2305.000
      -2195.000      -2262.000      -2328.000      -2274.000      -2246.000
      -2311.000      -2420.000      -2488.000      -2588.000      -2741.000
      -2853.000      -2952.000      -3094.000      -3260.000      -3427.000
      -3651.000      -3844.000      -3986.000      -4231.000      -4471.000
      -4749.000      -5218.000      -5662.000      -6043.000      -6535.000
      -7030.000      -7510.000      -8057.000      -8605.000      -9121.000
      -9612.000      -10145.00      -10695.00      -11213.00      -11623.00
      -11883.00      -11972.00      -11947.00      -11814.00      -11352.00
      -10819.00      -10204.00      -9516.000      -8803.000      -7949.000
      -7182.000      -6462.000      -5814.000      -5202.000      -4721.000
      -4373.000      -4067.000      -3859.000      -3668.000      -3554.000
      -3498.000      -3419.000      -3208.000      -3042.000      -3016.000
      -2906.000      -2753.000      -2702.000      -2692.000      -2506.000
      -2274.000      -2143.000      -1898.000      -1644.000      -1431.000
      -1174.000      -982.0000      -824.0000      -799.0000      -835.0000
      -930.0000      -1086.000      -1335.000      -1778.000      -2219.000
      -2732.000      -3167.000      -3593.000      -4108.000      -4596.000
      -5194.000      -5757.000      -6331.000      -7033.000      -7762.000
      -8524.000      -9284.000      -9976.000      -10634.00      -11288.00
      -12012.00      -12721.00      -13299.00      -13841.00      -14382.00
      -14959.00      -15455.00      -15823.00      -16225.00      -16592.00
      -16855.00      -17015.00      -17178.00      -17284.00      -17315.00
      -17424.00      -17429.00      -17388.00      -17402.00      -17401.00
      -17294.00      -17088.00      -16876.00      -16609.00      -16415.00
      -16093.00      -15553.00      -15156.00      -14815.00      -14476.00
      -14139.00      -13774.00      -13731.00      -13738.00      -13371.00
      -13117.00      -13035.00      -12884.00      -12742.00      -12559.00
      -12467.00      -12516.00      -12523.00      -12599.00      -12738.00
      -12820.00      -13106.00      -13477.00      -13786.00      -14303.00
      -14734.00      -14988.00      -15474.00      -15855.00      -15967.00
      -16048.00      -16052.00      -16101.00      -16109.00      -15898.00
      -15725.00      -15716.00      -15562.00      -15406.00      -15356.00
      -15141.00      -14933.00      -14763.00      -14584.00      -14452.00
      -14269.00      -14170.00      -14352.00      -14658.00      -14954.00
      -15336.00      -15759.00      -16286.00      -16809.00      -17238.00
      -17736.00      -18121.00      -18405.00      -18719.00      -18868.00
      -18813.00      -18771.00      -18697.00      -18493.00      -18267.00
      -18096.00      -17914.00      -17561.00      -17203.00      -17035.00
      -16966.00      -16909.00      -16839.00      -16817.00      -16853.00
      -16869.00      -16828.00      -16796.00      -16794.00      -16686.00
      -16514.00      -16350.00      -16151.00      -15898.00      -15545.00
      -15126.00      -14746.00      -14552.00      -14309.00      -13961.00
      -13746.00      -13594.00      -13507.00      -13504.00      -13594.00
      -13692.00      -13881.00      -14254.00      -14597.00      -14842.00
      -15143.00      -15498.00      -15800.00      -16008.00      -16021.00
      -16024.00      -16061.00      -15882.00      -15531.00      -15119.00
      -14747.00      -14281.00      -13629.00      -12911.00      -12212.00
      -11551.00      -10607.00      -9590.000      -8918.000      -8314.000
      -7604.000      -6944.000      -6572.000      -6469.000      -6370.000
      -6262.000      -6286.000      -6484.000      -6713.000      -6879.000
      -7002.000      -7053.000      -7113.000      -7166.000      -7117.000
      -7014.000      -6934.000      -6766.000      -6495.000      -6277.000
      -6099.000      -6023.000      -5985.000      -5917.000      -5977.000
      -6162.000      -6394.000      -6531.000      -6729.000      -7026.000
      -7270.000      -7580.000      -7832.000      -8011.000      -8112.000
      -8211.000      -8351.000      -8319.000      -8277.000      -8176.000
      -8034.000      -7883.000      -7596.000      -7451.000      -7391.000
      -7333.000      -7338.000      -7411.000      -7634.000      -7729.000
      -7731.000      -7865.000      -7989.000      -8031.000      -7984.000
      -8014.000      -8044.000      -7956.000      -7855.000      -7740.000
      -7717.000      -7578.000      -7308.000      -7145.000      -7073.000
      -6970.000      -6783.000      -6736.000      -6803.000      -6898.000
      -6983.000      -7038.000      -7051.000      -7071.000      -7191.000
      -7184.000      -7182.000      -7259.000      -7296.000      -7336.000
      -7391.000      -7504.000      -7601.000      -7733.000      -7714.000
      -7542.000      -7419.000      -7145.000      -6838.000      -6499.000
      -5973.000      -5466.000      -4986.000      -4480.000      -3945.000
      -3423.000      -2938.000      -2452.000      -2084.000      -1766.000
      -1520.000      -1412.000      -1273.000      -1254.000      -1322.000
      -1380.000      -1575.000      -1731.000      -1951.000      -2256.000
      -2584.000      -3069.000      -3522.000      -4024.000      -4578.000
      -5115.000      -5729.000      -6434.000      -7113.000      -7616.000
      -8170.000      -8730.000      -9158.000      -9512.000      -9747.000
      -9876.000      -9987.000      -9983.000      -9799.000      -9598.000
      -9340.000      -9076.000      -8824.000      -8528.000      -8284.000
      -7998.000      -7631.000      -7280.000      -6855.000      -6317.000
      -5850.000      -5397.000      -4803.000      -4208.000      -3752.000
      -3375.000      -2935.000      -2513.000      -2348.000      -2332.000
      -2181.000      -2132.000      -2272.000      -2434.000      -2600.000
      -2685.000      -2870.000      -3048.000      -3111.000      -3110.000
      -3045.000      -2987.000      -2815.000      -2548.000      -2161.000
      -1770.000      -1417.000      -841.0000      -149.0000       415.0000
       834.0000       1299.000       1808.000       2037.000       2173.000
       2486.000       2681.000       2737.000       2781.000       2821.000
       2865.000       2838.000       2798.000       2822.000       2858.000
       2759.000       2742.000       2681.000       2349.000       2046.000
       1761.000       1456.000       1045.000       562.0000       164.0000
      -261.0000      -793.0000      -1199.000      -1492.000      -1962.000
      -2436.000      -2918.000      -3432.000      -3958.000      -4632.000
      -5244.000      -5774.000      -6394.000      -7040.000      -7550.000
      -8004.000      -8411.000      -8635.000      -8691.000      -8548.000
      -8339.000      -8143.000      -7833.000      -7516.000      -7273.000
      -7055.000      -6823.000      -6541.000      -6309.000      -6095.000
      -5719.000      -5248.000      -4842.000      -4456.000      -4057.000
      -3700.000      -3447.000      -3390.000      -3384.000      -3321.000
      -3326.000      -3422.000      -3456.000      -3338.000      -3221.000
      -3096.000      -2825.000      -2436.000      -2051.000      -1726.000
      -1428.000      -1136.000      -834.0000      -630.0000      -464.0000
      -276.0000      -232.0000      -162.0000      -34.00000       47.00000
       192.0000       354.0000       564.0000       804.0000       997.0000
       1069.000       1115.000       1228.000       1208.000       1166.000
       1131.000       991.0000       874.0000       778.0000       593.0000
       374.0000       184.0000       76.00000       47.00000      -115.0000
      -363.0000      -494.0000      -693.0000      -1115.000      -1616.000
      -2183.000      -2815.000      -3575.000      -4491.000      -5374.000
      -6220.000      -7129.000      -7965.000      -8640.000      -9261.000
      -9819.000      -10308.00      -10720.00      -11125.00      -11493.00
      -11686.00      -11827.00      -11966.00      -12071.00      -12038.00
