     0.02500000      -12345.00      -12345.00   2.004240e+09      -12345.00
   0.0005380000       659.9755      -395.0196      -12345.00      -12345.00
      -12345.00      -12345.00      -12345.00      -12345.00      -12345.00
      -12345.00      -12345.00      -12345.00      -12345.00      -12345.00
      -12345.00      -12345.00      -12345.00      -12345.00      -12345.00
      -12345.00      -12345.00      -12345.00      -12345.00      -12345.00
      -12345.00       9.287300       167.5369       0.000000       6.000000
       9.831100       126.5297      -12345.00       24.71000      -12345.00
      -12345.00      -12345.00      -12345.00      -12345.00      -12345.00
      -12345.00      -12345.00      -12345.00      -12345.00      -12345.00
       4494.740       87.20193       274.2630       40.42395      -12345.00
      -12345.00      -12345.00       339.2000       90.00000      -12345.00
      -12345.00      -12345.00      -12345.00      -12345.00      -12345.00
      -12345.00      -12345.00      -12345.00      -12345.00      -12345.00
      2019        39        12         1        43
        19         6    -12345    -12345     26400
    -12345    -12345    -12345    -12345    -12345
         1    -12345    -12345    -12345    -12345
    -12345    -12345    -12345    -12345    -12345
    -12345    -12345    -12345    -12345    -12345
    -12345    -12345    -12345    -12345    -12345
         1    -12345    -12345    -12345    -12345
KWJN    Mindanao, Philip
10      -12345  -12345  
-12345  -12345  -12345  
-12345  -12345  -12345  
-12345  -12345  -12345  
-12345  -12345  -12345  
-12345  -12345  BH1     
II      -12345  Nanometr
[...]
      -4020.000      -5104.000      -3684.000      -3261.000      -2818.000
      -2100.000      -4217.000      -5500.000      -3404.000      -3460.000
      -4800.000      -4556.000      -4449.000      -4919.000      -4605.000
      -5857.000      -8205.000      -7028.000      -6805.000      -7958.000
      -5917.000      -5858.000      -7542.000      -6489.000      -5304.000
      -4422.000      -4383.000      -5672.000      -6606.000      -7525.000
      -7704.000      -7883.000      -7557.000      -6073.000      -5956.000
      -6706.000      -7726.000      -9289.000      -9910.000      -9076.000
      -8469.000      -8192.000      -7826.000      -8412.000      -8376.000
      -7459.000      -6951.000      -6502.000      -6598.000      -5771.000
      -3989.000      -3430.000      -3435.000      -3377.000      -2096.000
      -969.0000      -1910.000      -2486.000      -1779.000      -1071.000
      -1784.000      -2997.000      -2748.000      -1189.000      -1006.000
      -2662.000      -2726.000      -2719.000      -4057.000      -3017.000
      -803.0000      -1335.000      -1268.000       216.0000      -782.0000
      -1846.000      -2136.000      -1255.000       1651.000       2025.000
       284.0000       780.0000       3122.000       2806.000       358.0000
       507.0000       1526.000       282.0000      -1031.000       281.0000
       1860.000       1941.000      -36.00000      -2265.000      -1468.000
      -1661.000      -2213.000      -2150.000      -2813.000      -1831.000
      -1521.000      -1440.000      -2173.000      -3961.000      -4928.000
      -5730.000      -4833.000      -4249.000      -4781.000      -4624.000
      -3752.000      -4215.000      -5993.000      -6450.000      -6958.000
      -5337.000      -3136.000      -4528.000      -4651.000      -2913.000
      -3364.000      -5509.000      -5379.000      -4679.000      -6505.000
      -7112.000      -5380.000      -5521.000      -8722.000      -9797.000
      -8539.000      -7952.000      -7147.000      -7273.000      -9193.000
      -9901.000      -8530.000      -8179.000      -8705.000      -9529.000
      -8739.000      -5599.000      -5665.000      -6104.000      -5024.000
      -5442.000      -5333.000      -5369.000      -4896.000      -4647.000
      -4856.000      -4513.000      -5121.000      -5950.000      -7284.000
      -7683.000      -6691.000      -6165.000      -6633.000      -7085.000
      -7446.000      -8273.000      -7999.000      -8051.000      -8767.000
      -9546.000      -10409.00      -9662.000      -9443.000      -9843.000
      -8629.000      -8189.000      -8988.000      -9454.000      -10476.00
      -9738.000      -7429.000      -7593.000      -7568.000      -6218.000
      -5313.000      -4912.000      -4733.000      -2714.000      -413.0000
      -945.0000      -2896.000      -3372.000      -1311.000       1022.000
       1867.000       1424.000       665.0000       2454.000       4726.000
       4832.000       4438.000       5434.000       7311.000       7906.000
       8803.000       9182.000       9785.000       12077.00       11955.00
       10622.00       10747.00       12381.00       14178.00       12772.00
       10961.00       12330.00       12705.00       10518.00       9399.000
       8991.000       9435.000       10806.00       10058.00       9692.000
       9547.000       8520.000       9800.000       10507.00       9271.000
       8266.000       7194.000       7162.000       9698.000       10589.00
       7964.000       5767.000       5831.000       6916.000       6390.000
       5075.000       4101.000       4963.000       4885.000       2645.000
       1271.000      -331.0000      -62.00000      -572.0000      -1376.000
      -383.0000       107.0000       449.0000      -384.0000      -920.0000
      -2937.000      -4286.000      -2092.000      -1126.000      -2319.000
      -2842.000      -803.0000       187.0000      -1845.000      -3689.000
      -2779.000      -1450.000      -3250.000      -4119.000      -4105.000
      -6084.000      -5434.000      -2743.000      -2484.000      -2963.000
      -2568.000      -3818.000      -4527.000      -3793.000      -4561.000
      -3964.000      -3224.000      -3496.000      -4244.000      -5199.000
      -5307.000      -6069.000      -4561.000      -4244.000      -5599.000
      -4572.000      -4482.000      -4116.000      -4376.000      -5144.000
      -5066.000      -5968.000      -5457.000      -4549.000      -4531.000
      -4558.000      -6049.000      -6983.000      -5727.000      -4164.000
      -4265.000      -6222.000      -6969.000      -7175.000      -6235.000
      -3227.000      -4065.000      -6767.000      -6503.000      -4639.000
      -4359.000      -4406.000      -2456.000      -2989.000      -2586.000
      -262.0000      -2596.000      -3938.000      -2140.000      -2522.000
      -2425.000      -2114.000      -2295.000       712.0000       1499.000
      -778.0000      -1421.000      -1610.000      -983.0000      -568.0000
      -1014.000      -1450.000      -636.0000       976.0000       1941.000
       2315.000       817.0000       622.0000       2070.000       2255.000
       1376.000       714.0000       1778.000       2976.000       2186.000
       455.0000       414.0000       486.0000       408.0000       663.0000
      -679.0000      -438.0000       2221.000       2351.000       7.000000
       96.00000       1282.000       1727.000       1730.000      -200.0000
      -8.000000       1013.000       583.0000       1147.000      -1154.000
      -2943.000       328.0000       2608.000       1621.000      -1266.000
      -3394.000      -988.0000       1864.000       1736.000       1379.000
       229.0000      -1406.000      -1551.000      -1017.000      -120.0000
      -1197.000      -3626.000      -3067.000      -1976.000      -272.0000
       2055.000      -492.0000      -3498.000      -2144.000       615.0000
       1517.000       1062.000       615.0000      -1388.000      -1531.000
      -832.0000      -1491.000      -895.0000      -1132.000      -732.0000
      -675.0000      -1994.000      -1918.000      -2695.000      -3003.000
      -2482.000      -2934.000      -2603.000      -2006.000      -2611.000
      -3547.000      -3667.000      -3647.000      -4270.000      -4685.000
      -4316.000      -4022.000      -4336.000      -5391.000      -5447.000
      -4700.000      -4858.000      -3334.000      -1743.000      -3233.000
      -5057.000      -4888.000      -3005.000      -2601.000      -5333.000
      -6197.000      -3406.000      -1181.000      -2193.000      -4252.000
      -3448.000      -3620.000      -4883.000      -3337.000      -2660.000
      -3012.000      -2544.000      -1408.000      -1391.000      -1301.000
       809.0000       688.0000      -425.0000      -290.0000      -338.0000
       143.0000       1041.000       1050.000       1189.000       2601.000
       4015.000       3861.000       1236.000       147.0000       2246.000
       2967.000       2285.000       1893.000       1079.000       2505.000
       5923.000       5495.000       2487.000       1055.000       2063.000
       4467.000       3997.000       2665.000       3642.000       4461.000
       5944.000       6188.000       3760.000       2199.000       2308.000
       3597.000       4073.000       1891.000      -645.0000      -114.0000
      -273.0000      -3953.000      -5465.000      -4973.000      -6401.000
      -7064.000      -5859.000      -5556.000      -6765.000      -9522.000
      -10852.00      -8683.000      -7493.000      -7634.000      -7993.000
      -10282.00      -11018.00      -9481.000      -7873.000      -6182.000
      -6901.000      -8718.000      -9449.000      -10071.00      -8708.000
      -6432.000      -6451.000      -7279.000      -7217.000      -7839.000
      -8672.000      -6666.000      -5014.000      -7471.000      -7382.000
      -3669.000      -3229.000      -3058.000      -3227.000      -4779.000
      -3469.000      -2203.000      -3254.000      -4680.000      -3041.000
       230.0000       1249.000      -33.00000      -2298.000      -2912.000
      -2694.000      -2121.000      -918.0000      -923.0000      -2369.000
      -4108.000      -2851.000      -820.0000      -1709.000      -2746.000
      -3357.000      -2206.000       153.0000      -78.00000      -908.0000
      -785.0000       79.00000       1525.000       786.0000      -209.0000
       155.0000       495.0000       2421.000       2182.000       207.0000
       1180.000       1253.000       450.0000       740.0000      -367.0000
      -2084.000      -732.0000       1923.000       487.0000      -963.0000
       190.0000      -569.0000      -546.0000       575.0000      -988.0000
      -2735.000      -1385.000       1873.000       3026.000       1798.000
       1461.000       1115.000       66.00000       540.0000       1224.000
       2383.000       3097.000       2171.000       1596.000       1267.000
       3611.000       4148.000       1576.000       3217.000       4425.000
       3542.000       3841.000       4023.000       4725.000       4497.000
       4100.000       5074.000       5090.000       4707.000       3171.000
       1640.000       3581.000       4962.000       4783.000       4872.000
       4566.000       4221.000       2663.000       2939.000       4492.000
       4289.000       5531.000       6294.000       5584.000       4858.000
       4095.000       4378.000       4859.000       5689.000       5811.000
       4742.000       4391.000       4346.000       3978.000       3937.000
       4056.000       3277.000       3185.000       3212.000       2207.000
       2042.000       2080.000       2409.000       2026.000       1030.000
       1328.000       1389.000       1462.000       1544.000       1701.000
       3005.000       2582.000       1370.000       2162.000       3382.000
       3124.000       751.0000       120.0000       2203.000       3178.000
       2453.000       2009.000       2883.000       3614.000       3441.000
       3131.000       2881.000       2526.000       3072.000       4308.000
       5242.000       6587.000       6935.000       6603.000       7092.000
       6023.000       5558.000       7487.000       7945.000       7909.000
       8807.000       9100.000       9275.000       9388.000       9123.000
       7529.000       7118.000       9297.000       9258.000       8696.000
       6989.000       3568.000       3713.000       4635.000       5736.000
       5785.000       2982.000       2627.000       4657.000       4952.000
       3689.000       4684.000       5917.000       5597.000       4596.000
       2160.000       3380.000       5921.000       5198.000       3688.000
       1358.000       1869.000       3838.000       2608.000       2438.000
       2791.000       1760.000       1198.000       131.0000       327.0000
       1694.000       2328.000       3499.000       4412.000       3868.000
       2267.000       2264.000       3290.000       3999.000       6951.000
       8619.000       7924.000       8998.000       10663.00       11513.00
       11667.00       12518.00       14504.00       14506.00       14495.00
       16548.00       16764.00       15897.00       17260.00       19884.00
       20875.00       20260.00       20791.00       21574.00       19185.00
       17169.00       20415.00       23779.00       25071.00       24935.00
       22207.00       20478.00       21263.00       24297.00       25017.00
       22647.00       22500.00       21944.00       20702.00       20307.00
       21118.00       22408.00       20375.00       18044.00       18232.00
       18708.00       18623.00       18437.00       17630.00       17132.00
       17544.00       17052.00       17060.00       16999.00       15984.00
       16275.00       16068.00       14453.00       13770.00       13615.00
       11553.00       8888.000       9035.000       10497.00       9301.000
       6583.000       6507.000       7266.000       5884.000       4314.000
       2911.000       1756.000       856.0000      -1356.000      -2699.000
      -3707.000      -4423.000      -4041.000      -6441.000      -8363.000
      -8477.000      -9281.000      -9906.000      -11246.00      -11905.00
      -13494.00      -16810.00      -17963.00      -17870.00      -18637.00
      -19987.00      -20921.00      -22442.00      -24864.00      -26436.00
      -28181.00      -28698.00      -27766.00      -29727.00      -31591.00
      -31019.00      -31580.00      -31914.00      -32118.00      -35050.00
      -36805.00      -35458.00      -35382.00      -37200.00      -38610.00
      -39505.00      -41495.00      -41643.00      -39162.00      -39889.00
      -42770.00      -43836.00      -44019.00      -43452.00      -42055.00
      -42847.00      -43823.00      -43536.00      -44681.00      -44096.00
      -41986.00      -41189.00      -41534.00      -41547.00      -40022.00
      -39414.00      -39484.00      -39314.00      -37859.00      -34631.00
      -33848.00      -34914.00      -34943.00      -33760.00      -31368.00
      -28977.00      -27433.00      -28167.00      -28376.00      -25601.00
      -24927.00      -24696.00      -21662.00      -19495.00      -19628.00
      -18905.00      -16657.00      -15922.00      -14128.00      -12566.00
      -11940.00      -9730.000      -8925.000      -7631.000      -6036.000
      -5526.000      -3415.000      -1035.000      -861.0000      -351.0000
       1343.000       1717.000       2040.000       2839.000       4118.000
       6143.000       7410.000       5368.000       2348.000       4233.000
       7851.000       9943.000       10602.00       8282.000       7250.000
       9008.000       9784.000       9743.000       9410.000       8860.000
       9423.000       8893.000       5801.000       5073.000       7166.000
       7618.000       6499.000       6575.000       8088.000       8313.000
       6548.000       5372.000       6051.000       6530.000       6799.000
       6402.000       4531.000       5226.000       6163.000       4216.000
       3724.000       3913.000       4054.000       5434.000       4055.000
       1997.000       2608.000       2171.000       3524.000       6573.000
       4461.000       2569.000       4486.000       4056.000       2502.000
       3662.000       4951.000       4191.000       4415.000       6691.000
       6763.000       4171.000       3657.000       4497.000       4995.000
       5556.000       3994.000       2486.000       1990.000       1940.000
       2950.000       959.0000      -2057.000      -1170.000       591.0000
       903.0000      -23.00000      -1744.000      -1846.000      -1573.000
      -1504.000       729.0000       1529.000       1604.000       3005.000
       1817.000       1747.000       3822.000       3980.000       2753.000
       1698.000       1892.000       2420.000       4419.000       6371.000
       6072.000       6220.000       6205.000       5052.000       4333.000
       5814.000       8026.000       8017.000       9631.000       10670.00
       7892.000       8379.000       8527.000       7571.000       10394.00
       10468.00       9813.000       12078.00       12327.00       11321.00
       11057.00       10656.00       10673.00       11483.00       10234.00
       8347.000       9941.000       12971.00       15255.00       13598.00
       10530.00       12050.00       14765.00       15052.00       12944.00
       12124.00       13396.00       13327.00       13005.00       12150.00
       11317.00       12015.00       11192.00       10348.00       10904.00
       10774.00       10514.00       9204.000       8810.000       10455.00
       9919.000       8899.000       9002.000       8241.000       8337.000
       9065.000       8674.000       7201.000       6478.000       7189.000
       7573.000       7231.000       4834.000       4124.000       6046.000
       5849.000       6651.000       7300.000       4620.000       2455.000
       2558.000       3756.000       4704.000       4649.000       5305.000
       6716.000       6585.000       6730.000       6239.000       5026.000
       5957.000       7108.000       7811.000       8294.000       9493.000
       10640.00       9786.000       9833.000       11409.00       12783.00
       12142.00       9696.000       11388.00       14567.00       12956.00
       12552.00       14189.00       14608.00       15234.00       16030.00
       17340.00       16590.00       16082.00       15368.00       11259.00
       11247.00       15478.00       18239.00       17754.00       15638.00
       14816.00       15838.00       18066.00       18305.00       17682.00
       17894.00       18509.00       19696.00       19049.00       18437.00
       19283.00       18454.00       17679.00       18329.00       17418.00
       17144.00       18068.00       16622.00       15240.00       16552.00
       16725.00       13206.00       12741.00       15176.00       14577.00
       14492.00       13939.00       12121.00       13282.00       15609.00
       14987.00       11695.00       9607.000       10835.00       13712.00
       14622.00       14907.00       15239.00       14743.00       16083.00
       17553.00       16421.00       14807.00       15592.00       16390.00
       16131.00       16384.00       15168.00       15516.00       18087.00
       17885.00       16321.00       14914.00       14974.00       16678.00
       16610.00       15476.00       14657.00       13639.00       12801.00
       13120.00       13785.00       14329.00       14001.00       11852.00
       10353.00       9999.000       10738.00       11312.00       10648.00
       10956.00       9691.000       7058.000       7036.000       7689.000
       6754.000       5218.000       4796.000       5016.000       4735.000
       4266.000       4223.000       4605.000       3312.000       1454.000
       459.0000       364.0000       1393.000      -370.0000      -2428.000
      -1771.000      -3708.000      -7613.000      -8560.000      -8637.000
      -9748.000      -11159.00      -11847.00      -11487.00      -14566.00
      -17061.00      -16555.00      -16881.00      -17342.00      -20394.00
      -22892.00      -22797.00      -24629.00      -26454.00      -24596.00
      -22309.00      -23153.00      -25723.00      -27667.00      -25759.00
