     0.02500000      -12345.00      -12345.00   2.013470e+09      -12345.00
   0.0005380000       659.9755      -395.0196      -12345.00      -12345.00
      -12345.00      -12345.00      -12345.00      -12345.00      -12345.00
      -12345.00      -12345.00      -12345.00      -12345.00      -12345.00
      -12345.00      -12345.00      -12345.00      -12345.00      -12345.00
      -12345.00      -12345.00      -12345.00      -12345.00      -12345.00
      -12345.00       9.287300       167.5369       0.000000       6.000000
       9.831100       126.5297      -12345.00       24.71000      -12345.00
      -12345.00      -12345.00      -12345.00      -12345.00      -12345.00
      -12345.00      -12345.00      -12345.00      -12345.00      -12345.00
       4494.740       87.20193       274.2630       40.42395      -12345.00
      -12345.00      -12345.00       69.10000       90.00000      -12345.00
      -12345.00      -12345.00      -12345.00      -12345.00      -12345.00
      -12345.00      -12345.00      -12345.00      -12345.00      -12345.00
      2019        39        12         1        43
        19         6    -12345    -12345     26400
    -12345    -12345    -12345    -12345    -12345
         1    -12345    -12345    -12345    -12345
    -12345    -12345    -12345    -12345    -12345
    -12345    -12345    -12345    -12345    -12345
    -12345    -12345    -12345    -12345    -12345
         1    -12345    -12345    -12345    -12345
KWJN    Mindanao, Philip
10      -12345  -12345  
-12345  -12345  -12345  
-12345  -12345  -12345  
-12345  -12345  -12345  
-12345  -12345  -12345  
-12345  -12345  BH2     
II      -12345  Nanometr
[...]
       15774.00       15036.00       15597.00       16176.00       16213.00
       16259.00       16192.00       17879.00       18890.00       17524.00
       17275.00       17198.00       18076.00       19316.00       17698.00
       17098.00       18116.00       18837.00       17651.00       15656.00
       17965.00       18881.00       16258.00       16254.00       16479.00
       14580.00       13080.00       15111.00       15561.00       11419.00
       13261.00       16090.00       12727.00       12339.00       13038.00
       12862.00       13797.00       12517.00       12389.00       14669.00
       14328.00       12901.00       14081.00       13809.00       13532.00
       13125.00       11088.00       13686.00       12581.00       10803.00
       14501.00       11981.00       11039.00       13373.00       11654.00
       10761.00       9266.000       9504.000       12440.00       11372.00
       9943.000       9955.000       7861.000       8468.000       9165.000
       8818.000       10390.00       8679.000       8104.000       9588.000
       9106.000       7802.000       6697.000       6825.000       6081.000
       5784.000       5410.000       6044.000       7906.000       6033.000
       5247.000       5825.000       6052.000       6604.000       5603.000
       4744.000       1586.000      -43.00000       1137.000       555.0000
       988.0000       307.0000      -2123.000      -2388.000      -1106.000
      -2334.000      -4313.000      -3558.000      -4315.000      -6251.000
      -6227.000      -4995.000      -4478.000      -5937.000      -8180.000
      -8549.000      -5812.000      -4529.000      -5931.000      -5956.000
      -3989.000      -4065.000      -6879.000      -7562.000      -7109.000
      -6909.000      -7205.000      -7605.000      -5346.000      -4293.000
      -6013.000      -6432.000      -5599.000      -5487.000      -4388.000
      -3212.000      -2778.000      -1680.000      -1507.000      -1160.000
      -1165.000      -1143.000       442.0000       2064.000       3238.000
       3872.000       5135.000       7320.000       8171.000       6894.000
       7584.000       10706.00       12762.00       13452.00       12285.00
       11635.00       13686.00       15104.00       15685.00       16172.00
       15114.00       15873.00       18137.00       17232.00       16499.00
       18003.00       17999.00       17020.00       17514.00       19570.00
       20274.00       19018.00       18634.00       17347.00       16481.00
       18234.00       18041.00       17350.00       18000.00       17672.00
       18584.00       19321.00       17550.00       17071.00       19280.00
       20028.00       19015.00       18799.00       18122.00       18301.00
       18970.00       19098.00       20246.00       20221.00       19053.00
       17842.00       17704.00       18755.00       17644.00       15893.00
       16133.00       16116.00       15682.00       15202.00       13041.00
       12911.00       14836.00       14373.00       12888.00       12470.00
       12546.00       11505.00       10027.00       8571.000       8596.000
       10128.00       9927.000       8363.000       7002.000       5937.000
       5105.000       5638.000       6144.000       6148.000       6890.000
       6265.000       4512.000       3881.000       3965.000       2978.000
       2556.000       3229.000       2315.000       1557.000       2787.000
       5034.000       6380.000       6443.000       5322.000       2977.000
       1884.000       1799.000       2419.000       2364.000       1730.000
       4039.000       5111.000       3595.000       3568.000       5136.000
       6225.000       5374.000       5929.000       6348.000       6500.000
       9053.000       9366.000       10217.00       10872.00       8584.000
       10692.00       14834.00       14050.00       11439.00       12176.00
       12992.00       12204.00       14109.00       13929.00       13921.00
       16227.00       13170.00       14557.00       17992.00       15449.00
       16683.00       18353.00       18245.00       18218.00       16394.00
       17438.00       20340.00       21355.00       21255.00       20843.00
       21533.00       22519.00       21956.00       22407.00       23534.00
       22012.00       21588.00       22715.00       22861.00       24349.00
       25717.00       25247.00       23426.00       21673.00       22233.00
       24335.00       23907.00       21265.00       20746.00       20987.00
       20091.00       18752.00       19152.00       21423.00       22585.00
       21157.00       21011.00       21592.00       16474.00       14256.00
       16797.00       15388.00       12689.00       9102.000       7868.000
       10769.00       10709.00       9302.000       9372.000       8411.000
       8537.000       9057.000       6808.000       6347.000       8242.000
       9414.000       9931.000       9460.000       9761.000       10119.00
       10665.00       11162.00       9845.000       8944.000       8999.000
       12347.00       14042.00       13315.00       14946.00       13395.00
       14612.00       16794.00       15880.00       18484.00       17867.00
       15233.00       15846.00       17842.00       20348.00       20823.00
       19400.00       20132.00       23019.00       22110.00       21163.00
       21876.00       21327.00       22393.00       21986.00       21312.00
       21758.00       21114.00       21904.00       22040.00       21160.00
       21898.00       20815.00       18365.00       18547.00       18099.00
       16510.00       17155.00       16615.00       13245.00       12446.00
       13371.00       13065.00       13515.00       12228.00       11362.00
       12717.00       10992.00       9085.000       8773.000       7648.000
       7011.000       7643.000       7871.000       6557.000       6156.000
       6172.000       5373.000       5204.000       3702.000       4088.000
       8015.000       6288.000       3040.000       4563.000       4517.000
       5907.000       8027.000       7583.000       8519.000       8011.000
       6955.000       6657.000       5942.000       7566.000       8280.000
       5502.000       5508.000       7353.000       5667.000       4972.000
       4991.000       3928.000       4819.000       5674.000       5324.000
       4410.000       1575.000       424.0000       3691.000       3933.000
       2194.000       2287.000       1271.000       2750.000       5222.000
       4700.000       2826.000       3491.000       4396.000       60.00000
       27.00000       2617.000       329.0000       2456.000       4365.000
       1501.000       1616.000       1477.000       1165.000       2831.000
       1695.000      -194.0000      -234.0000      -234.0000      -1516.000
      -1971.000       529.0000       767.0000      -1650.000      -917.0000
       1556.000       1328.000      -314.0000       79.00000       319.0000
       407.0000       2807.000       3771.000       4641.000       6564.000
       5538.000       4966.000       6114.000       6516.000       6659.000
       6672.000       7588.000       8683.000       7814.000       8565.000
       11192.00       12178.00       12773.00       12643.00       13025.00
       13626.00       12861.00       12920.00       12875.00       13361.00
       14455.00       14685.00       14876.00       13100.00       12618.00
       13152.00       11840.00       14853.00       15441.00       12548.00
       13759.00       12058.00       10059.00       10137.00       9214.000
       11429.00       11744.00       8884.000       9437.000       11985.00
       11773.00       9760.000       9648.000       8858.000       9914.000
       12825.00       10517.00       9345.000       12541.00       13050.00
       10848.00       8711.000       9318.000       12291.00       12158.00
       11825.00       13212.00       13279.00       13211.00       13079.00
       13239.00       12577.00       12696.00       14706.00       15198.00
       15043.00       16031.00       17671.00       16818.00       15229.00
       16016.00       17675.00       19292.00       17908.00       17392.00
       19105.00       19881.00       20459.00       19122.00       17417.00
       16554.00       17778.00       18162.00       17682.00       19085.00
       18321.00       16910.00       14026.00       12853.00       15527.00
       15927.00       17037.00       17019.00       14818.00       15916.00
       16697.00       17150.00       18238.00       17178.00       18028.00
       19691.00       17822.00       16910.00       17386.00       17621.00
       19194.00       18458.00       16740.00       16507.00       15731.00
       15173.00       14776.00       14503.00       14454.00       14725.00
       14882.00       14327.00       12847.00       10879.00       8874.000
       8132.000       9493.000       8274.000       6273.000       6642.000
       5384.000       3421.000       3448.000       3937.000       4197.000
       3514.000       2076.000       2365.000       2554.000       3038.000
       4795.000       4941.000       3543.000       3719.000       6886.000
       8305.000       6758.000       7937.000       10013.00       9137.000
       9038.000       10075.00       12478.00       12274.00       10504.00
       13409.00       14232.00       15007.00       16194.00       16148.00
       17323.00       16694.00       16817.00       18641.00       20950.00
       20796.00       19699.00       19846.00       19442.00       21304.00
       22192.00       21327.00       21777.00       21548.00       20990.00
       20121.00       21585.00       23054.00       19708.00       18474.00
       19371.00       19651.00       20107.00       17483.00       16038.00
       15676.00       13770.00       14832.00       14401.00       13761.00
       15039.00       13138.00       13995.00       16135.00       14741.00
       14665.00       14486.00       12228.00       12473.00       13978.00
       12897.00       12972.00       14448.00       14119.00       13477.00
       13251.00       14213.00       13842.00       12713.00       13791.00
       13654.00       14425.00       13869.00       12267.00       14845.00
       16309.00       16254.00       17175.00       17584.00       16950.00
       16827.00       17593.00       17849.00       18052.00       17831.00
       17183.00       18059.00       18468.00       17910.00       19120.00
       17431.00       15617.00       17552.00       15371.00       12471.00
       13236.00       12024.00       10935.00       11582.00       10667.00
       11114.00       11018.00       8800.000       9965.000       10558.00
       9822.000       11134.00       9390.000       7988.000       9034.000
       9409.000       9810.000       7540.000       7565.000       8979.000
       6068.000       4559.000       5408.000       5277.000       3947.000
       3622.000       3082.000       2739.000       4109.000       2564.000
       579.0000       806.0000       1527.000       2282.000       351.0000
      -1798.000      -1984.000      -1103.000      -859.0000      -1829.000
      -1145.000      -1429.000      -2574.000      -2988.000      -3395.000
      -2550.000      -2424.000      -3455.000      -3350.000      -2947.000
      -3301.000      -2364.000      -1922.000      -2663.000      -2841.000
      -2472.000      -1751.000      -3028.000      -3787.000      -3048.000
      -2974.000      -3063.000      -2323.000      -1123.000      -2326.000
      -2250.000       534.0000       1288.000       318.0000      -591.0000
      -390.0000       1211.000       2395.000       2179.000       1934.000
       1621.000       1688.000       2613.000       1841.000       987.0000
       2097.000       2568.000       1469.000       36.00000      -100.0000
       526.0000       439.0000      -27.00000       297.0000       1432.000
       2659.000       3253.000       1817.000       1661.000       2725.000
       2478.000       3680.000       3259.000       2995.000       5776.000
       4837.000       3846.000       6087.000       6721.000       7252.000
       8642.000       8702.000       8232.000       9511.000       11607.00
       12617.00       12964.00       13834.00       16209.00       18167.00
       18169.00       17901.00       18281.00       19937.00       21728.00
       22244.00       23974.00       26580.00       26756.00       27398.00
       28875.00       29415.00       31356.00       31456.00       31682.00
       34226.00       34321.00       34080.00       33893.00       31956.00
       32222.00       36320.00       36875.00       33356.00       33445.00
       35898.00       37170.00       37609.00       38060.00       37868.00
       38303.00       38856.00       39025.00       40265.00       39971.00
       40385.00       41501.00       41289.00       42416.00       43495.00
       42999.00       41018.00       39979.00       41197.00       41342.00
       40778.00       38944.00       36932.00       38899.00       40278.00
       38773.00       36285.00       33032.00       33110.00       34220.00
       30715.00       28334.00       29133.00       28678.00       28047.00
       27683.00       27078.00       25737.00       24560.00       24270.00
       22698.00       21358.00       22358.00       22883.00       20199.00
       17201.00       16776.00       17159.00       16984.00       17041.00
       16982.00       16558.00       16463.00       14495.00       12696.00
       14355.00       14702.00       12838.00       12388.00       12358.00
       10326.00       9056.000       11855.00       14941.00       14248.00
       11430.00       9404.000       9644.000       11561.00       11679.00
       10414.00       9909.000       10879.00       13068.00       11072.00
       8547.000       11495.00       11968.00       11471.00       12799.00
       10459.00       10218.00       10864.00       9118.000       10358.00
       11769.00       11938.00       11974.00       11685.00       12522.00
       12075.00       10421.00       10210.00       10908.00       12021.00
       12815.00       13240.00       13350.00       13297.00       13156.00
       12304.00       12533.00       12085.00       10001.00       9921.000
       10513.00       9456.000       9109.000       10375.00       11248.00
       11684.00       11037.00       9415.000       7834.000       8047.000
       10045.00       10498.00       10768.00       10236.00       8342.000
       8329.000       8715.000       8757.000       8778.000       8257.000
       9061.000       10093.00       8477.000       6590.000       7536.000
       7837.000       6691.000       5943.000       5287.000       7164.000
       9935.000       9022.000       4648.000       2171.000       2806.000
       4363.000       5322.000       3399.000       2028.000       2925.000
       4762.000       5466.000       4359.000       2913.000       2508.000
       5482.000       6390.000       4818.000       4455.000       3367.000
       2820.000       3150.000       4631.000       3926.000       756.0000
       1269.000       2582.000       1223.000       466.0000       1595.000
       1229.000      -110.0000      -647.0000      -2825.000      -4587.000
      -3519.000      -3175.000      -4656.000      -5394.000      -5998.000
      -5519.000      -5611.000      -8761.000      -7681.000      -4980.000
      -7876.000      -10235.00      -9157.000      -9310.000      -12515.00
      -12998.00      -9278.000      -8582.000      -10249.00      -10659.00
      -9483.000      -9448.000      -11745.00      -9317.000      -7893.000
      -9458.000      -6195.000      -7321.000      -9216.000      -7502.000
      -8832.000      -6500.000      -4359.000      -5539.000      -6902.000
      -8069.000      -4763.000      -2956.000      -3693.000      -3591.000
      -4354.000      -3109.000      -2442.000      -3635.000      -1759.000
      -361.0000      -1822.000      -1566.000      -203.0000      -69.00000
      -33.00000       243.0000       2522.000       3154.000      -206.0000
       2948.000       6151.000       5493.000       8646.000       5728.000
       1740.000       3328.000       4108.000       5230.000       4486.000
       4544.000       4628.000       2031.000       3601.000       5423.000
       5090.000       4074.000       1346.000       2550.000       4027.000
       2133.000       4288.000       6950.000       6198.000       6630.000
       6750.000       6784.000       7460.000       7496.000       7521.000
       6553.000       7438.000       8173.000       7255.000       8619.000
       7424.000       6720.000       8814.000       6867.000       6629.000
       7862.000       5274.000       4100.000       4299.000       4997.000
       5308.000       3220.000       3385.000       4757.000       5017.000
       4783.000       1149.000      -633.0000       1687.000      -97.00000
      -1992.000       344.0000       1005.000       1234.000       931.0000
      -2077.000      -3213.000      -2640.000      -1830.000       11.00000
      -1036.000      -5220.000      -5935.000      -4780.000      -6813.000
      -6736.000      -4038.000      -2826.000      -3941.000      -5492.000
      -4352.000      -4163.000      -3942.000      -4928.000      -5415.000
      -3520.000      -6915.000      -7733.000      -5842.000      -5898.000
      -3615.000      -3436.000      -5608.000      -5345.000      -4766.000
      -5577.000      -3358.000      -3403.000      -5506.000      -3603.000
      -3588.000      -3220.000      -1370.000      -1601.000      -298.0000
       538.0000       1455.000       3268.000       1482.000       2127.000
       3800.000       3791.000       5819.000       5475.000       5781.000
       7637.000       8337.000       9436.000       10272.00       11742.00
       13129.00       12381.00       11012.00       11761.00       13026.00
       13616.00       12199.00       12492.00       16856.00       16648.00
       16018.00       17437.00       17149.00       18923.00       18246.00
       18241.00       21408.00       21052.00       20755.00       20394.00
       21029.00       22874.00       21830.00       21534.00       19913.00
       18970.00       20193.00       20114.00       20781.00       18335.00
       18208.00       20964.00       18917.00       18804.00       19790.00
