     0.02500000      -12345.00      -12345.00   2.458430e+09      -12345.00
   0.0005380000       659.9755      -395.0196      -12345.00      -12345.00
      -12345.00      -12345.00      -12345.00      -12345.00      -12345.00
      -12345.00      -12345.00      -12345.00      -12345.00      -12345.00
      -12345.00      -12345.00      -12345.00      -12345.00      -12345.00
      -12345.00      -12345.00      -12345.00      -12345.00      -12345.00
      -12345.00       9.287300       167.5369       0.000000       6.000000
       9.831100       126.5297      -12345.00       24.71000      -12345.00
      -12345.00      -12345.00      -12345.00      -12345.00      -12345.00
      -12345.00      -12345.00      -12345.00      -12345.00      -12345.00
       4494.740       87.20193       274.2630       40.42395      -12345.00
      -12345.00      -12345.00       295.5000       90.00000      -12345.00
      -12345.00      -12345.00      -12345.00      -12345.00      -12345.00
      -12345.00      -12345.00      -12345.00      -12345.00      -12345.00
      2019        39        12         1        43
        19         6    -12345    -12345     26400
    -12345    -12345    -12345    -12345    -12345
         1    -12345    -12345    -12345    -12345
    -12345    -12345    -12345    -12345    -12345
    -12345    -12345    -12345    -12345    -12345
    -12345    -12345    -12345    -12345    -12345
         1    -12345    -12345    -12345    -12345
KWJN    Mindanao, Philip
00      -12345  -12345  
-12345  -12345  -12345  
-12345  -12345  -12345  
-12345  -12345  -12345  
-12345  -12345  -12345  
-12345  -12345  BH1     
II      -12345  Streckei
[...]
      -10560.00      -14357.00      -12595.00      -10584.00      -13900.00
      -12037.00      -11658.00      -14785.00      -12755.00      -11867.00
      -10840.00      -9426.000      -10726.00      -11994.00      -14843.00
      -14783.00      -13622.00      -14319.00      -12033.00      -11222.00
      -13304.00      -14546.00      -16631.00      -17469.00      -15337.00
      -14534.00      -13820.00      -13205.00      -15751.00      -17520.00
      -16552.00      -15311.00      -15212.00      -15934.00      -15374.00
      -13747.00      -13049.00      -14227.00      -15309.00      -13345.00
      -11794.00      -12482.00      -13632.00      -14265.00      -12532.00
      -12174.00      -14066.00      -14701.00      -12708.00      -10535.00
      -13375.00      -14952.00      -12701.00      -13387.00      -13229.00
      -9789.000      -8513.000      -10047.00      -9456.000      -6839.000
      -8721.000      -11767.00      -8847.000      -5438.000      -5369.000
      -6785.000      -7442.000      -4564.000      -3928.000      -7991.000
      -8428.000      -5879.000      -7648.000      -9168.000      -7592.000
      -6098.000      -4074.000      -7218.000      -9349.000      -6718.000
      -9709.000      -9137.000      -7174.000      -10015.00      -8342.000
      -6730.000      -5612.000      -5895.000      -10108.00      -10628.00
      -9710.000      -9372.000      -7034.000      -7336.000      -8350.000
      -7200.000      -8630.000      -9175.000      -8791.000      -10593.00
      -9272.000      -5987.000      -5852.000      -6323.000      -4286.000
      -3876.000      -5752.000      -6343.000      -7022.000      -7389.000
      -7163.000      -6173.000      -6194.000      -9355.000      -10007.00
      -8190.000      -5202.000      -2753.000      -3544.000      -4830.000
      -5960.000      -4558.000      -2028.000      -1817.000      -3590.000
      -2763.000       1858.000       1945.000       1678.000       4335.000
       4171.000       3194.000       2674.000       4053.000       6316.000
       6644.000       4859.000       3023.000       3269.000       2410.000
       366.0000       785.0000       3610.000       4268.000       3411.000
       2969.000       2332.000       2844.000       1278.000      -610.0000
       41.00000      -97.00000      -289.0000      -148.0000      -1329.000
      -1505.000      -1283.000      -2747.000      -3498.000      -4661.000
      -4329.000      -2160.000      -3317.000      -4934.000      -4792.000
      -4398.000      -4938.000      -6759.000      -6129.000      -2881.000
      -3234.000      -7538.000      -10199.00      -9350.000      -6334.000
      -4517.000      -6249.000      -8514.000      -7891.000      -6091.000
      -4860.000      -5664.000      -6979.000      -4831.000      -3310.000
      -3801.000      -3535.000      -2288.000      -537.0000      -1932.000
      -4045.000      -3119.000      -1378.000       1244.000       1300.000
      -1762.000      -941.0000       292.0000      -2063.000      -3014.000
      -3901.000      -4540.000      -1989.000      -1679.000      -3827.000
      -4705.000      -5020.000      -3920.000      -2450.000      -3308.000
      -4829.000      -6059.000      -7281.000      -5382.000      -3133.000
      -4014.000      -5997.000      -7176.000      -5507.000      -4176.000
      -5282.000      -6394.000      -5494.000      -4816.000      -5016.000
      -5883.000      -9106.000      -9057.000      -7661.000      -8047.000
      -7651.000      -6372.000      -4602.000      -3950.000      -4289.000
      -7141.000      -8739.000      -5816.000      -3499.000      -3442.000
      -3303.000      -2030.000      -1327.000      -2916.000      -5385.000
      -4561.000      -1695.000      -2235.000      -3400.000      -2595.000
      -3754.000      -4179.000      -1111.000       110.0000      -1216.000
      -2696.000      -4895.000      -5839.000      -4561.000      -3127.000
      -1622.000      -905.0000      -1324.000      -1962.000      -2525.000
      -4260.000      -6211.000      -4048.000      -2916.000      -5287.000
      -5812.000      -5075.000      -5027.000      -5602.000      -6348.000
      -8268.000      -9656.000      -9895.000      -9776.000      -7969.000
      -8941.000      -13715.00      -14837.00      -11645.00      -10315.00
      -11125.00      -12118.00      -14182.00      -14726.00      -13881.00
      -13227.00      -11219.00      -13955.00      -17543.00      -14069.00
      -13912.00      -15954.00      -14261.00      -14455.00      -12912.00
      -11018.00      -15260.00      -18146.00      -16466.00      -16121.00
      -16819.00      -17242.00      -17254.00      -15079.00      -14610.00
      -15630.00      -15769.00      -16925.00      -16973.00      -17380.00
      -18752.00      -19070.00      -17195.00      -14176.00      -13428.00
      -14703.00      -15847.00      -13924.00      -12129.00      -12234.00
      -12173.00      -11799.00      -11001.00      -11551.00      -13402.00
      -13980.00      -13725.00      -14356.00      -10650.00      -7656.000
      -10855.00      -10351.00      -5690.000      -2051.000      -2638.000
      -5317.000      -4606.000      -2837.000      -2575.000      -3619.000
      -3826.000      -3259.000      -1875.000      -602.0000      -3851.000
      -7013.000      -4992.000      -2319.000      -3011.000      -5728.000
      -8270.000      -7201.000      -3420.000      -2431.000      -2785.000
      -6019.000      -9447.000      -9057.000      -9970.000      -8345.000
      -9207.000      -13729.00      -12964.00      -13593.00      -12317.00
      -7676.000      -9648.000      -14294.00      -15640.00      -13813.00
      -11608.00      -12259.00      -14955.00      -16346.00      -15835.00
      -15666.00      -15805.00      -16056.00      -16054.00      -15156.00
      -15272.00      -16026.00      -16600.00      -17460.00      -17094.00
      -17044.00      -16730.00      -14445.00      -13779.00      -14180.00
      -13594.00      -13894.00      -13902.00      -11697.00      -11004.00
      -11670.00      -11075.00      -11533.00      -11630.00      -10878.00
      -11267.00      -10350.00      -7487.000      -5371.000      -5614.000
      -6737.000      -7074.000      -6019.000      -4431.000      -5884.000
      -7151.000      -4525.000      -2013.000      -1319.000      -3365.000
      -6056.000      -5137.000      -3552.000      -3402.000      -2770.000
      -3749.000      -5322.000      -4280.000      -4720.000      -4612.000
      -1911.000      -1355.000      -1709.000      -2866.000      -3907.000
      -1392.000       29.00000      -1563.000      -482.0000       1526.000
       2723.000       3824.000       1111.000      -1265.000       745.0000
       2496.000       3988.000       5073.000       1892.000       1907.000
       6627.000       6832.000       4922.000       2522.000       806.0000
       3121.000       4784.000       3291.000       2914.000       6844.000
       9009.000       7159.000       6621.000       3924.000       1713.000
       5039.000       6087.000       4231.000       2219.000       964.0000
       1790.000       560.0000      -1059.000      -805.0000      -903.0000
      -1081.000      -1973.000      -2190.000      -1138.000      -3500.000
      -7244.000      -5995.000      -3099.000      -3109.000      -3684.000
      -5562.000      -8565.000      -8431.000      -7472.000      -7496.000
      -7277.000      -8264.000      -9823.000      -10961.00      -10259.00
      -8057.000      -8345.000      -10163.00      -9688.000      -10408.00
      -13508.00      -13156.00      -11766.00      -13413.00      -14196.00
      -11643.00      -10171.00      -10176.00      -10086.00      -11696.00
      -12029.00      -11016.00      -11728.00      -11838.00      -10011.00
      -7679.000      -5525.000      -8273.000      -11539.00      -9890.000
      -10246.00      -9137.000      -5984.000      -5725.000      -6237.000
      -9219.000      -9281.000      -5191.000      -5628.000      -8700.000
      -9616.000      -7107.000      -4508.000      -3966.000      -5249.000
      -7774.000      -5877.000      -3084.000      -5797.000      -7750.000
      -5811.000      -3554.000      -2192.000      -4419.000      -6597.000
      -5607.000      -6299.000      -7310.000      -7026.000      -7714.000
      -9420.000      -8126.000      -5599.000      -7991.000      -10204.00
      -9252.000      -10190.00      -11857.00      -10601.00      -10045.00
      -12242.00      -12817.00      -11447.00      -9156.000      -9219.000
      -11245.00      -12166.00      -13680.00      -12579.00      -10289.00
      -8517.000      -8520.000      -9911.000      -9912.000      -11390.00
      -9298.000      -6959.000      -7095.000      -4668.000      -5337.000
      -6821.000      -7307.000      -7506.000      -4966.000      -5547.000
      -7118.000      -6475.000      -7207.000      -6899.000      -8413.000
      -11730.00      -9021.000      -6230.000      -6858.000      -6962.000
      -8464.000      -8506.000      -8202.000      -8075.000      -5980.000
      -5472.000      -4231.000      -3070.000      -3624.000      -4400.000
      -5397.000      -4928.000      -3210.000      -827.0000       1080.000
       1075.000      -306.0000       112.0000       1558.000       1497.000
       2413.000       3555.000       3552.000       3127.000       2053.000
       2208.000       3456.000       3775.000       3249.000       1881.000
       795.0000       578.0000       1625.000       1983.000      -543.0000
      -1138.000      -20.00000      -1647.000      -3082.000      -1470.000
      -1166.000      -3983.000      -6733.000      -5471.000      -2696.000
      -5079.000      -6819.000      -6674.000      -7021.000      -7060.000
      -8191.000      -8072.000      -8522.000      -9467.000      -10234.00
      -9703.000      -7423.000      -7007.000      -7039.000      -7912.000
      -9753.000      -9779.000      -8403.000      -7582.000      -7355.000
      -5812.000      -6130.000      -7706.000      -5291.000      -3788.000
      -5776.000      -6823.000      -5561.000      -3257.000      -2090.000
      -3114.000      -4780.000      -5693.000      -4873.000      -3157.000
      -3699.000      -4850.000      -5858.000      -6164.000      -4718.000
      -5289.000      -4854.000      -1870.000      -1750.000      -3860.000
      -5368.000      -4712.000      -3591.000      -3742.000      -4356.000
      -6215.000      -7060.000      -5059.000      -4755.000      -5973.000
      -5564.000      -6982.000      -7372.000      -6645.000      -8546.000
      -8869.000      -8315.000      -8117.000      -7489.000      -7230.000
      -8385.000      -9365.000      -8759.000      -8292.000      -5798.000
      -3331.000      -4412.000      -4369.000      -2283.000      -2178.000
      -1164.000       1348.000       1748.000       3099.000       5731.000
       7040.000       8173.000       8634.000       8946.000       11768.00
       13020.00       12253.00       14316.00       14828.00       12083.00
       10456.00       11809.00       16092.00       19087.00       18528.00
       15909.00       13571.00       15493.00       18595.00       18414.00
       18513.00       19763.00       18767.00       17614.00       18244.00
       19033.00       20695.00       19921.00       16457.00       17163.00
       19612.00       19631.00       18894.00       17424.00       18128.00
       20556.00       20576.00       19779.00       19453.00       19287.00
       19049.00       19157.00       18738.00       18263.00       18581.00
       16457.00       13668.00       14181.00       15607.00       14557.00
       12423.00       11398.00       11569.00       11230.00       9970.000
       8346.000       6743.000       6892.000       5784.000       3834.000
       2766.000       2118.000       2178.000      -771.0000      -2137.000
      -1899.000      -4861.000      -6411.000      -6651.000      -6568.000
      -7772.000      -11934.00      -14454.00      -14312.00      -14538.00
      -15523.00      -16397.00      -18288.00      -20022.00      -20621.00
      -22915.00      -24333.00      -22626.00      -22599.00      -24267.00
      -24462.00      -24742.00      -24798.00      -24974.00      -28275.00
      -31327.00      -30963.00      -29447.00      -30485.00      -32949.00
      -33515.00      -35964.00      -36624.00      -33873.00      -36119.00
      -38562.00      -38557.00      -40387.00      -40888.00      -39991.00
      -41483.00      -42777.00      -42049.00      -43700.00      -45486.00
      -44565.00      -43887.00      -44778.00      -46731.00      -47375.00
      -46873.00      -46544.00      -46577.00      -46897.00      -45748.00
      -45103.00      -47192.00      -49613.00      -49189.00      -47568.00
      -46685.00      -45516.00      -47317.00      -48318.00      -45963.00
      -46951.00      -47565.00      -44744.00      -42273.00      -40818.00
      -40262.00      -41438.00      -41806.00      -37581.00      -35426.00
      -36975.00      -36403.00      -35949.00      -35330.00      -33556.00
      -33427.00      -32479.00      -30236.00      -30742.00      -30444.00
      -29158.00      -29660.00      -29274.00      -29423.00      -29414.00
      -27346.00      -24450.00      -24689.00      -28604.00      -27918.00
      -23991.00      -20615.00      -17892.00      -20977.00      -23856.00
      -21302.00      -18288.00      -15568.00      -15481.00      -17153.00
      -14277.00      -12015.00      -15073.00      -16100.00      -13827.00
      -12660.00      -13091.00      -12314.00      -9937.000      -9144.000
      -9473.000      -9383.000      -9550.000      -9813.000      -7578.000
      -5017.000      -6033.000      -6120.000      -4875.000      -6514.000
      -7371.000      -6666.000      -6536.000      -3895.000      -2969.000
      -6181.000      -6473.000      -5286.000      -3774.000      -692.0000
      -624.0000      -1644.000      -2023.000      -4777.000      -6089.000
      -2940.000       193.0000      -287.0000      -1945.000      -428.0000
       1271.000      -385.0000      -2000.000      -3085.000      -1514.000
       1543.000      -1557.000      -4088.000      -3954.000      -5261.000
      -2758.000      -3214.000      -6950.000      -5408.000      -4215.000
      -5107.000      -6005.000      -7576.000      -7707.000      -7994.000
      -7927.000      -4645.000      -3111.000      -3773.000      -3562.000
      -5117.000      -5844.000      -4032.000      -3604.000      -4674.000
      -4971.000      -4904.000      -4451.000      -1152.000       1349.000
       691.0000       1307.000       1855.000      -69.00000      -1659.000
      -989.0000       1480.000       2964.000       5528.000       7013.000
       2928.000       2220.000       2607.000       1700.000       5623.000
       6491.000       5179.000       7108.000       7639.000       7100.000
       6262.000       4955.000       5887.000       8417.000       7214.000
       4728.000       6673.000       10167.00       12998.00       10698.00
       5226.000       6387.000       12522.00       15587.00       13539.00
       11135.00       11191.00       12711.00       13824.00       12609.00
       10093.00       9848.000       10295.00       10580.00       11517.00
       9230.000       7733.000       7984.000       7916.000       10208.00
       10548.00       9225.000       8286.000       7904.000       10200.00
       11053.00       9729.000       9225.000       9362.000       9015.000
       9342.000       10659.00       9132.000       9440.000       12973.00
       12457.00       12362.00       14311.00       12882.00       11247.00
       10951.00       11684.00       15167.00       15110.00       12828.00
       15945.00       18483.00       17868.00       17403.00       18716.00
       20331.00       18494.00       17876.00       19769.00       21344.00
       21577.00       20566.00       22332.00       22442.00       21768.00
       22714.00       18380.00       19379.00       24659.00       22344.00
       22189.00       22347.00       20586.00       21951.00       23772.00
       26116.00       23439.00       20582.00       20987.00       17549.00
       17155.00       20040.00       21814.00       22767.00       20001.00
       17513.00       19096.00       21226.00       20663.00       19611.00
       19714.00       20175.00       19587.00       18239.00       20160.00
       19083.00       15336.00       14995.00       13109.00       13883.00
       17533.00       17556.00       15430.00       13223.00       14464.00
       15222.00       12109.00       12924.00       14399.00       12545.00
       12511.00       12887.00       13359.00       13603.00       14140.00
       15484.00       11569.00       6691.000       7729.000       10350.00
       11234.00       11441.00       11259.00       10677.00       11557.00
       13855.00       12763.00       10249.00       11384.00       11377.00
       11698.00       12946.00       10388.00       11363.00       14355.00
       13498.00       13826.00       13777.00       13483.00       14399.00
       14226.00       14962.00       14306.00       12251.00       11156.00
       11173.00       14571.00       17231.00       15401.00       14486.00
       14847.00       12685.00       12363.00       13014.00       12443.00
       14993.00       15620.00       12667.00       11593.00       10722.00
       10538.00       12766.00       13422.00       12328.00       13429.00
       13638.00       11342.00       10286.00       10114.00       9960.000
       8296.000       7470.000       8332.000       7867.000       6517.000
       5283.000       6287.000       4208.000       1119.000       1028.000
      -1343.000      -3211.000      -2244.000      -1673.000      -4715.000
      -6563.000      -7815.000      -8605.000      -6873.000      -10656.00
      -13636.00      -13630.00      -16629.00      -18447.00      -18030.00
      -16534.00      -17584.00      -21621.00      -22321.00      -20943.00
      -20468.00      -22258.00      -24808.00      -22494.00      -21845.00
      -24785.00      -24565.00      -24153.00      -25606.00      -28036.00
      -30733.00      -29397.00      -27399.00      -29376.00      -28655.00
