     0.05000000      -12345.00      -12345.00   3.741910e+09      -12345.00
   0.0005380000       659.9506      -743.0195      -12345.00      -12345.00
      -12345.00      -12345.00      -12345.00      -12345.00      -12345.00
      -12345.00      -12345.00      -12345.00      -12345.00      -12345.00
      -12345.00      -12345.00      -12345.00      -12345.00      -12345.00
      -12345.00      -12345.00      -12345.00      -12345.00      -12345.00
      -12345.00     -0.6019000       30.73820       1390.000       100.0000
       9.831100       126.5297      -12345.00       24.71000      -12345.00
      -12345.00      -12345.00      -12345.00      -12345.00      -12345.00
      -12345.00      -12345.00      -12345.00      -12345.00      -12345.00
       10652.99       270.3936       80.24371       95.80891      -12345.00
      -12345.00      -12345.00       28.80000       90.00000      -12345.00
      -12345.00      -12345.00      -12345.00      -12345.00      -12345.00
      -12345.00      -12345.00      -12345.00      -12345.00      -12345.00
      2019        39        12         7        31
        19         6    -12345    -12345     13200
    -12345    -12345    -12345    -12345    -12345
         1    -12345    -12345    -12345    -12345
    -12345    -12345    -12345    -12345    -12345
    -12345    -12345    -12345    -12345    -12345
    -12345    -12345    -12345    -12345    -12345
         1    -12345    -12345    -12345    -12345
MBAR    Mindanao, Philip
00      -12345  -12345  
-12345  -12345  -12345  
-12345  -12345  -12345  
-12345  -12345  -12345  
-12345  -12345  -12345  
-12345  -12345  BH1     
II      -12345  Geotech 
[...]
      -252483.0      -252457.0      -252432.0      -252414.0      -252422.0
      -252429.0      -252410.0      -252398.0      -252391.0      -252372.0
      -252368.0      -252385.0      -252376.0      -252357.0      -252370.0
      -252390.0      -252387.0      -252373.0      -252375.0      -252396.0
      -252411.0      -252393.0      -252379.0      -252407.0      -252438.0
      -252460.0      -252479.0      -252507.0      -252540.0      -252557.0
      -252558.0      -252556.0      -252580.0      -252607.0      -252612.0
      -252612.0      -252634.0      -252661.0      -252669.0      -252688.0
      -252720.0      -252744.0      -252751.0      -252771.0      -252805.0
      -252833.0      -252876.0      -252914.0      -252940.0      -252963.0
      -252979.0      -252991.0      -253007.0      -253017.0      -253021.0
      -253036.0      -253043.0      -253038.0      -253016.0      -252981.0
      -252972.0      -252957.0      -252923.0      -252901.0      -252894.0
      -252908.0      -252904.0      -252890.0      -252878.0      -252854.0
      -252827.0      -252797.0      -252770.0      -252746.0      -252716.0
      -252686.0      -252664.0      -252642.0      -252614.0      -252607.0
      -252602.0      -252589.0      -252585.0      -252561.0      -252532.0
      -252533.0      -252539.0      -252522.0      -252503.0      -252487.0
      -252457.0      -252436.0      -252415.0      -252387.0      -252378.0
      -252358.0      -252320.0      -252302.0      -252311.0      -252324.0
      -252321.0      -252316.0      -252330.0      -252363.0      -252392.0
      -252405.0      -252418.0      -252428.0      -252418.0      -252385.0
      -252350.0      -252345.0      -252353.0      -252343.0      -252325.0
      -252324.0      -252320.0      -252295.0      -252273.0      -252272.0
      -252286.0      -252291.0      -252298.0      -252316.0      -252317.0
      -252298.0      -252277.0      -252267.0      -252259.0      -252247.0
      -252245.0      -252242.0      -252232.0      -252228.0      -252227.0
      -252214.0      -252193.0      -252197.0      -252212.0      -252222.0
      -252239.0      -252240.0      -252237.0      -252243.0      -252245.0
      -252253.0      -252264.0      -252267.0      -252286.0      -252318.0
      -252331.0      -252327.0      -252331.0      -252357.0      -252364.0
      -252371.0      -252407.0      -252434.0      -252441.0      -252446.0
      -252461.0      -252475.0      -252470.0      -252477.0      -252490.0
      -252461.0      -252419.0      -252392.0      -252356.0      -252324.0
      -252313.0      -252306.0      -252301.0      -252312.0      -252335.0
      -252360.0      -252373.0      -252375.0      -252395.0      -252434.0
      -252481.0      -252522.0      -252544.0      -252550.0      -252550.0
      -252549.0      -252540.0      -252533.0      -252537.0      -252550.0
      -252554.0      -252534.0      -252510.0      -252482.0      -252454.0
      -252441.0      -252426.0      -252414.0      -252417.0      -252434.0
      -252456.0      -252458.0      -252443.0      -252437.0      -252430.0
      -252399.0      -252369.0      -252359.0      -252335.0      -252298.0
      -252282.0      -252268.0      -252246.0      -252231.0      -252224.0
      -252209.0      -252187.0      -252197.0      -252222.0      -252227.0
      -252231.0      -252253.0      -252275.0      -252297.0      -252325.0
      -252342.0      -252352.0      -252352.0      -252356.0      -252352.0
      -252340.0      -252349.0      -252341.0      -252314.0      -252290.0
      -252272.0      -252254.0      -252230.0      -252223.0      -252216.0
      -252193.0      -252167.0      -252148.0      -252149.0      -252172.0
      -252189.0      -252180.0      -252161.0      -252141.0      -252125.0
      -252123.0      -252110.0      -252088.0      -252080.0      -252097.0
      -252125.0      -252132.0      -252133.0      -252126.0      -252133.0
      -252172.0      -252188.0      -252183.0      -252195.0      -252222.0
      -252236.0      -252241.0      -252258.0      -252272.0      -252282.0
      -252300.0      -252329.0      -252358.0      -252373.0      -252381.0
      -252378.0      -252378.0      -252389.0      -252412.0      -252436.0
      -252435.0      -252428.0      -252449.0      -252485.0      -252507.0
      -252526.0      -252538.0      -252536.0      -252513.0      -252471.0
      -252451.0      -252442.0      -252421.0      -252396.0      -252361.0
      -252340.0      -252334.0      -252328.0      -252327.0      -252340.0
      -252356.0      -252349.0      -252323.0      -252284.0      -252238.0
      -252185.0      -252149.0      -252156.0      -252158.0      -252130.0
      -252102.0      -252084.0      -252055.0      -252011.0      -251988.0
      -251981.0      -251972.0      -251965.0      -251951.0      -251939.0
      -251935.0      -251924.0      -251900.0      -251890.0      -251905.0
      -251911.0      -251900.0      -251893.0      -251890.0      -251874.0
      -251844.0      -251821.0      -251803.0      -251779.0      -251775.0
      -251784.0      -251789.0      -251788.0      -251795.0      -251834.0
      -251866.0      -251899.0      -251948.0      -251990.0      -252033.0
      -252066.0      -252083.0      -252091.0      -252087.0      -252072.0
      -252067.0      -252084.0      -252104.0      -252122.0      -252145.0
      -252176.0      -252210.0      -252245.0      -252274.0      -252308.0
      -252351.0      -252383.0      -252429.0      -252456.0      -252464.0
      -252484.0      -252495.0      -252516.0      -252536.0      -252555.0
      -252588.0      -252617.0      -252639.0      -252649.0      -252665.0
      -252669.0      -252664.0      -252659.0      -252648.0      -252644.0
      -252625.0      -252596.0      -252566.0      -252532.0      -252507.0
      -252474.0      -252435.0      -252390.0      -252338.0      -252284.0
      -252230.0      -252178.0      -252137.0      -252106.0      -252073.0
      -252022.0      -251963.0      -251909.0      -251856.0      -251800.0
      -251746.0      -251702.0      -251670.0      -251634.0      -251584.0
      -251528.0      -251493.0      -251483.0      -251471.0      -251451.0
      -251439.0      -251441.0      -251437.0      -251436.0      -251447.0
      -251460.0      -251481.0      -251503.0      -251507.0      -251502.0
      -251498.0      -251514.0      -251548.0      -251572.0      -251585.0
      -251601.0      -251630.0      -251676.0      -251711.0      -251722.0
      -251753.0      -251818.0      -251869.0      -251892.0      -251932.0
      -251997.0      -252041.0      -252066.0      -252100.0      -252127.0
      -252137.0      -252143.0      -252164.0      -252184.0      -252183.0
      -252172.0      -252170.0      -252188.0      -252209.0      -252220.0
      -252230.0      -252236.0      -252235.0      -252227.0      -252215.0
      -252212.0      -252217.0      -252230.0      -252242.0      -252254.0
      -252260.0      -252245.0      -252225.0      -252217.0      -252206.0
      -252173.0      -252139.0      -252117.0      -252103.0      -252089.0
      -252067.0      -252054.0      -252040.0      -252036.0      -252034.0
      -252016.0      -251996.0      -251969.0      -251959.0      -251960.0
      -251949.0      -251932.0      -251915.0      -251900.0      -251863.0
      -251811.0      -251776.0      -251759.0      -251759.0      -251772.0
      -251793.0      -251807.0      -251812.0      -251814.0      -251799.0
      -251779.0      -251779.0      -251802.0      -251842.0      -251867.0
      -251866.0      -251859.0      -251861.0      -251869.0      -251871.0
      -251872.0      -251882.0      -251891.0      -251893.0      -251878.0
      -251856.0      -251844.0      -251843.0      -251854.0      -251877.0
      -251896.0      -251894.0      -251894.0      -251905.0      -251897.0
      -251876.0      -251873.0      -251894.0      -251902.0      -251903.0
      -251901.0      -251872.0      -251839.0      -251829.0      -251838.0
      -251844.0      -251841.0      -251840.0      -251843.0      -251841.0
      -251825.0      -251802.0      -251777.0      -251750.0      -251737.0
      -251745.0      -251742.0      -251723.0      -251712.0      -251699.0
      -251699.0      -251703.0      -251677.0      -251655.0      -251658.0
      -251662.0      -251637.0      -251604.0      -251574.0      -251548.0
      -251542.0      -251525.0      -251492.0      -251471.0      -251457.0
      -251458.0      -251463.0      -251462.0      -251468.0      -251476.0
      -251495.0      -251515.0      -251548.0      -251590.0      -251612.0
      -251653.0      -251716.0      -251764.0      -251780.0      -251781.0
      -251799.0      -251832.0      -251872.0      -251910.0      -251943.0
      -251985.0      -252016.0      -252038.0      -252075.0      -252111.0
      -252141.0      -252190.0      -252240.0      -252249.0      -252239.0
      -252252.0      -252257.0      -252236.0      -252220.0      -252220.0
      -252223.0      -252226.0      -252222.0      -252195.0      -252154.0
      -252123.0      -252098.0      -252089.0      -252084.0      -252070.0
      -252061.0      -252032.0      -251983.0      -251937.0      -251913.0
      -251889.0      -251850.0      -251819.0      -251788.0      -251740.0
      -251674.0      -251608.0      -251564.0      -251541.0      -251521.0
      -251495.0      -251477.0      -251463.0      -251433.0      -251401.0
      -251387.0      -251388.0      -251393.0      -251401.0      -251414.0
      -251426.0      -251440.0      -251460.0      -251463.0      -251445.0
      -251436.0      -251451.0      -251473.0      -251482.0      -251497.0
      -251516.0      -251542.0      -251585.0      -251621.0      -251632.0
      -251632.0      -251643.0      -251653.0      -251657.0      -251648.0
      -251643.0      -251661.0      -251675.0      -251689.0      -251698.0
      -251695.0      -251697.0      -251718.0      -251752.0      -251778.0
      -251791.0      -251802.0      -251817.0      -251831.0      -251842.0
      -251850.0      -251861.0      -251867.0      -251873.0      -251890.0
      -251907.0      -251919.0      -251933.0      -251944.0      -251948.0
      -251953.0      -251935.0      -251912.0      -251901.0      -251887.0
      -251897.0      -251925.0      -251944.0      -251960.0      -251970.0
      -251962.0      -251946.0      -251942.0      -251947.0      -251948.0
      -251942.0      -251928.0      -251912.0      -251889.0      -251869.0
      -251856.0      -251826.0      -251783.0      -251742.0      -251711.0
      -251686.0      -251664.0      -251634.0      -251589.0      -251542.0
      -251503.0      -251472.0      -251450.0      -251434.0      -251418.0
      -251409.0      -251401.0      -251389.0      -251378.0      -251387.0
      -251397.0      -251383.0      -251380.0      -251386.0      -251379.0
      -251371.0      -251362.0      -251351.0      -251341.0      -251347.0
      -251356.0      -251370.0      -251396.0      -251402.0      -251403.0
      -251410.0      -251421.0      -251442.0      -251461.0      -251482.0
      -251513.0      -251552.0      -251564.0      -251543.0      -251533.0
      -251540.0      -251539.0      -251530.0      -251520.0      -251520.0
      -251536.0      -251534.0      -251527.0      -251537.0      -251547.0
      -251551.0      -251557.0      -251579.0      -251604.0      -251612.0
      -251627.0      -251657.0      -251672.0      -251665.0      -251650.0
      -251651.0      -251653.0      -251654.0      -251664.0      -251672.0
      -251694.0      -251728.0      -251746.0      -251753.0      -251767.0
      -251780.0      -251799.0      -251821.0      -251818.0      -251810.0
      -251804.0      -251803.0      -251812.0      -251803.0      -251783.0
      -251747.0      -251713.0      -251700.0      -251672.0      -251638.0
      -251606.0      -251583.0      -251569.0      -251547.0      -251547.0
      -251572.0      -251602.0      -251633.0      -251656.0      -251664.0
      -251663.0      -251655.0      -251637.0      -251641.0      -251637.0
      -251627.0      -251638.0      -251643.0      -251644.0      -251624.0
      -251604.0      -251615.0      -251624.0      -251626.0      -251638.0
      -251673.0      -251692.0      -251693.0      -251697.0      -251688.0
      -251680.0      -251666.0      -251640.0      -251611.0      -251583.0
      -251575.0      -251560.0      -251529.0      -251509.0      -251495.0
      -251473.0      -251468.0      -251454.0      -251412.0      -251374.0
      -251341.0      -251296.0      -251244.0      -251199.0      -251174.0
      -251158.0      -251143.0      -251135.0      -251130.0      -251120.0
      -251112.0      -251097.0      -251077.0      -251052.0      -251041.0
      -251049.0      -251038.0      -251026.0      -251046.0      -251080.0
      -251111.0      -251140.0      -251182.0      -251233.0      -251271.0
      -251286.0      -251298.0      -251334.0      -251367.0      -251389.0
      -251425.0      -251453.0      -251479.0      -251507.0      -251529.0
      -251544.0      -251553.0      -251559.0      -251563.0      -251571.0
      -251570.0      -251578.0      -251595.0      -251586.0      -251555.0
      -251542.0      -251558.0      -251566.0      -251541.0      -251531.0
      -251552.0      -251562.0      -251560.0      -251565.0      -251587.0
      -251598.0      -251594.0      -251611.0      -251640.0      -251671.0
      -251702.0      -251721.0      -251750.0      -251786.0      -251815.0
      -251822.0      -251807.0      -251806.0      -251808.0      -251806.0
      -251810.0      -251820.0      -251836.0      -251827.0      -251810.0
      -251814.0      -251830.0      -251827.0      -251794.0      -251775.0
      -251772.0      -251772.0      -251764.0      -251738.0      -251703.0
      -251666.0      -251642.0      -251636.0      -251630.0      -251614.0
      -251584.0      -251574.0      -251578.0      -251558.0      -251537.0
      -251545.0      -251568.0      -251567.0      -251552.0      -251562.0
      -251594.0      -251613.0      -251608.0      -251596.0      -251584.0
      -251570.0      -251536.0      -251500.0      -251496.0      -251487.0
      -251451.0      -251432.0      -251437.0      -251433.0      -251419.0
      -251406.0      -251408.0      -251411.0      -251412.0      -251415.0
      -251418.0      -251431.0      -251437.0      -251449.0      -251485.0
      -251508.0      -251503.0      -251492.0      -251495.0      -251508.0
      -251502.0      -251483.0      -251483.0      -251491.0      -251505.0
      -251525.0      -251533.0      -251537.0      -251551.0      -251578.0
      -251603.0      -251628.0      -251647.0      -251659.0      -251678.0
      -251671.0      -251645.0      -251628.0      -251622.0      -251633.0
      -251636.0      -251621.0      -251603.0      -251581.0      -251554.0
      -251518.0      -251479.0      -251443.0      -251411.0      -251386.0
      -251345.0      -251304.0      -251272.0      -251232.0      -251214.0
      -251222.0      -251220.0      -251200.0      -251203.0      -251225.0
      -251227.0      -251207.0      -251185.0      -251176.0      -251183.0
      -251194.0      -251216.0      -251252.0      -251266.0      -251266.0
      -251284.0      -251304.0      -251317.0      -251326.0      -251336.0
      -251367.0      -251397.0      -251418.0      -251441.0      -251478.0
      -251525.0      -251556.0      -251590.0      -251636.0      -251682.0
      -251707.0      -251721.0      -251749.0      -251773.0      -251803.0
      -251842.0      -251866.0      -251895.0      -251924.0      -251941.0
      -251967.0      -251982.0      -251974.0      -251965.0      -251959.0
      -251943.0      -251930.0      -251930.0      -251923.0      -251917.0
      -251914.0      -251908.0      -251917.0      -251913.0      -251891.0
      -251896.0      -251916.0      -251916.0      -251897.0      -251897.0
      -251921.0      -251926.0      -251903.0      -251871.0      -251829.0
      -251791.0      -251772.0      -251752.0      -251742.0      -251733.0
      -251707.0      -251680.0      -251646.0      -251621.0      -251604.0
      -251599.0      -251595.0      -251566.0      -251545.0      -251515.0
      -251472.0      -251435.0      -251415.0      -251398.0      -251365.0
      -251339.0      -251312.0      -251293.0      -251289.0      -251288.0
      -251284.0      -251271.0      -251281.0      -251304.0      -251313.0
      -251303.0      -251290.0      -251294.0      -251306.0      -251314.0
      -251299.0      -251289.0      -251289.0      -251268.0      -251251.0
      -251249.0      -251250.0      -251246.0      -251237.0      -251244.0
      -251248.0      -251232.0      -251213.0      -251209.0      -251213.0
      -251211.0      -251213.0      -251234.0      -251268.0      -251285.0
      -251288.0      -251298.0      -251314.0      -251316.0      -251306.0
      -251313.0      -251319.0      -251296.0      -251270.0      -251274.0
      -251294.0      -251304.0      -251307.0      -251323.0      -251349.0
      -251370.0      -251386.0      -251406.0      -251448.0      -251482.0
      -251505.0      -251544.0      -251564.0      -251574.0      -251593.0
      -251622.0      -251651.0      -251671.0      -251688.0      -251708.0
      -251724.0      -251720.0      -251725.0      -251720.0      -251697.0
      -251677.0      -251661.0      -251658.0      -251653.0      -251644.0
      -251630.0      -251637.0      -251650.0      -251649.0      -251657.0
      -251661.0      -251668.0      -251673.0      -251678.0      -251707.0
      -251738.0      -251760.0      -251784.0      -251810.0      -251821.0
      -251814.0      -251807.0      -251811.0      -251802.0      -251783.0
      -251787.0      -251795.0      -251789.0      -251773.0      -251755.0
      -251745.0      -251733.0      -251699.0      -251662.0      -251636.0
      -251614.0      -251591.0      -251562.0      -251523.0      -251482.0
      -251447.0      -251414.0      -251377.0      -251347.0      -251344.0
      -251355.0      -251348.0      -251338.0      -251336.0      -251339.0
      -251351.0      -251362.0      -251371.0      -251378.0      -251373.0
