     0.02500000      -12345.00      -12345.00   1.972750e+09      -12345.00
   0.0005390000       659.9755      -790.0195      -12345.00      -12345.00
      -12345.00      -12345.00      -12345.00      -12345.00      -12345.00
      -12345.00      -12345.00      -12345.00      -12345.00      -12345.00
      -12345.00      -12345.00      -12345.00      -12345.00      -12345.00
      -12345.00      -12345.00      -12345.00      -12345.00      -12345.00
      -12345.00       33.61070      -116.4555       1280.000       5.300000
       9.831100       126.5297      -12345.00       24.71000      -12345.00
      -12345.00      -12345.00      -12345.00      -12345.00      -12345.00
      -12345.00      -12345.00      -12345.00      -12345.00      -12345.00
       11815.75       50.75718       293.8527       106.2663      -12345.00
      -12345.00      -12345.00       89.40000       90.00000      -12345.00
      -12345.00      -12345.00      -12345.00      -12345.00      -12345.00
      -12345.00      -12345.00      -12345.00      -12345.00      -12345.00
      2019        39        12         8        18
        19         6    -12345    -12345     26400
    -12345    -12345    -12345    -12345    -12345
         1    -12345    -12345    -12345    -12345
    -12345    -12345    -12345    -12345    -12345
    -12345    -12345    -12345    -12345    -12345
    -12345    -12345    -12345    -12345    -12345
         1    -12345    -12345    -12345    -12345
PFO     Mindanao, Philip
10      -12345  -12345  
-12345  -12345  -12345  
-12345  -12345  -12345  
-12345  -12345  -12345  
-12345  -12345  -12345  
-12345  -12345  BH2     
II      -12345  Nanometr
[...]
       2003.000       1986.000       1988.000       1980.000       1958.000
       1944.000       1934.000       1914.000       1897.000       1893.000
       1878.000       1856.000       1853.000       1848.000       1826.000
       1814.000       1804.000       1789.000       1776.000       1766.000
       1759.000       1746.000       1740.000       1743.000       1736.000
       1728.000       1723.000       1707.000       1691.000       1696.000
       1698.000       1680.000       1677.000       1685.000       1680.000
       1673.000       1683.000       1689.000       1678.000       1680.000
       1679.000       1676.000       1691.000       1695.000       1700.000
       1714.000       1706.000       1706.000       1732.000       1740.000
       1738.000       1746.000       1755.000       1760.000       1763.000
       1778.000       1796.000       1801.000       1807.000       1828.000
       1840.000       1841.000       1857.000       1866.000       1867.000
       1883.000       1886.000       1890.000       1907.000       1911.000
       1920.000       1927.000       1922.000       1923.000       1936.000
       1943.000       1932.000       1942.000       1952.000       1932.000
       1929.000       1934.000       1928.000       1930.000       1938.000
       1939.000       1939.000       1940.000       1935.000       1929.000
       1930.000       1932.000       1932.000       1926.000       1925.000
       1928.000       1922.000       1917.000       1920.000       1919.000
       1908.000       1903.000       1895.000       1884.000       1885.000
       1881.000       1875.000       1876.000       1871.000       1866.000
       1861.000       1848.000       1843.000       1847.000       1842.000
       1831.000       1824.000       1821.000       1816.000       1809.000
       1811.000       1814.000       1811.000       1814.000       1805.000
       1791.000       1791.000       1786.000       1786.000       1785.000
       1777.000       1782.000       1791.000       1787.000       1782.000
       1791.000       1795.000       1793.000       1798.000       1793.000
       1785.000       1796.000       1812.000       1812.000       1811.000
       1822.000       1831.000       1832.000       1834.000       1836.000
       1838.000       1850.000       1862.000       1863.000       1862.000
       1870.000       1884.000       1892.000       1883.000       1879.000
       1890.000       1896.000       1893.000       1902.000       1915.000
       1915.000       1924.000       1935.000       1929.000       1934.000
       1957.000       1965.000       1969.000       1981.000       1990.000
       2004.000       2018.000       2028.000       2035.000       2045.000
       2061.000       2069.000       2083.000       2100.000       2111.000
       2128.000       2139.000       2152.000       2177.000       2190.000
       2195.000       2205.000       2224.000       2238.000       2240.000
       2247.000       2260.000       2261.000       2256.000       2262.000
       2279.000       2282.000       2275.000       2283.000       2291.000
       2293.000       2289.000       2282.000       2283.000       2291.000
       2310.000       2312.000       2309.000       2316.000       2322.000
       2327.000       2324.000       2329.000       2344.000       2346.000
       2342.000       2353.000       2364.000       2362.000       2369.000
       2379.000       2384.000       2382.000       2386.000       2398.000
       2400.000       2407.000       2419.000       2423.000       2418.000
       2412.000       2414.000       2418.000       2424.000       2433.000
       2435.000       2433.000       2430.000       2426.000       2427.000
       2430.000       2429.000       2419.000       2421.000       2431.000
       2411.000       2398.000       2417.000       2412.000       2393.000
       2390.000       2390.000       2382.000       2386.000       2393.000
       2380.000       2382.000       2390.000       2378.000       2372.000
       2377.000       2385.000       2394.000       2391.000       2380.000
       2377.000       2383.000       2385.000       2383.000       2382.000
       2380.000       2373.000       2365.000       2370.000       2372.000
       2357.000       2356.000       2367.000       2353.000       2330.000
       2326.000       2322.000       2307.000       2302.000       2300.000
       2282.000       2261.000       2250.000       2237.000       2217.000
       2209.000       2198.000       2168.000       2154.000       2144.000
       2126.000       2103.000       2084.000       2073.000       2043.000
       2023.000       2012.000       1973.000       1940.000       1941.000
       1937.000       1906.000       1890.000       1886.000       1860.000
       1832.000       1827.000       1814.000       1788.000       1772.000
       1767.000       1762.000       1744.000       1738.000       1730.000
       1711.000       1708.000       1709.000       1698.000       1672.000
       1662.000       1673.000       1669.000       1656.000       1648.000
       1635.000       1624.000       1619.000       1619.000       1610.000
       1588.000       1581.000       1575.000       1557.000       1537.000
       1525.000       1520.000       1513.000       1499.000       1474.000
       1457.000       1449.000       1432.000       1417.000       1405.000
       1388.000       1364.000       1343.000       1327.000       1316.000
       1303.000       1288.000       1256.000       1227.000       1224.000
       1210.000       1191.000       1183.000       1173.000       1163.000
       1148.000       1130.000       1118.000       1115.000       1112.000
       1106.000       1099.000       1085.000       1073.000       1064.000
       1059.000       1052.000       1041.000       1040.000       1047.000
       1040.000       1028.000       1037.000       1038.000       1025.000
       1023.000       1022.000       1017.000       1027.000       1043.000
       1034.000       1022.000       1036.000       1054.000       1060.000
       1056.000       1057.000       1075.000       1095.000       1105.000
       1110.000       1116.000       1131.000       1149.000       1162.000
       1178.000       1187.000       1194.000       1210.000       1217.000
       1209.000       1221.000       1245.000       1247.000       1252.000
       1265.000       1277.000       1274.000       1262.000       1279.000
       1297.000       1299.000       1304.000       1310.000       1313.000
       1313.000       1325.000       1332.000       1330.000       1338.000
       1353.000       1352.000       1356.000       1380.000       1395.000
       1398.000       1401.000       1414.000       1431.000       1438.000
       1444.000       1458.000       1471.000       1480.000       1490.000
       1504.000       1521.000       1528.000       1535.000       1561.000
       1588.000       1598.000       1608.000       1623.000       1647.000
       1676.000       1700.000       1715.000       1733.000       1759.000
       1780.000       1806.000       1836.000       1859.000       1877.000
       1899.000       1932.000       1957.000       1975.000       2004.000
       2032.000       2062.000       2098.000       2123.000       2136.000
       2163.000       2198.000       2224.000       2249.000       2280.000
       2311.000       2342.000       2369.000       2390.000       2420.000
       2446.000       2463.000       2491.000       2523.000       2550.000
       2568.000       2593.000       2615.000       2625.000       2655.000
       2689.000       2706.000       2724.000       2744.000       2769.000
       2793.000       2813.000       2833.000       2849.000       2866.000
       2881.000       2906.000       2926.000       2932.000       2955.000
       2971.000       2970.000       2983.000       2998.000       2997.000
       3007.000       3034.000       3034.000       3026.000       3035.000
       3037.000       3031.000       3037.000       3043.000       3040.000
       3041.000       3042.000       3029.000       3013.000       3012.000
       3010.000       3001.000       2997.000       2983.000       2965.000
       2955.000       2944.000       2936.000       2931.000       2923.000
       2912.000       2900.000       2892.000       2885.000       2874.000
       2869.000       2858.000       2842.000       2840.000       2833.000
       2817.000       2809.000       2812.000       2815.000       2801.000
       2775.000       2770.000       2779.000       2775.000       2770.000
       2751.000       2739.000       2752.000       2749.000       2733.000
       2732.000       2742.000       2733.000       2716.000       2712.000
       2707.000       2705.000       2695.000       2684.000       2683.000
       2685.000       2679.000       2670.000       2664.000       2653.000
       2645.000       2645.000       2631.000       2610.000       2591.000
       2580.000       2577.000       2561.000       2545.000       2537.000
       2523.000       2511.000       2497.000       2475.000       2448.000
       2444.000       2427.000       2390.000       2378.000       2375.000
       2349.000       2314.000       2290.000       2257.000       2232.000
       2223.000       2186.000       2145.000       2129.000       2101.000
       2055.000       2026.000       1998.000       1959.000       1934.000
       1904.000       1860.000       1835.000       1815.000       1769.000
       1732.000       1712.000       1684.000       1640.000       1595.000
       1575.000       1555.000       1524.000       1496.000       1459.000
       1420.000       1394.000       1369.000       1336.000       1307.000
       1296.000       1282.000       1253.000       1221.000       1203.000
       1187.000       1159.000       1136.000       1124.000       1102.000
       1085.000       1076.000       1060.000       1052.000       1051.000
       1042.000       1024.000       1001.000       990.0000       993.0000
       994.0000       991.0000       984.0000       986.0000       985.0000
       976.0000       969.0000       962.0000       967.0000       969.0000
       968.0000       964.0000       954.0000       961.0000       971.0000
       965.0000       959.0000       959.0000       961.0000       954.0000
       955.0000       966.0000       973.0000       971.0000       964.0000
       967.0000       971.0000       966.0000       968.0000       963.0000
       962.0000       973.0000       962.0000       954.0000       965.0000
       966.0000       959.0000       952.0000       941.0000       938.0000
       943.0000       948.0000       943.0000       939.0000       941.0000
       938.0000       923.0000       915.0000       923.0000       926.0000
       921.0000       921.0000       919.0000       916.0000       917.0000
       923.0000       925.0000       924.0000       922.0000       921.0000
       925.0000       921.0000       922.0000       919.0000       920.0000
       932.0000       933.0000       938.0000       949.0000       961.0000
       976.0000       979.0000       982.0000       1002.000       1024.000
       1038.000       1057.000       1083.000       1099.000       1103.000
       1122.000       1148.000       1167.000       1185.000       1209.000
       1231.000       1251.000       1282.000       1301.000       1322.000
       1353.000       1379.000       1405.000       1434.000       1465.000
       1489.000       1506.000       1525.000       1559.000       1588.000
       1598.000       1635.000       1677.000       1692.000       1713.000
       1754.000       1787.000       1804.000       1833.000       1869.000
       1895.000       1916.000       1946.000       1978.000       2004.000
       2029.000       2060.000       2094.000       2111.000       2136.000
       2184.000       2215.000       2243.000       2280.000       2311.000
       2332.000       2361.000       2401.000       2436.000       2464.000
       2496.000       2532.000       2561.000       2589.000       2619.000
       2651.000       2688.000       2718.000       2738.000       2755.000
       2785.000       2834.000       2877.000       2895.000       2915.000
       2957.000       2987.000       3010.000       3044.000       3079.000
       3106.000       3130.000       3154.000       3176.000       3200.000
       3228.000       3250.000       3267.000       3291.000       3318.000
       3340.000       3359.000       3377.000       3398.000       3424.000
       3443.000       3449.000       3457.000       3476.000       3494.000
       3504.000       3512.000       3528.000       3550.000       3565.000
       3563.000       3571.000       3579.000       3574.000       3586.000
       3596.000       3586.000       3580.000       3585.000       3592.000
       3583.000       3577.000       3583.000       3568.000       3550.000
       3534.000       3520.000       3512.000       3498.000       3485.000
       3472.000       3453.000       3429.000       3412.000       3398.000
       3377.000       3354.000       3333.000       3314.000       3292.000
       3276.000       3260.000       3232.000       3200.000       3182.000
       3170.000       3139.000       3099.000       3075.000       3049.000
       3014.000       2991.000       2970.000       2941.000       2904.000
       2872.000       2849.000       2817.000       2792.000       2768.000
       2726.000       2685.000       2660.000       2641.000       2598.000
       2559.000       2536.000       2499.000       2450.000       2414.000
       2390.000       2351.000       2313.000       2286.000       2249.000
       2204.000       2157.000       2114.000       2080.000       2046.000
       2004.000       1962.000       1919.000       1877.000       1841.000
       1806.000       1771.000       1730.000       1696.000       1667.000
       1623.000       1575.000       1554.000       1539.000       1500.000
       1460.000       1431.000       1399.000       1368.000       1336.000
       1297.000       1268.000       1243.000       1204.000       1172.000
       1154.000       1135.000       1102.000       1069.000       1049.000
       1027.000       1008.000       980.0000       952.0000       939.0000
       919.0000       896.0000       882.0000       874.0000       865.0000
       848.0000       831.0000       817.0000       802.0000       791.0000
       773.0000       753.0000       751.0000       749.0000       730.0000
       724.0000       731.0000       723.0000       710.0000       703.0000
       703.0000       703.0000       705.0000       704.0000       705.0000
       707.0000       701.0000       703.0000       707.0000       700.0000
       695.0000       703.0000       720.0000       725.0000       721.0000
       720.0000       707.0000       704.0000       709.0000       707.0000
       709.0000       715.0000       715.0000       714.0000       724.0000
       730.0000       730.0000       732.0000       730.0000       721.0000
       718.0000       728.0000       726.0000       729.0000       742.0000
       745.0000       750.0000       754.0000       759.0000       765.0000
       775.0000       781.0000       782.0000       800.0000       814.0000
       817.0000       831.0000       856.0000       870.0000       878.0000
       913.0000       932.0000       931.0000       957.0000       992.0000
       1011.000       1030.000       1063.000       1094.000       1123.000
       1149.000       1180.000       1212.000       1246.000       1271.000
       1294.000       1331.000       1371.000       1411.000       1437.000
       1469.000       1510.000       1540.000       1576.000       1610.000
       1636.000       1671.000       1715.000       1746.000       1771.000
       1812.000       1845.000       1868.000       1894.000       1924.000
       1957.000       1992.000       2016.000       2038.000       2073.000
       2106.000       2136.000       2161.000       2184.000       2206.000
       2226.000       2256.000       2282.000       2305.000       2327.000
       2345.000       2369.000       2386.000       2403.000       2430.000
       2452.000       2467.000       2476.000       2491.000       2503.000
       2515.000       2538.000       2551.000       2550.000       2567.000
       2588.000       2591.000       2603.000       2619.000       2630.000
       2638.000       2640.000       2644.000       2649.000       2659.000
       2667.000       2674.000       2672.000       2680.000       2698.000
       2708.000       2721.000       2707.000       2698.000       2709.000
       2738.000       2777.000       2762.000       2742.000       2755.000
       2779.000       2806.000       2805.000       2808.000       2811.000
       2825.000       2860.000       2852.000       2843.000       2853.000
       2880.000       2908.000       2887.000       2896.000       2936.000
       2950.000       2944.000       2947.000       2968.000       2963.000
       2941.000       2951.000       2974.000       2978.000       2991.000
       3012.000       2994.000       2972.000       2999.000       3004.000
       2969.000       2970.000       2979.000       2972.000       2975.000
       2966.000       2960.000       2981.000       2975.000       2939.000
       2942.000       2953.000       2938.000       2919.000       2908.000
       2907.000       2891.000       2880.000       2873.000       2853.000
       2847.000       2840.000       2826.000       2809.000       2785.000
       2763.000       2747.000       2744.000       2739.000       2714.000
       2682.000       2677.000       2669.000       2640.000       2618.000
       2593.000       2568.000       2544.000       2534.000       2523.000
       2492.000       2466.000       2443.000       2426.000       2409.000
       2389.000       2374.000       2340.000       2317.000       2310.000
       2289.000       2261.000       2233.000       2203.000       2175.000
       2153.000       2134.000       2115.000       2093.000       2057.000
       2026.000       2016.000       1998.000       1963.000       1941.000
       1918.000       1895.000       1875.000       1862.000       1851.000
       1822.000       1794.000       1779.000       1765.000       1745.000
