     0.05000000      -12345.00      -12345.00   3.957020e+09      -12345.00
   0.0005380000       659.9506      -313.0196      -12345.00      -12345.00
      -12345.00      -12345.00      -12345.00      -12345.00      -12345.00
      -12345.00      -12345.00      -12345.00      -12345.00      -12345.00
      -12345.00      -12345.00      -12345.00      -12345.00      -12345.00
      -12345.00      -12345.00      -12345.00      -12345.00      -12345.00
      -12345.00      -19.93360       134.3600       366.0000       100.0000
       9.831100       126.5297      -12345.00       24.71000      -12345.00
      -12345.00      -12345.00      -12345.00      -12345.00      -12345.00
      -12345.00      -12345.00      -12345.00      -12345.00      -12345.00
       3398.596       165.4008       344.6908       30.56567      -12345.00
      -12345.00      -12345.00       90.90000       90.00000      -12345.00
      -12345.00      -12345.00      -12345.00      -12345.00      -12345.00
      -12345.00      -12345.00      -12345.00      -12345.00      -12345.00
      2019        39        12         0        21
        19         6    -12345    -12345     13200
    -12345    -12345    -12345    -12345    -12345
         1    -12345    -12345    -12345    -12345
    -12345    -12345    -12345    -12345    -12345
    -12345    -12345    -12345    -12345    -12345
    -12345    -12345    -12345    -12345    -12345
         1    -12345    -12345    -12345    -12345
WRAB    Mindanao, Philip
00      -12345  -12345  
-12345  -12345  -12345  
-12345  -12345  -12345  
-12345  -12345  -12345  
-12345  -12345  -12345  
-12345  -12345  BH2     
II      -12345  Geotech 
[...]
       54984.00       56005.00       57287.00       58781.00       60462.00
       62293.00       64199.00       66071.00       67816.00       69338.00
       70591.00       71546.00       72177.00       72509.00       72570.00
       72419.00       72116.00       71706.00       71257.00       70822.00
       70434.00       70110.00       69825.00       69569.00       69387.00
       69284.00       69260.00       69350.00       69507.00       69633.00
       69686.00       69637.00       69465.00       69163.00       68715.00
       68145.00       67498.00       66815.00       66116.00       65376.00
       64582.00       63749.00       62903.00       62049.00       61215.00
       60451.00       59787.00       59239.00       58792.00       58412.00
       58046.00       57645.00       57204.00       56713.00       56162.00
       55549.00       54862.00       54101.00       53276.00       52422.00
       51574.00       50755.00       49975.00       49253.00       48640.00
       48201.00       47971.00       47948.00       48142.00       48521.00
       49020.00       49638.00       50329.00       51032.00       51733.00
       52409.00       53065.00       53698.00       54331.00       55011.00
       55742.00       56560.00       57485.00       58503.00       59583.00
       60683.00       61796.00       62888.00       63908.00       64803.00
       65553.00       66169.00       66650.00       67004.00       67245.00
       67391.00       67430.00       67333.00       67095.00       66711.00
       66207.00       65635.00       65023.00       64398.00       63795.00
       63254.00       62823.00       62535.00       62423.00       62499.00
       62708.00       62993.00       63327.00       63682.00       64017.00
       64295.00       64498.00       64594.00       64559.00       64363.00
       63975.00       63432.00       62767.00       62011.00       61203.00
       60372.00       59525.00       58665.00       57793.00       56868.00
       55850.00       54773.00       53693.00       52661.00       51735.00
       50912.00       50154.00       49437.00       48749.00       48116.00
       47581.00       47179.00       46921.00       46831.00       46927.00
       47214.00       47702.00       48385.00       49240.00       50225.00
       51272.00       52321.00       53348.00       54349.00       55316.00
       56233.00       57069.00       57806.00       58460.00       59042.00
       59562.00       60016.00       60397.00       60748.00       61119.00
       61543.00       62082.00       62760.00       63549.00       64410.00
       65284.00       66116.00       66877.00       67562.00       68193.00
       68764.00       69250.00       69633.00       69915.00       70118.00
       70251.00       70332.00       70381.00       70406.00       70439.00
       70487.00       70519.00       70527.00       70527.00       70542.00
       70624.00       70849.00       71253.00       71840.00       72612.00
       73551.00       74591.00       75666.00       76707.00       77666.00
       78531.00       79277.00       79918.00       80443.00       80845.00
       81142.00       81328.00       81381.00       81263.00       80939.00
       80390.00       79624.00       78655.00       77484.00       76130.00
       74642.00       73121.00       71598.00       70048.00       68482.00
       66907.00       65344.00       63842.00       62449.00       61168.00
       59940.00       58711.00       57455.00       56131.00       54725.00
       53248.00       51705.00       50076.00       48369.00       46668.00
       45069.00       43678.00       42572.00       41778.00       41314.00
       41192.00       41416.00       41969.00       42842.00       44025.00
       45484.00       47156.00       48984.00       50916.00       52853.00
       54697.00       56396.00       57951.00       59388.00       60737.00
       62007.00       63183.00       64258.00       65179.00       65902.00
       66405.00       66708.00       66892.00       66979.00       66974.00
       66914.00       66821.00       66716.00       66591.00       66437.00
       66261.00       66070.00       65871.00       65647.00       65375.00
       65050.00       64697.00       64344.00       63993.00       63634.00
       63256.00       62856.00       62459.00       62102.00       61769.00
       61432.00       61096.00       60777.00       60521.00       60358.00
       60296.00       60323.00       60425.00       60605.00       60847.00
       61151.00       61531.00       61969.00       62458.00       63007.00
       63594.00       64207.00       64874.00       65593.00       66306.00
       66968.00       67558.00       68090.00       68598.00       69117.00
       69683.00       70302.00       71003.00       71798.00       72671.00
       73617.00       74591.00       75537.00       76403.00       77150.00
       77760.00       78208.00       78450.00       78430.00       78141.00
       77590.00       76765.00       75673.00       74357.00       72858.00
       71190.00       69403.00       67598.00       65867.00       64276.00
       62877.00       61631.00       60464.00       59357.00       58329.00
       57430.00       56667.00       56032.00       55497.00       55035.00
       54659.00       54386.00       54242.00       54228.00       54318.00
       54489.00       54742.00       55091.00       55540.00       56081.00
       56691.00       57343.00       58045.00       58810.00       59624.00
       60487.00       61393.00       62310.00       63153.00       63870.00
       64480.00       65005.00       65471.00       65889.00       66274.00
       66651.00       67037.00       67454.00       67930.00       68473.00
       69060.00       69674.00       70328.00       71044.00       71819.00
       72634.00       73463.00       74286.00       75110.00       75892.00
       76591.00       77158.00       77548.00       77745.00       77768.00
       77657.00       77441.00       77178.00       76907.00       76641.00
       76397.00       76157.00       75890.00       75571.00       75191.00
       74747.00       74242.00       73717.00       73218.00       72788.00
       72439.00       72123.00       71746.00       71223.00       70535.00
       69720.00       68805.00       67826.00       66846.00       65876.00
       64907.00       63937.00       62928.00       61838.00       60640.00
       59342.00       57986.00       56599.00       55193.00       53777.00
       52362.00       50965.00       49613.00       48363.00       47271.00
       46344.00       45565.00       44917.00       44385.00       43976.00
       43715.00       43639.00       43781.00       44149.00       44711.00
       45415.00       46220.00       47100.00       48014.00       48924.00
       49827.00       50722.00       51600.00       52460.00       53307.00
       54166.00       55042.00       55915.00       56741.00       57486.00
       58149.00       58737.00       59253.00       59699.00       60088.00
       60436.00       60754.00       61051.00       61342.00       61635.00
       61904.00       62107.00       62241.00       62335.00       62391.00
       62420.00       62428.00       62375.00       62230.00       61986.00
       61684.00       61360.00       60991.00       60541.00       59978.00
       59284.00       58494.00       57653.00       56806.00       55986.00
       55203.00       54486.00       53873.00       53407.00       53126.00
       53043.00       53178.00       53528.00       54043.00       54651.00
       55253.00       55760.00       56112.00       56268.00       56223.00
       55997.00       55622.00       55128.00       54521.00       53785.00
       52909.00       51902.00       50809.00       49691.00       48615.00
       47640.00       46794.00       46090.00       45553.00       45225.00
       45134.00       45313.00       45776.00       46505.00       47466.00
       48627.00       49957.00       51398.00       52889.00       54383.00
       55861.00       57318.00       58761.00       60184.00       61563.00
       62899.00       64194.00       65424.00       66556.00       67606.00
       68599.00       69524.00       70378.00       71183.00       71966.00
       72733.00       73493.00       74220.00       74884.00       75510.00
       76122.00       76741.00       77363.00       77929.00       78393.00
       78711.00       78823.00       78684.00       78296.00       77695.00
       76920.00       76015.00       75037.00       74028.00       73006.00
       71964.00       70877.00       69740.00       68536.00       67231.00
       65807.00       64289.00       62722.00       61158.00       59693.00
       58387.00       57245.00       56262.00       55417.00       54681.00
       54027.00       53458.00       52963.00       52562.00       52326.00
       52294.00       52460.00       52805.00       53287.00       53886.00
       54596.00       55390.00       56246.00       57127.00       58008.00
       58880.00       59731.00       60582.00       61449.00       62317.00
       63165.00       63952.00       64650.00       65272.00       65827.00
       66321.00       66755.00       67114.00       67378.00       67564.00
       67697.00       67804.00       67893.00       67963.00       68016.00
       68055.00       68104.00       68169.00       68260.00       68380.00
       68535.00       68757.00       69044.00       69392.00       69793.00
       70242.00       70732.00       71239.00       71762.00       72327.00
       72914.00       73482.00       74010.00       74465.00       74817.00
       75039.00       75115.00       75048.00       74839.00       74534.00
       74161.00       73730.00       73263.00       72778.00       72294.00
       71822.00       71352.00       70883.00       70422.00       69968.00
       69535.00       69149.00       68829.00       68619.00       68531.00
       68534.00       68635.00       68834.00       69104.00       69407.00
       69727.00       70066.00       70408.00       70731.00       71031.00
       71292.00       71499.00       71634.00       71673.00       71597.00
       71397.00       71065.00       70601.00       70007.00       69286.00
       68454.00       67532.00       66565.00       65596.00       64645.00
       63723.00       62816.00       61930.00       61074.00       60268.00
       59523.00       58830.00       58220.00       57697.00       57230.00
       56773.00       56270.00       55690.00       55027.00       54303.00
       53550.00       52797.00       52069.00       51353.00       50619.00
       49890.00       49195.00       48558.00       47989.00       47495.00
       47063.00       46675.00       46335.00       46059.00       45879.00
       45822.00       45898.00       46098.00       46370.00       46672.00
       46983.00       47305.00       47634.00       47975.00       48338.00
       48720.00       49159.00       49714.00       50433.00       51338.00
       52442.00       53764.00       55314.00       57100.00       59125.00
       61380.00       63800.00       66276.00       68717.00       71068.00
       73261.00       75211.00       76875.00       78245.00       79304.00
       80032.00       80441.00       80516.00       80246.00       79662.00
       78821.00       77801.00       76674.00       75467.00       74144.00
       72708.00       71165.00       69502.00       67776.00       65995.00
       64174.00       62346.00       60509.00       58696.00       56934.00
       55255.00       53678.00       52211.00       50887.00       49694.00
       48600.00       47598.00       46690.00       45872.00       45147.00
       44510.00       43938.00       43387.00       42843.00       42307.00
       41774.00       41257.00       40812.00       40482.00       40281.00
       40249.00       40403.00       40758.00       41347.00       42184.00
       43292.00       44693.00       46385.00       48358.00       50564.00
       52952.00       55482.00       58113.00       60773.00       63355.00
       65862.00       68327.00       70746.00       73143.00       75497.00
       77769.00       79940.00       81985.00       83863.00       85558.00
       87085.00       88462.00       89714.00       90842.00       91851.00
       92730.00       93446.00       93986.00       94315.00       94387.00
       94142.00       93573.00       92714.00       91573.00       90143.00
       88418.00       86429.00       84225.00       81805.00       79178.00
       76397.00       73514.00       70574.00       67613.00       64652.00
       61724.00       58828.00       55947.00       53079.00       50216.00
       47354.00       44533.00       41822.00       39283.00       36980.00
       34926.00       33084.00       31445.00       30038.00       28905.00
       28043.00       27422.00       27034.00       26879.00       26944.00
       27200.00       27610.00       28149.00       28782.00       29484.00
       30254.00       31118.00       32110.00       33220.00       34442.00
       35784.00       37228.00       38729.00       40238.00       41735.00
       43224.00       44712.00       46152.00       47496.00       48708.00
       49788.00       50762.00       51636.00       52428.00       53137.00
       53760.00       54288.00       54732.00       55132.00       55526.00
       55986.00       56569.00       57278.00       58092.00       58994.00
       59985.00       61047.00       62153.00       63286.00       64394.00
       65430.00       66406.00       67318.00       68128.00       68802.00
       69312.00       69648.00       69822.00       69834.00       69693.00
       69417.00       69018.00       68518.00       67937.00       67288.00
       66583.00       65881.00       65241.00       64661.00       64145.00
       63681.00       63242.00       62833.00       62477.00       62209.00
       62060.00       62049.00       62178.00       62443.00       62867.00
       63445.00       64151.00       64959.00       65807.00       66634.00
       67401.00       68078.00       68626.00       69012.00       69212.00
       69164.00       68829.00       68201.00       67278.00       66075.00
       64623.00       62975.00       61217.00       59443.00       57708.00
       56069.00       54566.00       53220.00       52083.00       51181.00
       50483.00       49963.00       49641.00       49534.00       49597.00
       49799.00       50143.00       50617.00       51216.00       51944.00
       52802.00       53783.00       54886.00       56108.00       57426.00
       58830.00       60290.00       61725.00       63077.00       64277.00
       65275.00       66035.00       66551.00       66847.00       66916.00
       66755.00       66377.00       65809.00       65049.00       64116.00
       63050.00       61873.00       60668.00       59527.00       58503.00
       57662.00       57064.00       56709.00       56594.00       56718.00
       57071.00       57619.00       58334.00       59216.00       60253.00
       61429.00       62751.00       64226.00       65813.00       67470.00
       69178.00       70885.00       72515.00       74021.00       75363.00
       76484.00       77368.00       78002.00       78392.00       78553.00
       78478.00       78146.00       77553.00       76717.00       75664.00
       74455.00       73144.00       71804.00       70499.00       69268.00
       68178.00       67272.00       66584.00       66112.00       65853.00
       65824.00       66017.00       66411.00       66956.00       67597.00
       68274.00       68917.00       69501.00       69992.00       70365.00
       70588.00       70614.00       70394.00       69880.00       69047.00
       67878.00       66383.00       64607.00       62639.00       60631.00
       58725.00       57006.00       55484.00       54161.00       53062.00
       52189.00       51552.00       51157.00       50979.00       50964.00
       51034.00       51110.00       51144.00       51117.00       51041.00
       50933.00       50815.00       50707.00       50612.00       50563.00
       50610.00       50773.00       51074.00       51562.00       52271.00
       53200.00       54343.00       55674.00       57175.00       58856.00
       60698.00       62663.00       64701.00       66765.00       68813.00
       70793.00       72652.00       74335.00       75786.00       76968.00
       77858.00       78458.00       78782.00       78837.00       78626.00
       78181.00       77537.00       76717.00       75766.00       74725.00
       73619.00       72464.00       71265.00       70026.00       68720.00
       67310.00       65811.00       64268.00       62696.00       61068.00
       59376.00       57634.00       55853.00       54055.00       52285.00
       50592.00       48986.00       47482.00       46092.00       44798.00
       43624.00       42613.00       41801.00       41199.00       40795.00
       40575.00       40515.00       40611.00       40818.00       41044.00
       41228.00       41347.00       41387.00       41361.00       41322.00
       41325.00       41423.00       41635.00       41933.00       42318.00
       42833.00       43480.00       44248.00       45132.00       46105.00
       47153.00       48263.00       49427.00       50663.00       51933.00
       53191.00       54398.00       55496.00       56440.00       57226.00
       57890.00       58454.00       58942.00       59364.00       59710.00
       60000.00       60295.00       60637.00       61032.00       61512.00
       62086.00       62717.00       63372.00       64028.00       64715.00
       65460.00       66239.00       67057.00       67910.00       68759.00
       69588.00       70398.00       71188.00       71937.00       72654.00
       73331.00       73957.00       74552.00       75117.00       75658.00
       76185.00       76669.00       77053.00       77330.00       77524.00
       77638.00       77670.00       77597.00       77369.00       76948.00
       76332.00       75538.00       74597.00       73538.00       72400.00
       71204.00       69985.00       68766.00       67556.00       66387.00
       65277.00       64247.00       63311.00       62467.00       61705.00
       60998.00       60351.00       59756.00       59175.00       58586.00
       57971.00       57303.00       56539.00       55643.00       54645.00
