     0.05000000      -12345.00      -12345.00   3.932800e+09      -12345.00
   0.0005380000       659.9506      -313.0196      -12345.00      -12345.00
      -12345.00      -12345.00      -12345.00      -12345.00      -12345.00
      -12345.00      -12345.00      -12345.00      -12345.00      -12345.00
      -12345.00      -12345.00      -12345.00      -12345.00      -12345.00
      -12345.00      -12345.00      -12345.00      -12345.00      -12345.00
      -12345.00      -19.93360       134.3600       366.0000       100.0000
       9.831100       126.5297      -12345.00       24.71000      -12345.00
      -12345.00      -12345.00      -12345.00      -12345.00      -12345.00
      -12345.00      -12345.00      -12345.00      -12345.00      -12345.00
       3398.596       165.4008       344.6908       30.56567      -12345.00
      -12345.00      -12345.00      0.9000000       90.00000      -12345.00
      -12345.00      -12345.00      -12345.00      -12345.00      -12345.00
      -12345.00      -12345.00      -12345.00      -12345.00      -12345.00
      2019        39        12         0        21
        19         6    -12345    -12345     13200
    -12345    -12345    -12345    -12345    -12345
         1    -12345    -12345    -12345    -12345
    -12345    -12345    -12345    -12345    -12345
    -12345    -12345    -12345    -12345    -12345
    -12345    -12345    -12345    -12345    -12345
         1    -12345    -12345    -12345    -12345
WRAB    Mindanao, Philip
00      -12345  -12345  
-12345  -12345  -12345  
-12345  -12345  -12345  
-12345  -12345  -12345  
-12345  -12345  -12345  
-12345  -12345  BH1     
II      -12345  Geotech 
[...]
       56125.00       56093.00       56024.00       55941.00       55830.00
       55684.00       55517.00       55289.00       54980.00       54610.00
       54173.00       53666.00       53100.00       52515.00       51957.00
       51458.00       51037.00       50705.00       50488.00       50372.00
       50274.00       50143.00       49994.00       49876.00       49830.00
       49859.00       49959.00       50102.00       50250.00       50380.00
       50453.00       50475.00       50458.00       50359.00       50168.00
       49945.00       49762.00       49666.00       49676.00       49775.00
       49913.00       50045.00       50231.00       50540.00       51001.00
       51636.00       52393.00       53175.00       53913.00       54541.00
       55023.00       55449.00       55915.00       56457.00       57102.00
       57820.00       58560.00       59260.00       59944.00       60634.00
       61322.00       62083.00       62956.00       63929.00       64951.00
       65957.00       66882.00       67670.00       68319.00       68871.00
       69395.00       69910.00       70352.00       70634.00       70678.00
       70485.00       70065.00       69452.00       68744.00       68006.00
       67267.00       66557.00       65833.00       65041.00       64155.00
       63123.00       61921.00       60582.00       59206.00       57886.00
       56644.00       55492.00       54447.00       53540.00       52802.00
       52233.00       51828.00       51558.00       51405.00       51413.00
       51562.00       51739.00       51858.00       51914.00       51910.00
       51858.00       51809.00       51818.00       51896.00       52016.00
       52154.00       52264.00       52356.00       52469.00       52572.00
       52668.00       52751.00       52856.00       53059.00       53377.00
       53845.00       54477.00       55238.00       56105.00       57102.00
       58260.00       59553.00       60903.00       62251.00       63595.00
       64920.00       66194.00       67375.00       68432.00       69319.00
       69965.00       70384.00       70669.00       70905.00       71154.00
       71517.00       72064.00       72772.00       73565.00       74344.00
       75066.00       75708.00       76288.00       76830.00       77328.00
       77778.00       78141.00       78409.00       78616.00       78748.00
       78763.00       78645.00       78406.00       78049.00       77582.00
       77016.00       76411.00       75825.00       75239.00       74657.00
       74083.00       73494.00       72906.00       72324.00       71720.00
       71098.00       70488.00       69918.00       69373.00       68857.00
       68397.00       68005.00       67708.00       67556.00       67590.00
       67785.00       68118.00       68580.00       69117.00       69672.00
       70158.00       70512.00       70745.00       70844.00       70805.00
       70637.00       70350.00       69972.00       69517.00       69005.00
       68404.00       67709.00       66983.00       66263.00       65593.00
       64999.00       64451.00       63933.00       63444.00       62945.00
       62383.00       61754.00       61123.00       60604.00       60269.00
       60176.00       60326.00       60635.00       61023.00       61441.00
       61876.00       62304.00       62694.00       63010.00       63198.00
       63279.00       63299.00       63218.00       63012.00       62729.00
       62423.00       62121.00       61850.00       61596.00       61266.00
       60832.00       60331.00       59778.00       59228.00       58730.00
       58348.00       58175.00       58212.00       58375.00       58625.00
       58997.00       59501.00       60159.00       61005.00       61996.00
       63057.00       64119.00       65127.00       66064.00       66905.00
       67605.00       68127.00       68496.00       68721.00       68780.00
       68712.00       68594.00       68478.00       68394.00       68367.00
       68429.00       68574.00       68718.00       68809.00       68819.00
       68685.00       68407.00       68024.00       67562.00       67009.00
       66370.00       65698.00       65065.00       64502.00       63998.00
       63536.00       63086.00       62663.00       62261.00       61868.00
       61508.00       61216.00       61026.00       60904.00       60812.00
       60734.00       60672.00       60620.00       60559.00       60460.00
       60276.00       60009.00       59711.00       59444.00       59267.00
       59234.00       59366.00       59617.00       59928.00       60277.00
       60639.00       60976.00       61236.00       61360.00       61314.00
       61104.00       60790.00       60464.00       60215.00       60101.00
       60108.00       60215.00       60405.00       60676.00       60999.00
       61328.00       61696.00       62143.00       62667.00       63228.00
       63784.00       64283.00       64701.00       65089.00       65480.00
       65867.00       66221.00       66522.00       66721.00       66760.00
       66656.00       66394.00       65973.00       65433.00       64810.00
       64196.00       63672.00       63247.00       62904.00       62646.00
       62450.00       62286.00       62152.00       62043.00       61947.00
       61832.00       61673.00       61465.00       61234.00       60991.00
       60734.00       60492.00       60263.00       59994.00       59671.00
       59302.00       58856.00       58324.00       57692.00       56949.00
       56159.00       55417.00       54777.00       54218.00       53698.00
       53195.00       52672.00       52124.00       51589.00       51105.00
       50704.00       50405.00       50243.00       50231.00       50344.00
       50531.00       50747.00       50945.00       51083.00       51184.00
       51282.00       51392.00       51534.00       51717.00       51936.00
       52178.00       52419.00       52657.00       52923.00       53222.00
       53561.00       53887.00       54113.00       54224.00       54250.00
       54222.00       54165.00       54155.00       54276.00       54523.00
       54856.00       55246.00       55644.00       56006.00       56310.00
       56528.00       56670.00       56774.00       56845.00       56912.00
       57014.00       57145.00       57330.00       57585.00       57894.00
       58243.00       58601.00       58971.00       59385.00       59831.00
       60288.00       60752.00       61248.00       61785.00       62345.00
       62924.00       63557.00       64275.00       65052.00       65887.00
       66769.00       67692.00       68640.00       69589.00       70549.00
       71470.00       72318.00       73089.00       73776.00       74372.00
       74860.00       75254.00       75544.00       75709.00       75741.00
       75665.00       75532.00       75331.00       75080.00       74743.00
       74234.00       73549.00       72733.00       71859.00       71010.00
       70284.00       69719.00       69320.00       69091.00       68993.00
       69018.00       69119.00       69211.00       69252.00       69224.00
       69070.00       68721.00       68179.00       67499.00       66778.00
       66118.00       65596.00       65247.00       65039.00       64929.00
       64863.00       64765.00       64609.00       64399.00       64116.00
       63769.00       63405.00       63070.00       62788.00       62561.00
       62414.00       62359.00       62388.00       62481.00       62603.00
       62744.00       62905.00       63064.00       63199.00       63282.00
       63296.00       63304.00       63372.00       63453.00       63486.00
       63483.00       63466.00       63463.00       63522.00       63647.00
       63865.00       64172.00       64500.00       64774.00       64976.00
       65170.00       65403.00       65658.00       65902.00       66068.00
       66094.00       65949.00       65642.00       65235.00       64796.00
       64371.00       63957.00       63526.00       63018.00       62431.00
       61775.00       61037.00       60250.00       59443.00       58632.00
       57830.00       57061.00       56352.00       55698.00       55133.00
       54683.00       54342.00       54123.00       54059.00       54118.00
       54221.00       54381.00       54588.00       54822.00       55153.00
       55609.00       56207.00       56941.00       57759.00       58605.00
       59405.00       60167.00       60925.00       61679.00       62440.00
       63166.00       63745.00       64121.00       64330.00       64443.00
       64526.00       64588.00       64581.00       64515.00       64431.00
       64306.00       64133.00       63912.00       63662.00       63446.00
       63264.00       63146.00       63163.00       63305.00       63538.00
       63812.00       64034.00       64121.00       64082.00       63939.00
       63700.00       63437.00       63146.00       62786.00       62336.00
       61778.00       61142.00       60488.00       59843.00       59182.00
       58516.00       57905.00       57400.00       56968.00       56583.00
       56251.00       55916.00       55563.00       55225.00       54906.00
       54632.00       54469.00       54403.00       54376.00       54359.00
       54338.00       54293.00       54133.00       53826.00       53400.00
       52857.00       52261.00       51649.00       51075.00       50617.00
       50281.00       50102.00       50121.00       50314.00       50642.00
       51085.00       51645.00       52323.00       53093.00       53912.00
       54703.00       55404.00       56013.00       56530.00       56939.00
       57279.00       57576.00       57847.00       58133.00       58462.00
       58899.00       59487.00       60173.00       60931.00       61790.00
       62720.00       63669.00       64608.00       65484.00       66277.00
       67005.00       67674.00       68259.00       68739.00       69105.00
       69303.00       69324.00       69170.00       68810.00       68220.00
       67448.00       66599.00       65700.00       64795.00       63934.00
       63109.00       62314.00       61559.00       60901.00       60366.00
       59947.00       59651.00       59432.00       59208.00       58924.00
       58569.00       58172.00       57774.00       57419.00       57128.00
       56906.00       56726.00       56598.00       56560.00       56588.00
       56703.00       56927.00       57259.00       57702.00       58225.00
       58811.00       59454.00       60111.00       60761.00       61444.00
       62182.00       62920.00       63623.00       64305.00       64953.00
       65533.00       66071.00       66549.00       66887.00       67065.00
       67097.00       67021.00       66898.00       66810.00       66786.00
       66822.00       66929.00       67079.00       67225.00       67331.00
       67398.00       67466.00       67552.00       67649.00       67763.00
       67925.00       68145.00       68419.00       68765.00       69180.00
       69630.00       70068.00       70443.00       70737.00       70980.00
       71181.00       71371.00       71587.00       71849.00       72139.00
       72419.00       72687.00       72907.00       73048.00       73069.00
       72926.00       72635.00       72232.00       71738.00       71196.00
       70668.00       70151.00       69656.00       69218.00       68834.00
       68547.00       68374.00       68267.00       68181.00       68116.00
       68099.00       68111.00       68175.00       68351.00       68616.00
       68926.00       69257.00       69618.00       70013.00       70430.00
       70848.00       71251.00       71613.00       71892.00       72083.00
       72153.00       72050.00       71806.00       71473.00       71055.00
       70596.00       70141.00       69689.00       69276.00       68939.00
       68676.00       68434.00       68196.00       67986.00       67784.00
       67586.00       67419.00       67249.00       67053.00       66859.00
       66695.00       66615.00       66616.00       66640.00       66659.00
       66618.00       66502.00       66355.00       66245.00       66241.00
       66367.00       66619.00       66956.00       67331.00       67725.00
       68116.00       68468.00       68772.00       69036.00       69233.00
       69343.00       69355.00       69266.00       69097.00       68830.00
       68452.00       68015.00       67557.00       67075.00       66564.00
       66019.00       65436.00       64810.00       64166.00       63507.00
       62798.00       62030.00       61217.00       60383.00       59498.00
       58585.00       57688.00       56795.00       55917.00       55074.00
       54267.00       53450.00       52569.00       51581.00       50476.00
       49304.00       48108.00       46931.00       45844.00       44921.00
       44191.00       43640.00       43224.00       42943.00       42827.00
       42860.00       42986.00       43168.00       43392.00       43650.00
       43934.00       44186.00       44359.00       44455.00       44477.00
       44418.00       44284.00       44132.00       44060.00       44122.00
       44365.00       44834.00       45532.00       46477.00       47663.00
       49033.00       50503.00       51980.00       53445.00       54934.00
       56442.00       57943.00       59460.00       60985.00       62417.00
       63684.00       64778.00       65688.00       66428.00       67005.00
       67440.00       67801.00       68106.00       68328.00       68424.00
       68380.00       68216.00       67936.00       67558.00       67083.00
       66494.00       65836.00       65129.00       64373.00       63606.00
       62856.00       62165.00       61545.00       60974.00       60442.00
       59886.00       59288.00       58662.00       58028.00       57451.00
       56970.00       56557.00       56164.00       55811.00       55535.00
       55344.00       55261.00       55309.00       55485.00       55792.00
       56244.00       56810.00       57443.00       58122.00       58810.00
       59497.00       60185.00       60839.00       61416.00       61905.00
       62320.00       62667.00       62899.00       62992.00       62972.00
       62848.00       62616.00       62237.00       61672.00       60940.00
       60137.00       59346.00       58587.00       57903.00       57297.00
       56778.00       56421.00       56260.00       56298.00       56518.00
       56884.00       57335.00       57823.00       58345.00       58885.00
       59457.00       60116.00       60896.00       61799.00       62757.00
       63636.00       64319.00       64784.00       65060.00       65159.00
       65137.00       65070.00       64946.00       64724.00       64421.00
       64040.00       63579.00       63049.00       62503.00       62009.00
       61560.00       61151.00       60789.00       60474.00       60198.00
       59948.00       59723.00       59458.00       59089.00       58606.00
       58029.00       57446.00       56930.00       56473.00       56084.00
       55796.00       55597.00       55482.00       55437.00       55448.00
       55509.00       55611.00       55771.00       56015.00       56323.00
       56657.00       57002.00       57351.00       57717.00       58139.00
       58599.00       59046.00       59444.00       59779.00       60078.00
       60337.00       60578.00       60849.00       61187.00       61655.00
       62256.00       62970.00       63737.00       64474.00       65160.00
       65793.00       66429.00       67108.00       67844.00       68640.00
       69459.00       70249.00       71009.00       71767.00       72497.00
       73154.00       73721.00       74175.00       74503.00       74691.00
       74747.00       74726.00       74682.00       74642.00       74633.00
       74656.00       74721.00       74821.00       74974.00       75213.00
       75502.00       75798.00       76059.00       76244.00       76338.00
       76302.00       76119.00       75816.00       75410.00       74933.00
       74422.00       73910.00       73440.00       73020.00       72668.00
       72416.00       72261.00       72217.00       72309.00       72555.00
       72931.00       73379.00       73845.00       74257.00       74565.00
       74741.00       74755.00       74584.00       74227.00       73698.00
       72995.00       72124.00       71115.00       70033.00       68945.00
       67892.00       66883.00       65876.00       64850.00       63820.00
       62802.00       61797.00       60758.00       59638.00       58427.00
       57159.00       55908.00       54712.00       53556.00       52447.00
       51361.00       50282.00       49246.00       48300.00       47490.00
       46841.00       46375.00       46117.00       46066.00       46220.00
       46578.00       47131.00       47870.00       48774.00       49803.00
       50883.00       51944.00       52936.00       53842.00       54689.00
       55533.00       56407.00       57300.00       58194.00       59066.00
       59893.00       60720.00       61595.00       62522.00       63508.00
       64523.00       65533.00       66534.00       67528.00       68489.00
       69382.00       70197.00       70914.00       71539.00       72105.00
       72626.00       73119.00       73564.00       73940.00       74232.00
       74415.00       74485.00       74443.00       74310.00       74105.00
       73817.00       73412.00       72908.00       72330.00       71654.00
       70882.00       70032.00       69101.00       68103.00       67039.00
       65916.00       64803.00       63751.00       62767.00       61868.00
       61078.00       60454.00       60028.00       59801.00       59776.00
       59876.00       60026.00       60198.00       60401.00       60686.00
       61069.00       61513.00       61975.00       62407.00       62771.00
       63063.00       63298.00       63462.00       63549.00       63584.00
       63533.00       63350.00       63068.00       62722.00       62315.00
       61856.00       61409.00       61025.00       60638.00       60234.00
       59831.00       59425.00       59049.00       58705.00       58381.00
       58058.00       57771.00       57571.00       57481.00       57517.00
       57638.00       57775.00       57867.00       57921.00       57949.00
       57931.00       57868.00       57789.00       57741.00       57773.00
