     0.02500000      -12345.00      -12345.00   2.060060e+09      -12345.00
   0.0005390000       659.9755      -313.0196      -12345.00      -12345.00
      -12345.00      -12345.00      -12345.00      -12345.00      -12345.00
      -12345.00      -12345.00      -12345.00      -12345.00      -12345.00
      -12345.00      -12345.00      -12345.00      -12345.00      -12345.00
      -12345.00      -12345.00      -12345.00      -12345.00      -12345.00
      -12345.00      -19.93360       134.3600       366.0000       0.000000
       9.831100       126.5297      -12345.00       24.71000      -12345.00
      -12345.00      -12345.00      -12345.00      -12345.00      -12345.00
      -12345.00      -12345.00      -12345.00      -12345.00      -12345.00
       3398.596       165.4008       344.6908       30.56567      -12345.00
      -12345.00      -12345.00       59.00000       90.00000      -12345.00
      -12345.00      -12345.00      -12345.00      -12345.00      -12345.00
      -12345.00      -12345.00      -12345.00      -12345.00      -12345.00
      2019        39        12         0        21
        19         6    -12345    -12345     26400
    -12345    -12345    -12345    -12345    -12345
         1    -12345    -12345    -12345    -12345
    -12345    -12345    -12345    -12345    -12345
    -12345    -12345    -12345    -12345    -12345
    -12345    -12345    -12345    -12345    -12345
         1    -12345    -12345    -12345    -12345
WRAB    Mindanao, Philip
10      -12345  -12345  
-12345  -12345  -12345  
-12345  -12345  -12345  
-12345  -12345  -12345  
-12345  -12345  -12345  
-12345  -12345  BH2     
II      -12345  Nanometr
[...]
      -468.0000      -337.0000      -230.0000      -144.0000      -74.00000
      -14.00000       37.00000       77.00000       110.0000       138.0000
       164.0000       190.0000       214.0000       242.0000       267.0000
       285.0000       306.0000       321.0000       323.0000       311.0000
       284.0000       239.0000       176.0000       99.00000       2.000000
      -105.0000      -228.0000      -363.0000      -500.0000      -647.0000
      -793.0000      -940.0000      -1086.000      -1216.000      -1339.000
      -1457.000      -1562.000      -1655.000      -1743.000      -1832.000
      -1926.000      -2033.000      -2159.000      -2309.000      -2485.000
      -2683.000      -2910.000      -3151.000      -3406.000      -3676.000
      -3951.000      -4235.000      -4520.000      -4810.000      -5097.000
      -5383.000      -5678.000      -5975.000      -6270.000      -6564.000
      -6866.000      -7180.000      -7504.000      -7845.000      -8207.000
      -8585.000      -8979.000      -9390.000      -9812.000      -10239.00
      -10666.00      -11097.00      -11525.00      -11946.00      -12371.00
      -12792.00      -13210.00      -13629.00      -14041.00      -14446.00
      -14845.00      -15242.00      -15630.00      -15995.00      -16342.00
      -16671.00      -16975.00      -17255.00      -17516.00      -17753.00
      -17970.00      -18171.00      -18349.00      -18519.00      -18682.00
      -18830.00      -18967.00      -19089.00      -19189.00      -19274.00
      -19334.00      -19365.00      -19375.00      -19356.00      -19310.00
      -19247.00      -19169.00      -19083.00      -18975.00      -18850.00
      -18715.00      -18565.00      -18404.00      -18232.00      -18053.00
      -17867.00      -17673.00      -17479.00      -17270.00      -17050.00
      -16817.00      -16572.00      -16324.00      -16068.00      -15804.00
      -15537.00      -15263.00      -14984.00      -14707.00      -14427.00
      -14150.00      -13886.00      -13633.00      -13392.00      -13163.00
      -12945.00      -12740.00      -12544.00      -12362.00      -12191.00
      -12031.00      -11882.00      -11742.00      -11611.00      -11487.00
      -11366.00      -11251.00      -11147.00      -11052.00      -10970.00
      -10902.00      -10844.00      -10797.00      -10758.00      -10722.00
      -10692.00      -10669.00      -10652.00      -10649.00      -10650.00
      -10657.00      -10667.00      -10675.00      -10690.00      -10701.00
      -10717.00      -10739.00      -10757.00      -10777.00      -10791.00
      -10800.00      -10817.00      -10838.00      -10865.00      -10895.00
      -10933.00      -10976.00      -11024.00      -11071.00      -11113.00
      -11161.00      -11209.00      -11270.00      -11353.00      -11449.00
      -11569.00      -11711.00      -11875.00      -12065.00      -12274.00
      -12492.00      -12719.00      -12953.00      -13193.00      -13439.00
      -13682.00      -13923.00      -14163.00      -14399.00      -14628.00
      -14849.00      -15059.00      -15242.00      -15407.00      -15550.00
      -15667.00      -15766.00      -15844.00      -15901.00      -15924.00
      -15916.00      -15880.00      -15808.00      -15718.00      -15600.00
      -15457.00      -15311.00      -15156.00      -15006.00      -14865.00
      -14735.00      -14628.00      -14549.00      -14501.00      -14477.00
      -14479.00      -14506.00      -14554.00      -14626.00      -14710.00
      -14814.00      -14941.00      -15081.00      -15243.00      -15425.00
      -15632.00      -15858.00      -16102.00      -16371.00      -16661.00
      -16970.00      -17291.00      -17617.00      -17942.00      -18261.00
      -18567.00      -18853.00      -19119.00      -19362.00      -19581.00
      -19777.00      -19946.00      -20087.00      -20200.00      -20282.00
      -20337.00      -20366.00      -20360.00      -20319.00      -20239.00
      -20124.00      -19984.00      -19808.00      -19607.00      -19382.00
      -19119.00      -18834.00      -18527.00      -18200.00      -17860.00
      -17506.00      -17143.00      -16768.00      -16384.00      -16003.00
      -15625.00      -15251.00      -14877.00      -14508.00      -14144.00
      -13781.00      -13426.00      -13073.00      -12732.00      -12403.00
      -12072.00      -11762.00      -11464.00      -11172.00      -10892.00
      -10615.00      -10345.00      -10087.00      -9842.000      -9606.000
      -9378.000      -9159.000      -8946.000      -8738.000      -8535.000
      -8342.000      -8156.000      -7976.000      -7796.000      -7617.000
      -7437.000      -7254.000      -7065.000      -6863.000      -6660.000
      -6458.000      -6252.000      -6054.000      -5858.000      -5658.000
      -5454.000      -5241.000      -5022.000      -4799.000      -4573.000
      -4343.000      -4113.000      -3894.000      -3687.000      -3485.000
      -3300.000      -3129.000      -2969.000      -2832.000      -2719.000
      -2636.000      -2574.000      -2529.000      -2509.000      -2510.000
      -2534.000      -2578.000      -2645.000      -2733.000      -2841.000
      -2960.000      -3096.000      -3246.000      -3398.000      -3561.000
      -3723.000      -3890.000      -4070.000      -4256.000      -4457.000
      -4664.000      -4873.000      -5097.000      -5334.000      -5590.000
      -5863.000      -6152.000      -6461.000      -6790.000      -7130.000
      -7483.000      -7843.000      -8210.000      -8579.000      -8933.000
      -9265.000      -9576.000      -9868.000      -10132.00      -10366.00
      -10580.00      -10769.00      -10931.00      -11071.00      -11189.00
      -11305.00      -11413.00      -11517.00      -11618.00      -11698.00
      -11776.00      -11854.00      -11919.00      -11982.00      -12034.00
      -12076.00      -12105.00      -12121.00      -12130.00      -12121.00
      -12100.00      -12068.00      -12031.00      -11989.00      -11939.00
      -11889.00      -11831.00      -11763.00      -11685.00      -11592.00
      -11485.00      -11369.00      -11254.00      -11133.00      -11011.00
      -10891.00      -10770.00      -10648.00      -10526.00      -10416.00
      -10310.00      -10201.00      -10097.00      -9991.000      -9881.000
      -9774.000      -9675.000      -9585.000      -9502.000      -9430.000
      -9365.000      -9311.000      -9266.000      -9233.000      -9215.000
      -9200.000      -9192.000      -9189.000      -9186.000      -9187.000
      -9183.000      -9183.000      -9191.000      -9202.000      -9227.000
      -9256.000      -9287.000      -9322.000      -9352.000      -9389.000
      -9427.000      -9462.000      -9496.000      -9528.000      -9565.000
      -9599.000      -9628.000      -9653.000      -9668.000      -9675.000
      -9673.000      -9661.000      -9636.000      -9592.000      -9541.000
      -9480.000      -9408.000      -9331.000      -9244.000      -9139.000
      -9027.000      -8901.000      -8762.000      -8621.000      -8464.000
      -8295.000      -8118.000      -7930.000      -7734.000      -7529.000
      -7321.000      -7104.000      -6878.000      -6650.000      -6418.000
      -6178.000      -5937.000      -5702.000      -5471.000      -5243.000
      -5027.000      -4832.000      -4650.000      -4483.000      -4340.000
      -4206.000      -4092.000      -4009.000      -3949.000      -3919.000
      -3920.000      -3937.000      -3972.000      -4030.000      -4102.000
      -4190.000      -4286.000      -4392.000      -4503.000      -4616.000
      -4744.000      -4871.000      -4993.000      -5119.000      -5243.000
      -5367.000      -5491.000      -5617.000      -5741.000      -5869.000
      -6007.000      -6148.000      -6295.000      -6453.000      -6619.000
      -6789.000      -6964.000      -7137.000      -7302.000      -7467.000
      -7617.000      -7749.000      -7859.000      -7941.000      -8000.000
      -8033.000      -8039.000      -8027.000      -7995.000      -7940.000
      -7867.000      -7779.000      -7679.000      -7571.000      -7454.000
      -7329.000      -7200.000      -7066.000      -6918.000      -6756.000
      -6579.000      -6395.000      -6202.000      -5999.000      -5793.000
      -5580.000      -5362.000      -5149.000      -4937.000      -4729.000
      -4531.000      -4343.000      -4167.000      -4004.000      -3860.000
      -3727.000      -3615.000      -3525.000      -3447.000      -3393.000
      -3359.000      -3336.000      -3337.000      -3355.000      -3388.000
      -3442.000      -3512.000      -3603.000      -3715.000      -3837.000
      -3973.000      -4126.000      -4286.000      -4452.000      -4628.000
      -4804.000      -4978.000      -5159.000      -5345.000      -5536.000
      -5734.000      -5938.000      -6142.000      -6343.000      -6541.000
      -6738.000      -6933.000      -7132.000      -7338.000      -7543.000
      -7746.000      -7948.000      -8145.000      -8335.000      -8528.000
      -8726.000      -8922.000      -9124.000      -9331.000      -9546.000
      -9765.000      -9993.000      -10233.00      -10483.00      -10746.00
      -11015.00      -11290.00      -11562.00      -11828.00      -12096.00
      -12352.00      -12601.00      -12850.00      -13095.00      -13347.00
      -13599.00      -13847.00      -14097.00      -14343.00      -14582.00
      -14818.00      -15049.00      -15269.00      -15484.00      -15697.00
      -15895.00      -16083.00      -16259.00      -16419.00      -16569.00
      -16707.00      -16830.00      -16941.00      -17040.00      -17121.00
      -17178.00      -17215.00      -17225.00      -17210.00      -17181.00
      -17128.00      -17061.00      -16980.00      -16891.00      -16813.00
      -16726.00      -16637.00      -16547.00      -16453.00      -16370.00
      -16286.00      -16205.00      -16134.00      -16064.00      -15990.00
      -15919.00      -15855.00      -15781.00      -15695.00      -15602.00
      -15496.00      -15371.00      -15222.00      -15046.00      -14851.00
      -14644.00      -14420.00      -14183.00      -13925.00      -13641.00
      -13340.00      -13016.00      -12672.00      -12312.00      -11929.00
      -11523.00      -11095.00      -10645.00      -10174.00      -9691.000
      -9196.000      -8697.000      -8206.000      -7711.000      -7219.000
      -6734.000      -6258.000      -5800.000      -5360.000      -4943.000
      -4552.000      -4188.000      -3852.000      -3541.000      -3260.000
      -3006.000      -2787.000      -2602.000      -2455.000      -2355.000
      -2292.000      -2271.000      -2290.000      -2348.000      -2456.000
      -2607.000      -2795.000      -3021.000      -3268.000      -3529.000
      -3803.000      -4085.000      -4382.000      -4692.000      -5016.000
      -5353.000      -5701.000      -6068.000      -6448.000      -6841.000
      -7256.000      -7682.000      -8120.000      -8572.000      -9035.000
      -9510.000      -9995.000      -10494.00      -10998.00      -11497.00
      -11996.00      -12492.00      -12980.00      -13454.00      -13911.00
      -14352.00      -14772.00      -15179.00      -15573.00      -15940.00
      -16291.00      -16616.00      -16907.00      -17179.00      -17426.00
      -17647.00      -17858.00      -18049.00      -18220.00      -18374.00
      -18508.00      -18625.00      -18727.00      -18811.00      -18877.00
      -18918.00      -18942.00      -18951.00      -18940.00      -18924.00
      -18899.00      -18872.00      -18843.00      -18809.00      -18788.00
      -18767.00      -18749.00      -18739.00      -18724.00      -18713.00
      -18692.00      -18662.00      -18617.00      -18552.00      -18476.00
      -18385.00      -18283.00      -18164.00      -18026.00      -17874.00
      -17702.00      -17518.00      -17311.00      -17082.00      -16840.00
      -16580.00      -16303.00      -16004.00      -15685.00      -15340.00
      -14968.00      -14578.00      -14170.00      -13743.00      -13299.00
      -12843.00      -12374.00      -11894.00      -11401.00      -10903.00
      -10399.00      -9888.000      -9385.000      -8888.000      -8392.000
      -7914.000      -7447.000      -6990.000      -6544.000      -6088.000
      -5631.000      -5168.000      -4692.000      -4214.000      -3727.000
      -3228.000      -2724.000      -2221.000      -1712.000      -1201.000
      -696.0000      -197.0000       288.0000       761.0000       1218.000
       1657.000       2085.000       2496.000       2888.000       3268.000
       3637.000       3987.000       4317.000       4633.000       4929.000
       5205.000       5465.000       5703.000       5914.000       6097.000
       6254.000       6381.000       6479.000       6545.000       6576.000
       6562.000       6502.000       6417.000       6287.000       6115.000
       5914.000       5672.000       5394.000       5080.000       4726.000
       4338.000       3916.000       3458.000       2971.000       2461.000
       1932.000       1394.000       840.0000       272.0000      -313.0000
      -921.0000      -1539.000      -2171.000      -2812.000      -3456.000
      -4104.000      -4748.000      -5388.000      -6029.000      -6668.000
      -7303.000      -7931.000      -8548.000      -9158.000      -9759.000
      -10361.00      -10963.00      -11560.00      -12157.00      -12749.00
      -13341.00      -13940.00      -14545.00      -15146.00      -15743.00
      -16333.00      -16910.00      -17480.00      -18036.00      -18578.00
      -19098.00      -19595.00      -20079.00      -20548.00      -21005.00
      -21448.00      -21875.00      -22291.00      -22692.00      -23063.00
      -23404.00      -23724.00      -24018.00      -24288.00      -24534.00
      -24761.00      -24962.00      -25138.00      -25292.00      -25417.00
      -25518.00      -25598.00      -25653.00      -25688.00      -25708.00
      -25710.00      -25686.00      -25639.00      -25568.00      -25476.00
      -25377.00      -25266.00      -25129.00      -24978.00      -24811.00
      -24624.00      -24415.00      -24182.00      -23929.00      -23657.00
      -23372.00      -23068.00      -22743.00      -22411.00      -22066.00
      -21704.00      -21335.00      -20966.00      -20598.00      -20235.00
      -19876.00      -19517.00      -19163.00      -18812.00      -18463.00
      -18109.00      -17761.00      -17433.00      -17118.00      -16833.00
      -16565.00      -16307.00      -16072.00      -15847.00      -15639.00
      -15454.00      -15284.00      -15142.00      -15014.00      -14901.00
      -14804.00      -14721.00      -14661.00      -14623.00      -14604.00
      -14600.00      -14607.00      -14622.00      -14646.00      -14673.00
      -14694.00      -14704.00      -14694.00      -14669.00      -14625.00
      -14552.00      -14453.00      -14332.00      -14199.00      -14055.00
      -13894.00      -13720.00      -13526.00      -13313.00      -13089.00
      -12849.00      -12603.00      -12347.00      -12074.00      -11801.00
      -11529.00      -11260.00      -10998.00      -10734.00      -10472.00
      -10213.00      -9953.000      -9694.000      -9444.000      -9207.000
      -8989.000      -8790.000      -8614.000      -8464.000      -8333.000
      -8224.000      -8138.000      -8079.000      -8046.000      -8033.000
      -8041.000      -8066.000      -8113.000      -8180.000      -8248.000
      -8325.000      -8414.000      -8497.000      -8580.000      -8672.000
      -8774.000      -8885.000      -9003.000      -9134.000      -9265.000
      -9386.000      -9509.000      -9635.000      -9760.000      -9890.000
      -10026.00      -10161.00      -10289.00      -10414.00      -10547.00
      -10677.00      -10797.00      -10916.00      -11029.00      -11135.00
      -11235.00      -11326.00      -11406.00      -11470.00      -11522.00
      -11560.00      -11577.00      -11574.00      -11556.00      -11518.00
      -11453.00      -11366.00      -11255.00      -11123.00      -10976.00
      -10815.00      -10635.00      -10449.00      -10255.00      -10055.00
      -9858.000      -9660.000      -9471.000      -9288.000      -9107.000
      -8938.000      -8771.000      -8611.000      -8455.000      -8312.000
      -8193.000      -8100.000      -8043.000      -8027.000      -8048.000
      -8095.000      -8178.000      -8298.000      -8450.000      -8640.000
      -8862.000      -9130.000      -9434.000      -9770.000      -10141.00
      -10529.00      -10939.00      -11364.00      -11797.00      -12244.00
      -12691.00      -13139.00      -13582.00      -14011.00      -14420.00
      -14806.00      -15175.00      -15526.00      -15851.00      -16139.00
      -16398.00      -16638.00      -16853.00      -17050.00      -17236.00
      -17407.00      -17544.00      -17657.00      -17745.00      -17808.00
      -17860.00      -17893.00      -17905.00      -17906.00      -17897.00
      -17879.00      -17842.00      -17784.00      -17721.00      -17647.00
      -17557.00      -17452.00      -17329.00      -17179.00      -17007.00
      -16818.00      -16597.00      -16359.00      -16108.00      -15841.00
      -15566.00      -15269.00      -14957.00      -14629.00      -14288.00
      -13939.00      -13581.00      -13227.00      -12881.00      -12552.00
      -12251.00      -11964.00      -11703.00      -11470.00      -11262.00
      -11093.00      -10954.00      -10840.00      -10757.00      -10694.00
      -10652.00      -10635.00      -10645.00      -10683.00      -10752.00
      -10850.00      -10968.00      -11107.00      -11273.00      -11467.00
      -11682.00      -11916.00      -12175.00      -12448.00      -12722.00
      -13007.00      -13286.00      -13552.00      -13821.00      -14081.00
      -14319.00      -14537.00      -14736.00      -14901.00      -15032.00
      -15136.00      -15212.00      -15264.00      -15284.00      -15264.00
      -15220.00      -15157.00      -15070.00      -14958.00      -14810.00
      -14639.00      -14448.00      -14240.00      -14011.00      -13750.00
      -13470.00      -13165.00      -12837.00      -12496.00      -12122.00
      -11725.00      -11305.00      -10857.00      -10403.00      -9935.000
