     0.02500000      -12345.00      -12345.00   2.447790e+09      -12345.00
   0.0005380000       659.9755       15.98046      -12345.00      -12345.00
      -12345.00      -12345.00      -12345.00      -12345.00      -12345.00
      -12345.00      -12345.00      -12345.00      -12345.00      -12345.00
      -12345.00      -12345.00      -12345.00      -12345.00      -12345.00
      -12345.00      -12345.00      -12345.00      -12345.00      -12345.00
      -12345.00       7.069700       125.5791       150.0000       1.000000
       9.831100       126.5297      -12345.00       24.71000      -12345.00
      -12345.00      -12345.00      -12345.00      -12345.00      -12345.00
      -12345.00      -12345.00      -12345.00      -12345.00      -12345.00
       322.4923       198.9908       18.85196       2.900372      -12345.00
      -12345.00      -12345.00       0.000000       90.00000      -12345.00
      -12345.00      -12345.00      -12345.00      -12345.00      -12345.00
      -12345.00      -12345.00      -12345.00      -12345.00      -12345.00
      2019        39        11        54        52
        19         6    -12345    -12345     26400
    -12345    -12345    -12345    -12345    -12345
         1    -12345    -12345    -12345    -12345
    -12345    -12345    -12345    -12345    -12345
    -12345    -12345    -12345    -12345    -12345
    -12345    -12345    -12345    -12345    -12345
         1    -12345    -12345    -12345    -12345
DAV     Mindanao, Philip
00      -12345  -12345  
-12345  -12345  -12345  
-12345  -12345  -12345  
-12345  -12345  -12345  
-12345  -12345  -12345  
-12345  -12345  BH1     
IU      -12345  Streckei
[...]
       971769.0       1008801.       1049214.       1077836.       1075407.
       1030237.       950385.0       833655.0       688839.0       529725.0
       354951.0       179647.0       11042.00      -151117.0      -300653.0
      -438604.0      -556996.0      -644943.0      -694607.0      -699271.0
      -665617.0      -599966.0      -511184.0      -412221.0      -302417.0
      -189704.0      -82740.00       20974.00       114882.0       206762.0
       315234.0       448317.0       612895.0       806259.0       1021499.
       1249334.       1475373.       1686900.       1868272.       2014235.
       2128694.       2218031.       2294978.       2370810.       2451800.
       2539158.       2630349.       2715474.       2780084.       2803904.
       2767287.       2668335.       2506551.       2294877.       2060658.
       1812907.       1565444.       1327984.       1089321.       841332.0
       580315.0       308613.0       30757.00      -248831.0      -531096.0
      -818765.0      -1102473.      -1373454.      -1627365.      -1858057.
      -2064503.      -2247730.      -2395242.      -2499061.      -2564750.
      -2599064.      -2610700.      -2601361.      -2567540.      -2500067.
      -2387976.      -2219633.      -1985909.      -1690136.      -1333909.
      -932594.0      -507672.0      -75057.00       340612.0       733078.0
       1110442.       1489448.       1884584.       2292840.       2711666.
       3117257.       3480955.       3782613.       3998652.       4136651.
       4226287.       4293768.       4352075.       4400558.       4434261.
       4451801.       4462125.       4471754.       4494493.       4544285.
       4613890.       4692348.       4759980.       4797424.       4800505.
       4763632.       4679565.       4538573.       4344265.       4107373.
       3835760.       3554618.       3278230.       3010467.       2761757.
       2540450.       2354974.       2201622.       2075376.       1968861.
       1870354.       1780397.       1694870.       1605082.       1512717.
       1417741.       1300915.       1151804.       977004.0       768457.0
       518828.0       220880.0      -130800.0      -526720.0      -958144.0
      -1411584.      -1871864.      -2326228.      -2762383.      -3184364.
      -3609356.      -4040901.      -4470068.      -4883514.      -5257878.
      -5572385.      -5809965.      -5957061.      -6012009.      -5976039.
      -5850400.      -5645632.      -5369592.      -5024233.      -4616100.
      -4152198.      -3641931.      -3091912.      -2507690.      -1897465.
      -1274230.      -663665.0      -88974.00       438832.0       923007.0
       1383450.       1836626.       2283791.       2719857.       3124830.
       3467229.       3723558.       3879243.       3924398.       3852279.
       3672716.       3406980.       3071009.       2683427.       2263292.
       1823265.       1375716.       944387.0       561434.0       252021.0
       25197.00      -128285.0      -232088.0      -318570.0      -409338.0
      -513844.0      -639614.0      -786272.0      -956743.0      -1153696.
      -1367045.      -1586665.      -1795438.      -1971885.      -2101964.
      -2167660.      -2165870.      -2104695.      -1992136.      -1861653.
      -1751204.      -1690993.      -1710126.      -1818329.      -2005129.
      -2247466.      -2519669.      -2793978.      -3045915.      -3253776.
      -3398424.      -3480759.      -3502260.      -3471639.      -3418373.
      -3360575.      -3309940.      -3275365.      -3244170.      -3200769.
      -3135381.      -3039706.      -2917213.      -2774478.      -2619655.
      -2468325.      -2325837.      -2189908.      -2062310.      -1935896.
      -1803341.      -1665128.      -1522150.      -1385951.      -1278345.
      -1217724.      -1214235.      -1260212.      -1328948.      -1388097.
      -1403096.      -1357871.      -1260624.      -1125658.      -975759.0
      -831096.0      -694090.0      -553976.0      -403327.0      -246603.0
      -90106.00       48663.00       145877.0       196187.0       196311.0
       152259.0       94762.00       47210.00       22806.00       30887.00
       64511.00       110452.0       159563.0       206334.0       247261.0
       283958.0       322142.0       359618.0       392894.0       424696.0
       464872.0       528809.0       625222.0       761440.0       939246.0
       1143959.       1358961.       1567452.       1760284.       1950719.
       2159163.       2402748.       2686156.       2997254.       3319967.
       3633629.       3917667.       4149837.       4305948.       4380967.
       4382439.       4330597.       4262992.       4206484.       4170475.
       4156576.       4152342.       4129842.       4062135.       3940597.
       3766138.       3540999.       3277676.       2987834.       2679838.
       2361706.       2045879.       1751609.       1484564.       1244250.
       1020496.       787499.0       526420.0       226290.0      -120821.0
      -511276.0      -928731.0      -1357466.      -1781928.      -2174290.
      -2504833.      -2757693.      -2923626.      -2998236.      -2983528.
      -2883417.      -2706555.      -2465892.      -2181632.      -1876379.
      -1574193.      -1302838.      -1075115.      -887149.0      -729525.0
      -592675.0      -461265.0      -317938.0      -156431.0       34329.00
       259708.0       509627.0       770572.0       1022099.       1243547.
       1410927.       1511495.       1549985.       1532119.       1471103.
       1378715.       1266738.       1145418.       1017848.       891144.0
       766786.0       649959.0       545249.0       458222.0       406437.0
       394992.0       432156.0       506549.0       585309.0       659054.0
       712932.0       744422.0       762697.0       768515.0       772445.0
       768159.0       741013.0       672059.0       545645.0       362628.0
       126663.0      -142522.0      -428708.0      -711266.0      -959830.0
      -1165562.      -1330091.      -1467946.      -1597733.      -1726973.
      -1848644.      -1933114.      -1951756.      -1879791.      -1707243.
      -1451101.      -1127326.      -762896.0      -386939.0      -11663.00
       353153.0       710105.0       1058977.       1389637.       1698562.
       1984268.       2255928.       2533050.       2838924.       3183768.
       3554183.       3936640.       4310654.       4652405.       4944531.
       5169131.       5322504.       5407107.       5427906.       5393893.
       5307626.       5172472.       4986180.       4738302.       4425062.
       4044182.       3590708.       3057484.       2436142.       1730267.
       952714.0       117398.0      -752953.0      -1615833.      -2427595.
      -3160091.      -3791675.      -4316338.      -4738785.      -5070166.
      -5330127.      -5533476.      -5696122.      -5829897.      -5945751.
      -6058346.      -6175804.      -6301736.      -6425852.      -6539720.
      -6637119.      -6701806.      -6722463.      -6687554.      -6592391.
      -6443892.      -6252965.      -6030745.      -5791227.      -5545692.
      -5292723.      -5034701.      -4766921.      -4481924.      -4182916.
      -3866928.      -3533085.      -3180916.      -2805669.      -2412069.
      -2012015.      -1611161.      -1213493.      -820428.0      -427717.0
      -35575.00       357550.0       750896.0       1138638.       1510064.
       1844171.       2119553.       2317051.       2426016.       2451079.
       2407450.       2311342.       2171262.       1988631.       1753989.
       1463591.       1133205.       779433.0       420947.0       80831.00
      -219202.0      -460106.0      -632534.0      -737231.0      -786150.0
      -796976.0      -784800.0      -758410.0      -719384.0      -665039.0
      -592828.0      -504825.0      -404422.0      -294552.0      -179096.0
      -58765.00       70224.00       212439.0       374915.0       568112.0
       800715.0       1071816.       1370950.       1684812.       1999188.
       2306763.       2605174.       2890910.       3170726.       3450073.
       3725544.       3985865.       4202404.       4349164.       4406893.
       4360866.       4208869.       3960139.       3636692.       3259264.
       2847731.       2431411.       2042647.       1712440.       1459254.
       1281232.       1165610.       1090103.       1024296.       938163.0
       808996.0       628032.0       396074.0       120047.0      -185542.0
      -507617.0      -841226.0      -1180156.      -1518696.      -1855086.
      -2182189.      -2499489.      -2812779.      -3124473.      -3440315.
      -3761864.      -4080615.      -4387163.      -4669733.      -4911912.
      -5103541.      -5238253.      -5314304.      -5339008.      -5327496.
      -5299896.      -5273183.      -5259698.      -5267283.      -5301156.
      -5362335.      -5446357.      -5542547.      -5635941.      -5705521.
      -5725293.      -5682567.      -5578327.      -5419917.      -5219767.
      -4989123.      -4742520.      -4494500.      -4246425.      -3996584.
      -3743984.      -3477355.      -3185981.      -2865154.      -2510765.
      -2118458.      -1687307.      -1225095.      -737720.0      -234123.0
       263401.0       740294.0       1193794.       1615784.       2009691.
       2391230.       2767122.       3149207.       3548845.       3966839.
       4408665.       4879755.       5377694.       5897155.       6430708.
       6965992.       7492130.       7998978.       8473699.       8907780.
       9293421.       9614368.       9847151.       9977184.       9996689.
       9898576.       9690643.       9386535.       8997606.       8542627.
       8040565.       7508574.       6976664.       6476663.       6028472.
       5645720.       5325810.       5048895.       4786564.       4501179.
       4162099.       3756990.       3282429.       2748988.       2180464.
       1592883.       994927.0       387870.0      -235392.0      -884418.0
      -1579775.      -2331452.      -3130626.      -3969792.      -4833527.
      -5703090.      -6563318.      -7393479.      -8174093.      -8889995.
      -9526039.  -1.007020e+07  -1.051971e+07  -1.087536e+07  -1.112981e+07
  -1.127906e+07  -1.132904e+07  -1.129018e+07  -1.118490e+07  -1.103708e+07
  -1.084962e+07  -1.061772e+07  -1.033587e+07      -9988036.      -9567445.
      -9077275.      -8531999.      -7960919.      -7389533.      -6842286.
      -6345045.      -5916761.      -5564931.      -5291491.      -5093645.
      -4960801.      -4877689.      -4825106.      -4787232.      -4758756.
      -4741237.      -4733738.      -4733213.      -4730714.      -4704969.
      -4639916.      -4524656.      -4342378.      -4084917.      -3750170.
      -3334993.      -2842463.      -2275559.      -1638775.      -942913.0
      -200726.0       566647.0       1335126.       2091789.       2836742.
       3572575.       4299056.       5018135.       5722013.       6402386.
       7056194.       7675967.       8265973.       8834136.       9386344.
       9930204.   1.046683e+07   1.099771e+07   1.152052e+07   1.202379e+07
   1.249232e+07   1.290797e+07   1.326286e+07   1.355855e+07   1.378971e+07
   1.395354e+07   1.405443e+07   1.409286e+07   1.406851e+07   1.398664e+07
   1.384262e+07   1.362303e+07   1.332097e+07   1.292694e+07   1.243545e+07
   1.185216e+07   1.118612e+07   1.045164e+07       9667625.       8856377.
       8037156.       7218598.       6407004.       5607651.       4822229.
       4059444.       3330749.       2651151.       2028552.       1455727.
       932919.0       452598.0      -2709.000      -446790.0      -893993.0
      -1356569.      -1844122.      -2354783.      -2885252.      -3434074.
      -3992960.      -4561041.      -5140832.      -5729067.      -6322148.
      -6918497.      -7511596.      -8084619.      -8623625.      -9118357.
      -9560275.      -9951499.  -1.029466e+07  -1.058895e+07  -1.083522e+07
  -1.102933e+07  -1.116861e+07  -1.125613e+07  -1.129132e+07  -1.127316e+07
  -1.120234e+07  -1.108541e+07  -1.093588e+07  -1.076278e+07  -1.057144e+07
  -1.036508e+07  -1.014777e+07      -9916820.      -9663555.      -9388572.
      -9083635.      -8739078.      -8353864.      -7921384.      -7444401.
      -6934829.      -6404067.      -5863416.      -5324948.      -4801582.
      -4291495.      -3787672.      -3287437.      -2783779.      -2272100.
      -1743636.      -1181465.      -568861.0       107303.0       854174.0
       1666922.       2529812.       3430285.       4355307.       5282307.
       6197066.       7097988.       7978454.       8837833.       9678343.
   1.049421e+07   1.128264e+07   1.203317e+07   1.272888e+07   1.335446e+07
   1.389504e+07   1.433558e+07   1.466329e+07   1.487219e+07   1.495580e+07
   1.491171e+07   1.474148e+07   1.444997e+07   1.404352e+07   1.352831e+07
   1.291983e+07   1.223072e+07   1.147247e+07   1.066092e+07       9809755.
       8930875.       8029738.       7115147.       6194532.       5276459.
       4381350.       3517575.       2691978.       1914959.       1192733.
       535047.0      -51331.00      -552026.0      -960570.0      -1281964.
      -1512690.      -1659020.      -1730192.      -1723825.      -1649572.
      -1526244.      -1370534.      -1207048.      -1052852.      -918269.0
      -812524.0      -736170.0      -686084.0      -650596.0      -617659.0
      -583324.0      -554255.0      -545160.0      -571453.0      -655023.0
      -809345.0      -1032830.      -1315259.      -1640372.      -1995763.
      -2363175.      -2721098.      -3055208.      -3353798.      -3604175.
      -3793732.      -3916134.      -3965645.      -3937530.      -3830242.
      -3651029.      -3419410.      -3153071.      -2875803.      -2615693.
      -2394982.      -2234792.      -2143517.      -2117720.      -2154797.
      -2237483.      -2338310.      -2443874.      -2543227.      -2631555.
      -2706517.      -2758968.      -2786928.      -2788914.      -2764305.
      -2716751.      -2657330.      -2596561.      -2542831.      -2513187.
      -2514510.      -2547835.      -2611971.      -2687883.      -2762201.
      -2830018.      -2871766.      -2870169.      -2819616.      -2713945.
      -2554115.      -2349378.      -2102175.      -1814212.      -1494780.
      -1153994.      -801893.0      -450966.0      -110254.0       219309.0
       533222.0       831659.0       1122008.       1404171.       1685447.
       1973981.       2270046.       2578030.       2891511.       3197809.
       3490828.       3761230.       3998572.       4195487.       4346266.
       4447700.       4506637.       4534947.       4539617.       4525679.
       4494127.       4440696.       4355675.       4222367.       4031294.
       3787489.       3490056.       3142654.       2762322.       2358999.
       1941108.       1523866.       1123679.       751742.0       416622.0
       119329.0      -145348.0      -380673.0      -591661.0      -783680.0
      -962387.0      -1126665.      -1272792.      -1400685.      -1507535.
      -1593357.      -1661404.      -1720345.      -1775859.      -1820744.
      -1851312.      -1866079.      -1860543.      -1835725.      -1798576.
      -1760503.      -1727659.      -1696979.      -1664761.      -1622219.
      -1558563.      -1464183.      -1326100.      -1145795.      -934500.0
      -695514.0      -442952.0      -200508.0       19388.00       208281.0
       354945.0       457330.0       523803.0       560485.0       576103.0
       580577.0       577113.0       566598.0       554963.0       549418.0
       548483.0       560298.0       588143.0       622753.0       664171.0
       703754.0       736850.0       767398.0       794367.0       830452.0
       888234.0       972537.0       1087911.       1231635.       1400126.
       1588514.       1791362.       2001996.       2209452.       2403106.
       2576718.       2726007.       2850965.       2957769.       3047446.
       3123334.       3187617.       3238125.       3278232.       3312586.
       3342258.       3361461.       3369189.       3367888.       3355171.
       3337557.       3320644.       3306513.       3296869.       3284162.
       3262452.       3219759.       3152955.       3063640.       2946046.
       2810212.       2663225.       2505091.       2332052.       2147359.
       1956728.       1749027.       1523623.       1282893.       1021626.
       741881.0       452752.0       163254.0      -125255.0      -406067.0
      -670372.0      -916462.0      -1138496.      -1331058.      -1489334.
      -1607349.      -1682587.      -1716260.      -1709005.      -1661105.
      -1579774.      -1476586.      -1369102.      -1270950.      -1192359.
      -1150156.      -1155862.      -1217537.      -1342230.      -1535286.
      -1799260.      -2131169.      -2524780.      -2970269.      -3459782.
      -3979476.      -4512996.      -5049885.      -5580251.      -6096566.
      -6579951.      -7012609.      -7388160.      -7695205.      -7925732.
      -8078339.      -8156022.      -8162374.      -8102885.      -7982335.
      -7803324.      -7574153.      -7295014.      -6967235.      -6602675.
      -6214860.      -5811073.      -5394534.      -4971270.      -4537936.
      -4095784.      -3653314.      -3216802.      -2795574.      -2403703.
      -2052270.      -1745384.      -1492905.      -1297515.      -1156570.
      -1070200.      -1031986.      -1034391.      -1069785.      -1124465.
      -1182500.      -1234329.      -1266746.      -1266407.      -1230664.
      -1159750.      -1058350.      -930865.0      -779708.0      -612152.0
      -430178.0      -232924.0      -22604.00       199815.0       429887.0
       661829.0       885743.0       1092592.       1283416.       1455893.
       1605410.       1730091.       1826082.       1890011.       1923980.
       1932019.       1921762.       1907640.       1898516.       1904895.
       1932681.       1973708.       2023073.       2076670.       2129723.
       2171123.       2189861.       2180657.       2126743.       2012786.
       1831136.       1572547.       1228571.       804652.0       314142.0
      -236278.0      -838515.0      -1488841.      -2175683.      -2882034.
