     0.02500000      -12345.00      -12345.00   3.262830e+10      -12345.00
   0.0005380000       659.9755      -831.0195      -12345.00      -12345.00
      -12345.00      -12345.00      -12345.00      -12345.00      -12345.00
      -12345.00      -12345.00      -12345.00      -12345.00      -12345.00
      -12345.00      -12345.00      -12345.00      -12345.00      -12345.00
      -12345.00      -12345.00      -12345.00      -12345.00      -12345.00
      -12345.00       23.68580      -109.9443       825.0000       0.000000
       9.831100       126.5297      -12345.00       24.71000      -12345.00
      -12345.00      -12345.00      -12345.00      -12345.00      -12345.00
      -12345.00      -12345.00      -12345.00      -12345.00      -12345.00
       12847.55       57.89136       294.4156       115.5459      -12345.00
      -12345.00      -12345.00       90.00000       90.00000      -12345.00
      -12345.00      -12345.00      -12345.00      -12345.00      -12345.00
      -12345.00      -12345.00      -12345.00      -12345.00      -12345.00
      2019        39        12         8        59
        19         6    -12345    -12345     26400
    -12345    -12345    -12345    -12345    -12345
         1    -12345    -12345    -12345    -12345
    -12345    -12345    -12345    -12345    -12345
    -12345    -12345    -12345    -12345    -12345
    -12345    -12345    -12345    -12345    -12345
         1    -12345    -12345    -12345    -12345
SLBS    Mindanao, Philip
10      -12345  -12345  
-12345  -12345  -12345  
-12345  -12345  -12345  
-12345  -12345  -12345  
-12345  -12345  -12345  
-12345  -12345  BH2     
IU      -12345  Streckei
[...]
      -8356.000      -8145.000      -7998.000      -7958.000      -7895.000
      -7703.000      -7406.000      -7126.000      -6748.000      -6302.000
      -5962.000      -5564.000      -5138.000      -4719.000      -4175.000
      -3595.000      -2994.000      -2394.000      -1871.000      -1469.000
      -1018.000      -421.0000       79.00000       584.0000       1113.000
       1496.000       1824.000       2157.000       2568.000       2963.000
       3312.000       3736.000       4143.000       4541.000       4875.000
       5162.000       5545.000       5959.000       6415.000       6838.000
       7250.000       7728.000       8197.000       8721.000       9292.000
       9839.000       10327.00       10817.00       11329.00       11776.00
       12181.00       12588.00       12888.00       13141.00       13498.00
       13708.00       13858.00       14036.00       14099.00       14249.00
       14435.00       14609.00       14675.00       14723.00       14925.00
       14868.00       14757.00       14797.00       14713.00       14591.00
       14439.00       14330.00       14142.00       13800.00       13528.00
       13155.00       12742.00       12362.00       11861.00       11351.00
       10838.00       10268.00       9594.000       8925.000       8337.000
       7689.000       7032.000       6406.000       5794.000       5104.000
       4416.000       3867.000       3313.000       2876.000       2596.000
       2298.000       2023.000       1757.000       1529.000       1399.000
       1209.000       1069.000       1004.000       831.0000       693.0000
       490.0000       267.0000       97.00000      -129.0000      -239.0000
      -435.0000      -748.0000      -1008.000      -1411.000      -1801.000
      -2117.000      -2541.000      -2973.000      -3478.000      -4082.000
      -4729.000      -5444.000      -6162.000      -6866.000      -7547.000
      -8225.000      -8893.000      -9600.000      -10370.00      -11087.00
      -11763.00      -12392.00      -12919.00      -13482.00      -14098.00
      -14740.00      -15500.00      -16088.00      -16629.00      -17355.00
      -17940.00      -18593.00      -19304.00      -19905.00      -20626.00
      -21217.00      -21729.00      -22357.00      -22818.00      -23243.00
      -23736.00      -24207.00      -24671.00      -25039.00      -25362.00
      -25651.00      -26004.00      -26421.00      -26794.00      -27218.00
      -27609.00      -27899.00      -28171.00      -28433.00      -28695.00
      -28965.00      -29293.00      -29706.00      -30084.00      -30391.00
      -30601.00      -30857.00      -31168.00      -31373.00      -31657.00
      -31890.00      -31990.00      -32109.00      -32147.00      -32198.00
      -32223.00      -32214.00      -32207.00      -32129.00      -32075.00
      -31956.00      -31743.00      -31487.00      -31221.00      -30981.00
      -30686.00      -30337.00      -29988.00      -29631.00      -29195.00
      -28718.00      -28249.00      -27785.00      -27377.00      -26923.00
      -26424.00      -25992.00      -25567.00      -25109.00      -24638.00
      -24241.00      -23906.00      -23584.00      -23237.00      -22885.00
      -22586.00      -22302.00      -22085.00      -21923.00      -21779.00
      -21603.00      -21434.00      -21224.00      -20907.00      -20658.00
      -20365.00      -20041.00      -19754.00      -19318.00      -18779.00
      -18175.00      -17522.00      -16823.00      -16136.00      -15407.00
      -14572.00      -13716.00      -12792.00      -11895.00      -10937.00
      -9931.000      -9041.000      -8086.000      -7133.000      -6293.000
      -5380.000      -4452.000      -3611.000      -2757.000      -2031.000
      -1394.000      -717.0000      -96.00000       570.0000       1230.000
       1823.000       2385.000       2872.000       3415.000       3983.000
       4546.000       5193.000       5851.000       6430.000       6888.000
       7372.000       7821.000       8194.000       8651.000       9073.000
       9435.000       9772.000       9998.000       10149.00       10364.00
       10651.00       10926.00       11239.00       11538.00       11881.00
       12323.00       12659.00       13076.00       13591.00       14074.00
       14621.00       15098.00       15598.00       16050.00       16415.00
       16920.00       17324.00       17678.00       18011.00       18110.00
       18203.00       18232.00       18206.00       18180.00       17964.00
       17771.00       17561.00       17196.00       16829.00       16378.00
       15856.00       15386.00       14851.00       14289.00       13774.00
       13113.00       12333.00       11654.00       10882.00       10062.00
       9351.000       8466.000       7588.000       6777.000       5926.000
       5100.000       4242.000       3438.000       2682.000       2035.000
       1431.000       839.0000       350.0000      -99.00000      -450.0000
      -796.0000      -1086.000      -1261.000      -1464.000      -1643.000
      -1777.000      -1787.000      -1817.000      -1925.000      -1935.000
      -1945.000      -1939.000      -2106.000      -2406.000      -2584.000
      -2757.000      -2942.000      -3124.000      -3192.000      -3258.000
      -3369.000      -3283.000      -3147.000      -3098.000      -3025.000
      -2934.000      -2876.000      -2833.000      -2886.000      -2994.000
      -3124.000      -3197.000      -3223.000      -3402.000      -3561.000
      -3732.000      -3934.000      -4054.000      -4158.000      -4235.000
      -4287.000      -4314.000      -4358.000      -4417.000      -4543.000
      -4684.000      -4865.000      -5078.000      -5160.000      -5252.000
      -5457.000      -5700.000      -5942.000      -6169.000      -6226.000
      -6203.000      -6254.000      -6194.000      -6132.000      -6152.000
      -6096.000      -6064.000      -6032.000      -6044.000      -6143.000
      -6195.000      -6390.000      -6688.000      -7040.000      -7547.000
      -8012.000      -8535.000      -9150.000      -9698.000      -10334.00
      -10976.00      -11593.00      -12214.00      -12701.00      -13178.00
      -13596.00      -13975.00      -14432.00      -14897.00      -15270.00
      -15576.00      -15948.00      -16351.00      -16799.00      -17247.00
      -17687.00      -18238.00      -18786.00      -19353.00      -19924.00
      -20489.00      -21120.00      -21714.00      -22330.00      -22860.00
      -23391.00      -23964.00      -24417.00      -24898.00      -25353.00
      -25819.00      -26246.00      -26564.00      -26834.00      -27041.00
      -27244.00      -27379.00      -27529.00      -27734.00      -27927.00
      -28097.00      -28139.00      -28160.00      -28241.00      -28241.00
      -28217.00      -28208.00      -28253.00      -28338.00      -28342.00
      -28325.00      -28336.00      -28368.00      -28370.00      -28423.00
      -28477.00      -28430.00      -28380.00      -28234.00      -28194.00
      -28258.00      -28085.00      -27986.00      -27983.00      -27854.00
      -27840.00      -27854.00      -27791.00      -27764.00      -27745.00
      -27799.00      -27884.00      -27858.00      -27816.00      -27777.00
      -27682.00      -27680.00      -27700.00      -27652.00      -27625.00
      -27520.00      -27355.00      -27196.00      -26927.00      -26698.00
      -26603.00      -26403.00      -26212.00      -26035.00      -25711.00
      -25334.00      -24983.00      -24697.00      -24389.00      -24034.00
      -23591.00      -23162.00      -22680.00      -21979.00      -21404.00
      -20824.00      -20189.00      -19653.00      -18937.00      -18170.00
      -17317.00      -16352.00      -15440.00      -14521.00      -13651.00
      -12734.00      -11714.00      -10645.00      -9592.000      -8590.000
      -7603.000      -6604.000      -5599.000      -4630.000      -3658.000
      -2624.000      -1547.000      -546.0000       475.0000       1450.000
       2304.000       3222.000       4029.000       4833.000       5685.000
       6326.000       6960.000       7477.000       7880.000       8477.000
       8957.000       9357.000       9867.000       10272.00       10691.00
       11216.00       11767.00       12333.00       12995.00       13810.00
       14629.00       15441.00       16222.00       16946.00       17734.00
       18533.00       19342.00       20155.00       20938.00       21659.00
       22280.00       23003.00       23606.00       24078.00       24717.00
       25196.00       25697.00       26270.00       26641.00       27095.00
       27555.00       27999.00       28480.00       28835.00       29258.00
       29722.00       30088.00       30479.00       30786.00       31025.00
       31242.00       31296.00       31322.00       31296.00       31004.00
       30695.00       30502.00       30229.00       29834.00       29454.00
       29041.00       28421.00       27872.00       27391.00       26802.00
       26250.00       25695.00       25161.00       24590.00       23971.00
       23370.00       22743.00       22184.00       21631.00       21109.00
       20708.00       20273.00       19815.00       19378.00       19012.00
       18690.00       18318.00       18085.00       17839.00       17455.00
       17117.00       16761.00       16380.00       15942.00       15551.00
       15262.00       14810.00       14388.00       14039.00       13502.00
       13023.00       12586.00       12048.00       11483.00       10794.00
       10017.00       9160.000       8360.000       7596.000       6647.000
       5750.000       4889.000       3871.000       2867.000       1855.000
       847.0000      -62.00000      -905.0000      -1604.000      -2349.000
      -3119.000      -3890.000      -4777.000      -5551.000      -6305.000
      -7064.000      -7781.000      -8569.000      -9396.000      -10169.00
      -10989.00      -11876.00      -12645.00      -13367.00      -14018.00
      -14663.00      -15382.00      -16050.00      -16599.00      -17052.00
      -17501.00      -17884.00      -18263.00      -18728.00      -19209.00
      -19720.00      -20171.00      -20564.00      -21051.00      -21553.00
      -22045.00      -22625.00      -23343.00      -24053.00      -24693.00
      -25426.00      -26156.00      -26901.00      -27718.00      -28527.00
      -29307.00      -29953.00      -30569.00      -31109.00      -31581.00
      -32183.00      -32724.00      -33286.00      -33985.00      -34602.00
      -35102.00      -35695.00      -36371.00      -36930.00      -37515.00
      -38281.00      -39104.00      -39804.00      -40531.00      -41334.00
      -42050.00      -42840.00      -43730.00      -44550.00      -45335.00
      -46099.00      -46731.00      -47316.00      -47878.00      -48314.00
      -48662.00      -48969.00      -49293.00      -49513.00      -49643.00
      -49742.00      -49709.00      -49723.00      -49729.00      -49675.00
      -49583.00      -49445.00      -49375.00      -49235.00      -49053.00
      -48938.00      -48823.00      -48633.00      -48473.00      -48436.00
      -48290.00      -48018.00      -47783.00      -47550.00      -47259.00
      -47035.00      -46748.00      -46307.00      -45925.00      -45514.00
      -45031.00      -44547.00      -44118.00      -43660.00      -43114.00
      -42617.00      -41987.00      -41183.00      -40340.00      -39408.00
      -38481.00      -37526.00      -36464.00      -35356.00      -34143.00
      -32879.00      -31648.00      -30439.00      -29301.00      -28102.00
      -26820.00      -25631.00      -24415.00      -23204.00      -22052.00
      -20983.00      -19982.00      -18953.00      -17971.00      -16844.00
      -15714.00      -14639.00      -13506.00      -12480.00      -11418.00
      -10324.00      -9174.000      -7934.000      -6771.000      -5569.000
      -4400.000      -3434.000      -2388.000      -1271.000      -218.0000
       873.0000       1943.000       2958.000       3837.000       4669.000
       5530.000       6372.000       7334.000       8306.000       9240.000
       10213.00       11157.00       12134.00       13111.00       14101.00
       15232.00       16357.00       17402.00       18497.00       19534.00
       20571.00       21689.00       22754.00       23806.00       24813.00
       25755.00       26678.00       27578.00       28480.00       29462.00
       30478.00       31416.00       32420.00       33434.00       34309.00
       35172.00       36055.00       36919.00       37830.00       38728.00
       39611.00       40570.00       41417.00       42138.00       42891.00
       43624.00       44341.00       45045.00       45697.00       46292.00
       46731.00       47134.00       47516.00       47791.00       48087.00
       48393.00       48624.00       48719.00       48827.00       48775.00
       48593.00       48465.00       48247.00       48057.00       47748.00
       47371.00       46958.00       46424.00       45918.00       45444.00
       44934.00       44372.00       43889.00       43311.00       42689.00
       42048.00       41298.00       40536.00       39666.00       38883.00
       37955.00       36868.00       35897.00       34700.00       33520.00
       32394.00       31100.00       29922.00       28748.00       27546.00
       26442.00       25373.00       24441.00       23534.00       22656.00
       21897.00       21010.00       19994.00       18956.00       17940.00
       17043.00       16189.00       15297.00       14367.00       13349.00
       12228.00       11142.00       10141.00       9072.000       8052.000
       7151.000       6189.000       5221.000       4230.000       3188.000
       2212.000       1394.000       575.0000      -361.0000      -1234.000
      -2242.000      -3368.000      -4390.000      -5483.000      -6699.000
      -7932.000      -9140.000      -10441.00      -11791.00      -13094.00
      -14419.00      -15754.00      -16985.00      -18063.00      -19189.00
      -20424.00      -21591.00      -22606.00      -23663.00      -24706.00
      -25694.00      -26820.00      -27905.00      -29026.00      -30208.00
      -31348.00      -32542.00      -33742.00      -34973.00      -36173.00
      -37299.00      -38507.00      -39680.00      -40790.00      -41890.00
      -42831.00      -43797.00      -44738.00      -45634.00      -46661.00
      -47523.00      -48267.00      -49001.00      -49732.00      -50473.00
      -51079.00      -51651.00      -52132.00      -52492.00      -52807.00
      -53105.00      -53320.00      -53421.00      -53547.00      -53622.00
      -53643.00      -53670.00      -53602.00      -53459.00      -53378.00
      -53266.00      -53068.00      -52826.00      -52654.00      -52498.00
      -52148.00      -51902.00      -51658.00      -51231.00      -50968.00
      -50765.00      -50546.00      -50437.00      -50306.00      -50152.00
      -50015.00      -49816.00      -49623.00      -49524.00      -49313.00
      -48992.00      -48634.00      -48130.00      -47666.00      -47107.00
      -46377.00      -45737.00      -45047.00      -44388.00      -43723.00
      -42966.00      -42250.00      -41459.00      -40821.00      -40297.00
      -39642.00      -39015.00      -38292.00      -37525.00      -36886.00
      -36156.00      -35514.00      -34979.00      -34246.00      -33514.00
      -32795.00      -31990.00      -31211.00      -30380.00      -29578.00
      -28917.00      -28157.00      -27225.00      -26259.00      -25301.00
      -24324.00      -23388.00      -22504.00      -21465.00      -20396.00
      -19362.00      -18209.00      -17048.00      -15851.00      -14606.00
      -13397.00      -12244.00      -11014.00      -9684.000      -8417.000
      -7111.000      -5834.000      -4719.000      -3697.000      -2622.000
      -1452.000      -328.0000       804.0000       1859.000       2909.000
       4036.000       5077.000       6168.000       7211.000       8263.000
       9376.000       10349.00       11376.00       12355.00       13317.00
       14304.00       15246.00       16327.00       17256.00       18182.00
       19126.00       19890.00       20742.00       21533.00       22295.00
       23011.00       23713.00       24439.00       25048.00       25570.00
       26032.00       26592.00       27053.00       27524.00       28061.00
       28430.00       28725.00       28996.00       29346.00       29668.00
       29913.00       30171.00       30383.00       30521.00       30711.00
       30872.00       30942.00       31083.00       31173.00       31222.00
       31220.00       31298.00       31334.00       31195.00       31310.00
       31379.00       31283.00       31273.00       31328.00       31311.00
       31178.00       31179.00       31122.00       30980.00       30899.00
       30784.00       30710.00       30579.00       30352.00       30052.00
       29824.00       29689.00       29363.00       29156.00       28957.00
       28552.00       28207.00       27765.00       27346.00       26866.00
       26319.00       25916.00       25397.00       24805.00       24237.00
       23650.00       23150.00       22648.00       22196.00       21910.00
       21505.00       21026.00       20562.00       20057.00       19597.00
       19075.00       18552.00       18039.00       17425.00       16737.00
       16021.00       15239.00       14399.00       13604.00       12827.00
       11984.00       10998.00       9974.000       8947.000       7978.000
       7168.000       6328.000       5483.000       4706.000       3775.000
       2817.000       2039.000       1184.000       277.0000      -574.0000
      -1463.000      -2357.000      -3324.000      -4352.000      -5317.000
      -6326.000      -7360.000      -8289.000      -9436.000      -10683.00
      -11813.00      -13134.00      -14379.00      -15541.00      -16861.00
      -18117.00      -19388.00      -20639.00      -21815.00      -23040.00
      -24156.00      -25145.00      -26075.00      -26911.00      -27754.00
      -28504.00      -29204.00      -29857.00      -30340.00      -30801.00
      -31133.00      -31466.00      -31823.00      -32101.00      -32323.00
      -32408.00      -32510.00      -32584.00      -32512.00      -32435.00
      -32444.00      -32492.00      -32559.00      -32530.00      -32462.00
