     0.02500000      -12345.00      -12345.00   3.262830e+10      -12345.00
   0.0005380000       659.9755      -556.0195      -12345.00      -12345.00
      -12345.00      -12345.00      -12345.00      -12345.00      -12345.00
      -12345.00      -12345.00      -12345.00      -12345.00      -12345.00
      -12345.00      -12345.00      -12345.00      -12345.00      -12345.00
      -12345.00      -12345.00      -12345.00      -12345.00      -12345.00
      -12345.00       71.63410       128.8667       40.00000       0.000000
       9.831100       126.5297      -12345.00       24.71000      -12345.00
      -12345.00      -12345.00      -12345.00      -12345.00      -12345.00
      -12345.00      -12345.00      -12345.00      -12345.00      -12345.00
       6868.101      0.8406327       182.6143       61.76905      -12345.00
      -12345.00      -12345.00       0.000000       90.00000      -12345.00
      -12345.00      -12345.00      -12345.00      -12345.00      -12345.00
      -12345.00      -12345.00      -12345.00      -12345.00      -12345.00
      2019        39        12         4        24
        19         6    -12345    -12345     26400
    -12345    -12345    -12345    -12345    -12345
         1    -12345    -12345    -12345    -12345
    -12345    -12345    -12345    -12345    -12345
    -12345    -12345    -12345    -12345    -12345
    -12345    -12345    -12345    -12345    -12345
         1    -12345    -12345    -12345    -12345
TIXI    Mindanao, Philip
10      -12345  -12345  
-12345  -12345  -12345  
-12345  -12345  -12345  
-12345  -12345  -12345  
-12345  -12345  -12345  
-12345  -12345  BH1     
IU      -12345  Streckei
[...]
      -807.0000       4892.000       8055.000      -382.0000       5994.000
       9243.000      -3038.000       7780.000       9387.000      -197.0000
       5820.000       7478.000       1534.000       814.0000       7174.000
       8733.000       933.0000       9423.000       4448.000      -1660.000
       11861.00       6282.000      -841.0000       10041.00       10490.00
      -1265.000       4224.000       12822.00       4340.000       1559.000
       12244.00       2119.000       1970.000       15103.00       3829.000
      -1048.000       13875.00       10046.00      -1976.000       7128.000
       14541.00       2379.000       4913.000       12782.00      -1522.000
       7160.000       16288.00       2307.000       2377.000       14209.00
       8087.000      -1693.000       8216.000       14651.00       660.0000
       8092.000       13779.00      -230.0000       11827.00       12055.00
      -852.0000       7361.000       13925.00       4272.000       2793.000
       14638.00       11453.00       617.0000       13838.00       8441.000
      -3091.000       12860.00       10394.00       1434.000       11216.00
       14268.00       2985.000       2212.000       13092.00       8203.000
       774.0000       12645.00       4954.000       1151.000       14914.00
       6887.000       408.0000       11981.00       8702.000      -1347.000
       6198.000       12552.00       1452.000       4143.000       12880.00
      -2031.000       4036.000       12321.00       250.0000       2138.000
       11588.00       4046.000      -3890.000       5900.000       10379.00
      -792.0000       5261.000       6358.000      -4509.000       8174.000
       8585.000      -4112.000       2071.000       9757.000      -60.00000
      -3049.000       8596.000       4598.000      -5190.000       8442.000
       2552.000      -5486.000       8484.000       3568.000      -4525.000
       3524.000       7752.000      -4388.000      -3079.000       8746.000
      -1288.000      -4721.000       8154.000      -3565.000      -4450.000
       11150.00      -590.0000      -8181.000       6905.000       2387.000
      -9528.000      -542.0000       7166.000      -3344.000      -933.0000
       7864.000      -8734.000      -2080.000       7024.000      -6569.000
      -2768.000       4939.000      -391.0000      -3876.000      -1343.000
       4639.000      -4495.000      -1384.000       5091.000      -7854.000
       2810.000       6397.000      -6855.000      -1715.000       6541.000
      -2990.000      -6755.000       5323.000       3356.000      -5627.000
       7778.000       1294.000      -9290.000       6923.000       2305.000
      -7761.000       4515.000       8120.000      -5692.000      -2103.000
       10415.00      -1718.000      -5205.000       11621.00      -3674.000
      -5651.000       12791.00       1660.000      -4868.000       7539.000
       4417.000      -4954.000       3101.000       9069.000      -1179.000
       1605.000       9897.000      -4884.000       2669.000       13519.00
      -1237.000      -134.0000       10762.00       3052.000      -623.0000
       7185.000       7926.000       3.000000       6140.000       8661.000
      -1353.000       9341.000       10232.00      -1683.000       4424.000
       11832.00       3739.000       2428.000       10668.00       8306.000
       1506.000       10994.00       4905.000      -3623.000       13369.00
       11828.00      -621.0000       9855.000       14086.00       84.00000
       3261.000       11842.00       4845.000       2711.000       14225.00
       4927.000       3868.000       16849.00       7111.000       1906.000
       9958.000       8348.000       1445.000       6687.000       14550.00
       5710.000       6710.000       15776.00       1570.000       5139.000
       14101.00       4255.000       4412.000       15233.00       10841.00
       487.0000       9020.000       15030.00       4144.000       8169.000
       10477.00       1037.000       10712.00       13260.00       4873.000
       6529.000       13092.00       7491.000       1689.000       11130.00
       12522.00       2466.000       13382.00       10220.00      -1340.000
       12833.00       9303.000      -270.0000       10208.00       13200.00
       3685.000       4689.000       12170.00       7048.000       2023.000
       12857.00       3648.000       2190.000       14061.00       5193.000
       3461.000       10348.00       9195.000       1297.000       4364.000
       13020.00       2254.000       3590.000       13407.00      -470.0000
       4253.000       14009.00       3021.000      -499.0000       11820.00
       7629.000      -4477.000       7045.000       12481.00      -228.0000
       5777.000       8499.000      -2907.000       6733.000       8825.000
      -940.0000       4177.000       10887.00       1568.000      -1981.000
       8746.000       7629.000      -3981.000       8595.000       5659.000
      -7391.000       9591.000       6467.000      -2892.000       6423.000
       7186.000      -999.0000      -2898.000       6754.000       2623.000
      -5275.000       9887.000      -871.0000      -3537.000       12329.00
       378.0000      -6064.000       5387.000       3989.000      -7986.000
      -560.0000       8341.000      -1350.000      -149.0000       6830.000
      -5810.000      -1388.000       7896.000      -3181.000      -6823.000
       6212.000       3469.000      -6695.000       4073.000       7042.000
      -6753.000       423.0000       4630.000      -9152.000       2286.000
       5855.000      -3981.000       248.0000       3350.000      -913.0000
      -5181.000       677.0000       5813.000      -1842.000       4883.000
       1974.000      -8266.000       4297.000       4178.000      -4451.000
       3381.000       7308.000      -2547.000      -1645.000       6289.000
       3373.000      -1487.000       6011.000       919.0000      -2057.000
       7247.000       2780.000      -1490.000       6119.000       8325.000
      -986.0000      -1402.000       10910.00       3112.000      -2381.000
       12183.00       790.0000       1994.000       13755.00       1778.000
      -1195.000       9566.000       8514.000      -583.0000       4246.000
       13531.00       3770.000       4966.000       11517.00       654.0000
       7399.000       11549.00       2265.000       5297.000       14853.00
       8357.000       522.0000       8310.000       10233.00       2006.000
       11895.00       10349.00       1051.000       13151.00       8640.000
       967.0000       10049.00       13211.00       4964.000       1954.000
       13714.00       11670.00      -1083.000       14078.00       7534.000
      -885.0000       18429.00       9906.000      -1318.000       11741.00
       11848.00       314.0000       5327.000       15660.00       5304.000
       3308.000       16349.00       1215.000       3149.000       15082.00
       4682.000       1273.000       10134.00       9877.000      -211.0000
       5816.000       14492.00       1398.000       5347.000       13453.00
      -3956.000       6404.000       14089.00      -1828.000       3883.000
       14355.00       3024.000      -829.0000       11277.00       9247.000
      -1764.000       9065.000       7042.000      -3399.000       10169.00
       8965.000      -1643.000       3613.000       11752.00       2548.000
      -2041.000       10841.00       5061.000      -2694.000       11976.00
       2253.000      -1199.000       10900.00       3611.000      -1612.000
       4748.000       9462.000      -948.0000      -1019.000       11913.00
       3038.000      -2667.000       10648.00      -2502.000      -3008.000
       11608.00       458.0000      -2354.000       9000.000       6038.000
      -4637.000       1013.000       11367.00      -2460.000      -263.0000
       10450.00      -6950.000       2793.000       10712.00      -4371.000
       50.00000       9892.000       1836.000      -6851.000       3453.000
       8689.000      -5566.000       4296.000       6578.000      -8380.000
       7254.000       6909.000      -5229.000       2707.000       5168.000
      -2288.000      -2133.000       6233.000       3902.000      -4252.000
       6274.000       2605.000      -4646.000       6617.000       3981.000
      -4699.000       3764.000       6737.000      -2760.000      -781.0000
       6949.000       3299.000      -3367.000       7754.000       324.0000
      -4352.000       11304.00       403.0000      -5043.000       10674.00
       4914.000      -4320.000       3721.000       7925.000      -1051.000
       3112.000       7186.000      -4339.000       4705.000       7970.000
       15.00000       1355.000       7680.000       4036.000      -3758.000
       5061.000       8206.000      -1356.000       7550.000       6432.000
      -4862.000       8424.000       8163.000      -3306.000       6020.000
       10101.00      -1253.000       1161.000       9401.000       6314.000
      -1151.000       8770.000       4224.000      -3829.000       10931.00
       6871.000      -1184.000       7668.000       10398.00       287.0000
      -368.0000       11452.00       4519.000      -1108.000       12904.00
       1993.000       507.0000       11731.00       3503.000       456.0000
       8943.000       8566.000      -2517.000       3862.000       13797.00
       396.0000       4105.000       13785.00      -3248.000       3417.000
       13402.00      -548.0000       1318.000       13688.00       5542.000
      -1725.000       7606.000       10464.00      -1078.000       7452.000
       8796.000      -3895.000       8989.000       8417.000       83.00000
       7225.000       11433.00       2948.000      -1979.000       8223.000
       8159.000      -1848.000       11747.00       7502.000      -3280.000
       12454.00       8610.000      -2880.000       7085.000       12758.00
       779.0000       1880.000       16206.00       7498.000       265.0000
       17695.00       5881.000       2168.000       19393.00       8863.000
       5523.000       19163.00       15649.00       8208.000       13705.00
       20599.00       15084.00       16028.00       24844.00       14385.00
       20635.00       28963.00       18806.00       20204.00       29545.00
       26065.00       19927.00       27200.00       32038.00       22435.00
       26859.00       29892.00       20661.00       29377.00       31004.00
       21916.00       24236.00       30233.00       21098.00       18719.00
       27579.00       23795.00       16859.00       23255.00       16660.00
       8831.000       20307.00       15312.00       2885.000       9969.000
       12895.00      -331.0000      -2745.000       3681.000      -5071.000
      -15228.00      -6654.000      -17056.00      -24332.00      -13576.00
      -24601.00      -36807.00      -26772.00      -28974.00      -45396.00
      -40044.00      -32521.00      -46796.00      -46704.00      -36403.00
      -51253.00      -46354.00      -36603.00      -48242.00      -47685.00
      -36514.00      -39500.00      -47951.00      -39965.00      -31384.00
      -41632.00      -36810.00      -30325.00      -40658.00      -28513.00
      -24428.00      -33716.00      -26217.00      -17633.00      -24754.00
      -23809.00      -8464.000      -6890.000      -11975.00       2696.000
       1736.000      -2546.000       17702.00       19718.00       15985.00
       29680.00       38376.00       32644.00       35497.00       49635.00
       48407.00       45265.00       58438.00       51805.00       52077.00
       65026.00       58138.00       53877.00       61481.00       60479.00
       51265.00       54540.00       60924.00       50997.00       49378.00
       56543.00       40876.00       43273.00       48961.00       33880.00
       32199.00       36602.00       27089.00       18004.00       20389.00
       18632.00       1550.000       1824.000       4010.000      -20903.00
      -17939.00      -15398.00      -41899.00      -45021.00      -38299.00
      -59037.00      -70838.00      -65463.00      -75972.00      -92405.00
      -88757.00      -96987.00      -113845.0      -105649.0      -107884.0
      -123592.0      -121072.0      -117414.0      -130268.0      -132555.0
      -124339.0      -127993.0      -131039.0      -118631.0      -121498.0
      -116738.0      -99758.00      -101758.0      -99090.00      -83579.00
      -76719.00      -77597.00      -64750.00      -48378.00      -47378.00
      -37870.00      -18411.00      -21876.00      -8667.000       10738.00
       8151.000       18337.00       37182.00       40567.00       45595.00
       63734.00       77593.00       79069.00       92334.00       106370.0
       103473.0       122744.0       134372.0       126770.0       138092.0
       152509.0       147507.0       143400.0       152358.0       153668.0
       143021.0       150716.0       148287.0       136410.0       147017.0
       142132.0       129157.0       131468.0       132954.0       118550.0
       110902.0       118407.0       112866.0       102753.0       109856.0
       100145.0       93196.00       104026.0       94911.00       83078.00
       89460.00       85868.00       67697.00       66259.00       67985.00
       49917.00       38050.00       43015.00       24734.00       18815.00
       24808.00       4614.000      -7000.000      -4558.000      -16202.00
      -31929.00      -30886.00      -30435.00      -45738.00      -45086.00
      -40951.00      -59107.00      -53290.00      -48294.00      -66034.00
      -67198.00      -62003.00      -78039.00      -88172.00      -84475.00
      -89097.00      -101162.0      -97350.00      -96075.00      -105800.0
      -91445.00      -87601.00      -96633.00      -82786.00      -71624.00
      -77120.00      -73142.00      -62048.00      -58898.00      -59175.00
      -44568.00      -44310.00      -41042.00      -17936.00      -16800.00
      -14131.00       2009.000       10470.00       7190.000       9967.000
       22609.00       18403.00       16649.00       31211.00       22362.00
       27805.00       44455.00       33537.00       32187.00       44212.00
       38659.00       29566.00       36561.00       44301.00       34478.00
       32168.00       37010.00       19859.00       24036.00       31277.00
       18258.00       18098.00       24139.00       15161.00       3357.000
       5810.000       5548.000      -10861.00      -10099.00      -8476.000
      -20791.00      -8867.000      -5941.000      -15368.00      -8543.000
      -2726.000      -6372.000      -7424.000       985.0000       5475.000
      -1904.000       7099.000       2074.000      -7868.000       8883.000
       8508.000       1923.000       14915.00       22983.00       11556.00
       14007.00       25436.00       12577.00       7047.000       16781.00
      -703.0000      -2033.000       10660.00      -2164.000      -6022.000
       3048.000       2533.000      -5685.000      -1982.000       10769.00
       660.0000      -1719.000       7943.000      -8107.000      -2467.000
       8369.000      -831.0000       4139.000       15250.00       8571.000
       1111.000       6653.000       9112.000      -144.0000       5069.000
       10230.00       579.0000       14791.00       22574.00       12261.00
       19869.00       29593.00       20793.00       19107.00       32466.00
       32537.00       21050.00       31785.00       27232.00       12217.00
       22531.00       18627.00       8343.000       14026.00       12954.00
       701.0000      -4579.000       849.0000      -2181.000      -9112.000
       4264.000      -3412.000      -10758.00       4632.000      -1850.000
      -6753.000       6251.000       7585.000       4875.000       12144.00
       23706.00       17546.00       12543.00       23600.00       8124.000
       3550.000       8043.000      -6891.000      -8763.000      -5015.000
      -12902.00      -20753.00      -21394.00      -16010.00      -24759.00
      -24674.00      -19500.00      -36049.00      -30168.00      -22510.00
      -34231.00      -32125.00      -25270.00      -31939.00      -34485.00
      -27849.00      -26913.00      -36755.00      -31940.00      -40624.00
      -58396.00      -52462.00      -63246.00      -80362.00      -78247.00
      -77626.00      -91328.00      -92453.00      -81694.00      -87944.00
      -88855.00      -70234.00      -73871.00      -72006.00      -53950.00
      -59703.00      -63229.00      -47863.00      -46123.00      -50386.00
      -36659.00      -22844.00      -23305.00      -15362.00      -1316.000
      -7762.000       1302.000       16586.00       11210.00       12672.00
       29566.00       32137.00       27380.00       37127.00       43446.00
       34854.00       38977.00       44993.00       34303.00       45091.00
       49635.00       35304.00       40534.00       46245.00       34528.00
       33731.00       44531.00       44721.00       39922.00       54220.00
       54232.00       50550.00       70071.00       67541.00       61302.00
       74534.00       78622.00       71091.00       74161.00       85443.00
       81600.00       77944.00       95027.00       89170.00       87450.00
       101099.0       90417.00       84819.00       92079.00       90845.00
       83098.00       85541.00       94197.00       84903.00       85672.00
       95757.00       83277.00       85634.00       91364.00       81907.00
       74477.00       79476.00       76233.00       60655.00       62937.00
       64529.00       44364.00       41238.00       41568.00       22015.00
       25024.00       22035.00       2959.000       2908.000       2139.000
      -14198.00      -22454.00      -19799.00      -24760.00      -38037.00
      -33261.00      -39056.00      -50378.00      -36984.00      -43146.00
      -56161.00      -48474.00      -48253.00      -60333.00      -58967.00
      -52776.00      -60454.00      -63664.00      -54595.00      -58712.00
      -49508.00      -31704.00      -32213.00      -27272.00      -12518.00
      -9052.000      -11454.00      -172.0000       9696.000       5752.000
       12191.00       22972.00       12780.00       21935.00       36362.00
       26752.00       27841.00       39670.00       36087.00       32034.00
       41266.00       43745.00       31330.00       38889.00       40515.00
