     0.05000000      -12345.00      -12345.00   3.492210e+09      -12345.00
   0.0005380000       659.9506      -161.0195      -12345.00      -12345.00
      -12345.00      -12345.00      -12345.00      -12345.00      -12345.00
      -12345.00      -12345.00      -12345.00      -12345.00      -12345.00
      -12345.00      -12345.00      -12345.00      -12345.00      -12345.00
      -12345.00      -12345.00      -12345.00      -12345.00      -12345.00
      -12345.00       24.97350       121.4971       77.10000       82.90000
       9.831100       126.5297      -12345.00       24.71000      -12345.00
      -12345.00      -12345.00      -12345.00      -12345.00      -12345.00
      -12345.00      -12345.00      -12345.00      -12345.00      -12345.00
       1757.075       343.0008       161.4906       15.80245      -12345.00
      -12345.00      -12345.00       332.0000       90.00000      -12345.00
      -12345.00      -12345.00      -12345.00      -12345.00      -12345.00
      -12345.00      -12345.00      -12345.00      -12345.00      -12345.00
      2019        39        11        57        49
        19         6    -12345    -12345     13200
    -12345    -12345    -12345    -12345    -12345
         1    -12345    -12345    -12345    -12345
    -12345    -12345    -12345    -12345    -12345
    -12345    -12345    -12345    -12345    -12345
    -12345    -12345    -12345    -12345    -12345
         1    -12345    -12345    -12345    -12345
TATO    Mindanao, Philip
00      -12345  -12345  
-12345  -12345  -12345  
-12345  -12345  -12345  
-12345  -12345  -12345  
-12345  -12345  -12345  
-12345  -12345  BH1     
IU      -12345  Geotech 
[...]
      -267771.0      -267225.0      -266412.0      -265456.0      -264368.0
      -263215.0      -261982.0      -260515.0      -258879.0      -257219.0
      -255566.0      -253960.0      -252369.0      -250685.0      -249166.0
      -248087.0      -247086.0      -246039.0      -245143.0      -244559.0
      -244506.0      -244702.0      -245005.0      -245436.0      -245906.0
      -246532.0      -247461.0      -248756.0      -250005.0      -251249.0
      -252594.0      -253949.0      -255435.0      -256712.0      -257735.0
      -258460.0      -258886.0      -259165.0      -259335.0      -259445.0
      -259325.0      -259031.0      -258607.0      -257972.0      -257156.0
      -256223.0      -255299.0      -254247.0      -253173.0      -252335.0
      -251428.0      -250486.0      -249670.0      -248894.0      -248284.0
      -247857.0      -247551.0      -247442.0      -247702.0      -248202.0
      -248774.0      -249587.0      -250487.0      -251402.0      -252494.0
      -253664.0      -255013.0      -256301.0      -257439.0      -258596.0
      -259667.0      -260709.0      -261551.0      -262271.0      -262879.0
      -263158.0      -263226.0      -263271.0      -263341.0      -263234.0
      -263000.0      -262731.0      -262269.0      -261750.0      -261364.0
      -261239.0      -261392.0      -261402.0      -261249.0      -261242.0
      -261466.0      -261646.0      -261531.0      -261388.0      -261283.0
      -261231.0      -261136.0      -260938.0      -260584.0      -259911.0
      -259145.0      -258380.0      -257802.0      -257403.0      -256806.0
      -255971.0      -255167.0      -254433.0      -253757.0      -253240.0
      -252836.0      -252669.0      -252529.0      -252318.0      -252125.0
      -251829.0      -251607.0      -251655.0      -251873.0      -251673.0
      -251249.0      -251023.0      -250877.0      -250843.0      -250873.0
      -251022.0      -251089.0      -251172.0      -251437.0      -251697.0
      -252105.0      -252740.0      -253333.0      -253835.0      -254353.0
      -254782.0      -255237.0      -255855.0      -256440.0      -256786.0
      -257066.0      -257340.0      -257566.0      -257904.0      -258013.0
      -257836.0      -257664.0      -257340.0      -256983.0      -256787.0
      -256526.0      -256019.0      -255325.0      -254606.0      -253875.0
      -253029.0      -252124.0      -251057.0      -249985.0      -249186.0
      -248217.0      -247306.0      -246786.0      -246370.0      -246267.0
      -246492.0      -246894.0      -247599.0      -248609.0      -249711.0
      -250738.0      -251887.0      -253288.0      -254784.0      -256336.0
      -257842.0      -259281.0      -260614.0      -261632.0      -262505.0
      -263271.0      -263856.0      -264256.0      -264372.0      -264272.0
      -263939.0      -263360.0      -262750.0      -262128.0      -261341.0
      -260560.0      -259787.0      -258948.0      -258135.0      -257310.0
      -256713.0      -256462.0      -256354.0      -256347.0      -256469.0
      -256804.0      -257498.0      -258461.0      -259607.0      -261071.0
      -262722.0      -264394.0      -266058.0      -267594.0      -268979.0
      -270288.0      -271474.0      -272386.0      -272978.0      -273333.0
      -273394.0      -273009.0      -272204.0      -270995.0      -269440.0
      -267545.0      -265086.0      -262047.0      -258609.0      -254992.0
      -251471.0      -248095.0      -244742.0      -241559.0      -238473.0
      -235410.0      -232722.0      -230372.0      -228274.0      -226468.0
      -224906.0      -223713.0      -222816.0      -222206.0      -222227.0
      -222617.0      -223101.0      -223995.0      -225189.0      -226384.0
      -227522.0      -229034.0      -230974.0      -232744.0      -234295.0
      -235841.0      -237526.0      -239147.0      -240493.0      -242022.0
      -243977.0      -245892.0      -247825.0      -250141.0      -252499.0
      -255031.0      -257787.0      -260295.0      -262594.0      -264809.0
      -267071.0      -269351.0      -271498.0      -273561.0      -275745.0
      -277988.0      -279946.0      -281635.0      -283316.0      -284957.0
      -286318.0      -287307.0      -287703.0      -287463.0      -286681.0
      -285547.0      -284497.0      -283512.0      -282307.0      -280762.0
      -278987.0      -276935.0      -274614.0      -272336.0      -269979.0
      -267153.0      -264153.0      -261311.0      -258479.0      -255766.0
      -253312.0      -251164.0      -249367.0      -248000.0      -247009.0
      -246300.0      -245879.0      -245557.0      -245248.0      -245185.0
      -245629.0      -246371.0      -247181.0      -247893.0      -248574.0
      -249640.0      -250998.0      -252611.0      -254353.0      -255752.0
      -256627.0      -257008.0      -257062.0      -256900.0      -256668.0
      -256553.0      -256685.0      -257248.0      -257999.0      -258532.0
      -258699.0      -258584.0      -258566.0      -258826.0      -258997.0
      -258464.0      -257032.0      -255146.0      -253353.0      -251769.0
      -250334.0      -249232.0      -248613.0      -248309.0      -248092.0
      -247609.0      -246539.0      -245145.0      -243403.0      -240948.0
      -237821.0      -234510.0      -231910.0      -230591.0      -230358.0
      -230553.0      -230709.0      -230622.0      -230395.0      -230505.0
      -231234.0      -232267.0      -233085.0      -233818.0      -234533.0
      -234990.0      -235242.0      -235481.0      -236029.0      -236925.0
      -238149.0      -239749.0      -241375.0      -242677.0      -243552.0
      -243875.0      -243730.0      -243374.0      -242763.0      -241795.0
      -240512.0      -239376.0      -239186.0      -240373.0      -242515.0
      -244889.0      -247189.0      -249325.0      -251525.0      -254079.0
      -256789.0      -259322.0      -261858.0      -264997.0      -268418.0
      -271486.0      -275012.0      -279109.0      -282862.0      -286044.0
      -288357.0      -289628.0      -290266.0      -290770.0      -291430.0
      -292350.0      -293542.0      -294859.0      -296007.0      -296734.0
      -297100.0      -297386.0      -297278.0      -296237.0      -294698.0
      -293184.0      -291604.0      -289874.0      -287929.0      -285875.0
      -283859.0      -281695.0      -279218.0      -276564.0      -273817.0
      -270904.0      -268018.0      -265196.0      -262299.0      -259467.0
      -257102.0      -255518.0      -254577.0      -254238.0      -254288.0
      -254318.0      -254436.0      -254866.0      -255543.0      -256295.0
      -256766.0      -256468.0      -255527.0      -254443.0      -253547.0
      -253000.0      -252746.0      -252661.0      -252586.0      -252535.0
      -252570.0      -252461.0      -251831.0      -250502.0      -248847.0
      -247472.0      -246448.0      -245582.0      -244918.0      -244392.0
      -243737.0      -242888.0      -242224.0      -241928.0      -242041.0
      -242890.0      -244461.0      -246440.0      -248488.0      -250545.0
      -252897.0      -255719.0      -259025.0      -262644.0      -266404.0
      -270268.0      -274114.0      -277487.0      -280123.0      -282637.0
      -285501.0      -288469.0      -291122.0      -292961.0      -294035.0
      -294976.0      -295800.0      -295898.0      -294948.0      -293093.0
      -290791.0      -288391.0      -285900.0      -283242.0      -280208.0
      -276696.0      -272707.0      -268326.0      -264261.0      -261278.0
      -259003.0      -256781.0      -254728.0      -253083.0      -252037.0
      -251496.0      -251093.0      -250735.0      -251023.0      -252292.0
      -254297.0      -257175.0      -260521.0      -263722.0      -266690.0
      -269388.0      -271650.0      -273392.0      -274616.0      -274957.0
      -274171.0      -272417.0      -269924.0      -266928.0      -263582.0
      -259802.0      -255711.0      -251855.0      -248615.0      -245885.0
      -243345.0      -240695.0      -237800.0      -234964.0      -232459.0
      -230339.0      -228373.0      -226368.0      -224489.0      -223007.0
      -222158.0      -221726.0      -221466.0      -221227.0      -221410.0
      -222353.0      -223559.0      -225247.0      -227642.0      -230244.0
      -232486.0      -234014.0      -235114.0      -236138.0      -237352.0
      -238762.0      -240058.0      -241507.0      -243532.0      -246364.0
      -249959.0      -253665.0      -256883.0      -259370.0      -260896.0
      -261397.0      -260979.0      -259819.0      -258102.0      -256199.0
      -254800.0      -254063.0      -254080.0      -254875.0      -255973.0
      -257347.0      -259149.0      -261275.0      -263513.0      -266041.0
      -268972.0      -271975.0      -274831.0      -277496.0      -279881.0
      -281796.0      -283419.0      -284729.0      -285442.0      -285512.0
      -284910.0      -283686.0      -281995.0      -279893.0      -277582.0
      -275185.0      -272536.0      -269572.0      -266323.0      -263369.0
      -261044.0      -259136.0      -257817.0      -257161.0      -257143.0
      -257679.0      -258605.0      -259766.0      -260881.0      -261569.0
      -261642.0      -261219.0      -260268.0      -258911.0      -257266.0
      -255496.0      -253963.0      -252779.0      -251760.0      -250796.0
      -250036.0      -249191.0      -248029.0      -246700.0      -245172.0
      -243500.0      -242056.0      -241077.0      -240658.0      -240907.0
      -241320.0      -241673.0      -242340.0      -243158.0      -243752.0
      -244133.0      -244512.0      -244949.0      -245418.0      -245876.0
      -246332.0      -246679.0      -246822.0      -247036.0      -247579.0
      -248749.0      -250684.0      -253065.0      -255763.0      -258842.0
      -261980.0      -264968.0      -267987.0      -270798.0      -273242.0
      -275464.0      -277285.0      -279025.0      -281095.0      -283194.0
      -284913.0      -285397.0      -284009.0      -280903.0      -276242.0
      -270450.0      -264170.0      -257954.0      -251945.0      -246260.0
      -241096.0      -236326.0      -231994.0      -228388.0      -225585.0
      -222921.0      -220018.0      -217278.0      -215306.0      -214528.0
      -214353.0      -214325.0      -214657.0      -215479.0      -216982.0
      -219443.0      -222583.0      -225679.0      -228706.0      -231554.0
      -233750.0      -234976.0      -235432.0      -235505.0      -235369.0
      -235421.0      -235737.0      -236750.0      -238831.0      -241981.0
      -246258.0      -250902.0      -255383.0      -259465.0      -262575.0
      -264569.0      -265898.0      -267279.0      -269127.0      -271669.0
      -274970.0      -278809.0      -283073.0      -287474.0      -291323.0
      -293971.0      -295217.0      -294997.0      -293398.0      -291094.0
      -288657.0      -286157.0      -283545.0      -280974.0      -278799.0
      -277134.0      -275646.0      -274252.0      -273266.0      -272588.0
      -271949.0      -270987.0      -269403.0      -267601.0      -265815.0
      -263889.0      -261759.0      -259332.0      -256936.0      -254967.0
      -253308.0      -251662.0      -249961.0      -248267.0      -246280.0
      -243895.0      -241126.0      -237935.0      -234654.0      -231569.0
      -229006.0      -227212.0      -226360.0      -226752.0      -228380.0
      -230813.0      -233632.0      -236560.0      -239674.0      -243159.0
      -246620.0      -250166.0      -254227.0      -258861.0      -264003.0
      -269348.0      -274519.0      -279280.0      -283698.0      -287591.0
      -290854.0      -293511.0      -295559.0      -297039.0      -297678.0
      -297331.0      -296129.0      -294068.0      -290993.0      -287390.0
      -283565.0      -279188.0      -274333.0      -269077.0      -263444.0
      -257827.0      -252734.0      -248420.0      -245044.0      -242678.0
      -241100.0      -239843.0      -238097.0      -235623.0      -233045.0
      -230483.0      -227745.0      -225343.0      -223623.0      -222065.0
      -220477.0      -219133.0      -218195.0      -217821.0      -217644.0
      -217283.0      -217042.0      -217234.0      -217995.0      -219315.0
      -221077.0      -223322.0      -226179.0      -229487.0      -232860.0
      -236377.0      -240125.0      -243492.0      -245960.0      -247807.0
      -249178.0      -249671.0      -249383.0      -248738.0      -248164.0
      -248184.0      -248738.0      -249801.0      -252009.0      -255024.0
      -257863.0      -260487.0      -263005.0      -265333.0      -267454.0
      -269469.0      -271967.0      -275475.0      -279897.0      -284861.0
      -290179.0      -295535.0      -300174.0      -303574.0      -305878.0
      -306943.0      -306190.0      -303663.0      -299809.0      -294835.0
      -289129.0      -283088.0      -276860.0      -270816.0      -265155.0
      -259999.0      -255808.0      -252752.0      -250667.0      -249510.0
      -249141.0      -249389.0      -250232.0      -251829.0      -254213.0
      -256893.0      -259346.0      -261408.0      -263167.0      -264798.0
      -266563.0      -268413.0      -270018.0      -271100.0      -271532.0
      -271509.0      -271242.0      -270604.0      -269349.0      -267629.0
      -265577.0      -263213.0      -260591.0      -258005.0      -255919.0
      -254433.0      -253555.0      -252970.0      -252505.0      -252501.0
      -253036.0      -253761.0      -254594.0      -255566.0      -256597.0
      -257750.0      -258927.0      -260119.0      -260915.0      -261005.0
      -260693.0      -260106.0      -259236.0      -258060.0      -256729.0
      -255140.0      -253010.0      -250354.0      -247112.0      -243167.0
      -238566.0      -233624.0      -229049.0      -225177.0      -222046.0
      -220335.0      -220193.0      -220862.0      -221809.0      -223155.0
      -225034.0      -226993.0      -228608.0      -229771.0      -230848.0
      -231859.0      -232507.0      -233064.0      -233677.0      -234567.0
      -235948.0      -237809.0      -240019.0      -242144.0      -243828.0
      -244691.0      -244535.0      -243747.0      -242881.0      -242231.0
      -242021.0      -242245.0      -242794.0      -243661.0      -244698.0
      -246060.0      -247763.0      -249374.0      -250701.0      -252014.0
      -253504.0      -254934.0      -256279.0      -257847.0      -259663.0
      -261514.0      -263440.0      -265195.0      -266588.0      -267924.0
      -269030.0      -269582.0      -269664.0      -269297.0      -268532.0
      -267379.0      -265979.0      -264816.0      -263889.0      -262896.0
      -261944.0      -261392.0      -261427.0      -261656.0      -261580.0
      -261217.0      -260542.0      -259561.0      -258498.0      -257656.0
      -257299.0      -257371.0      -257814.0      -258451.0      -259021.0
      -259434.0      -259711.0      -259833.0      -259740.0      -259333.0
      -258568.0      -257534.0      -256240.0      -255035.0      -254211.0
      -253793.0      -253950.0      -254553.0      -255300.0      -255894.0
      -256323.0      -256769.0      -257225.0      -257578.0      -257558.0
      -257400.0      -257707.0      -258560.0      -259869.0      -261647.0
      -263715.0      -265842.0      -267902.0      -269526.0      -270615.0
      -271176.0      -270750.0      -269453.0      -267853.0      -266240.0
      -264731.0      -263437.0      -262373.0      -261357.0      -260275.0
      -259100.0      -257903.0      -257004.0      -256436.0      -255834.0
      -255335.0      -255038.0      -254664.0      -254205.0      -253752.0
      -253360.0      -253004.0      -252363.0      -251400.0      -250486.0
      -249576.0      -248663.0      -247825.0      -246959.0      -246171.0
      -245762.0      -245651.0      -245350.0      -244970.0      -244644.0
      -244310.0      -244123.0      -244299.0      -244862.0      -245472.0
      -246215.0      -247077.0      -247881.0      -248713.0      -249556.0
      -250286.0      -250589.0      -250672.0      -250951.0      -251308.0
      -251638.0      -251944.0      -252437.0      -253385.0      -254616.0
      -255859.0      -257091.0      -258277.0      -259241.0      -260054.0
      -260929.0      -261974.0      -263188.0      -264530.0      -265891.0
      -266846.0      -267363.0      -267723.0      -267917.0      -267797.0
      -267240.0      -266206.0      -264867.0      -263297.0      -261593.0
      -260213.0      -259117.0      -258420.0      -258204.0      -258279.0
      -258653.0      -258977.0      -259272.0      -259501.0      -259619.0
      -259798.0      -260045.0      -260319.0      -260632.0      -261340.0
      -262347.0      -263363.0      -264260.0      -264868.0      -265381.0
      -266008.0      -266626.0      -267087.0      -267334.0      -267438.0
      -267253.0      -266532.0      -265451.0      -264440.0      -263846.0
      -263466.0      -263074.0      -262523.0      -261837.0      -261557.0
      -261741.0      -262099.0      -262438.0      -262769.0      -263184.0
      -263453.0      -263521.0      -263578.0      -263651.0      -263761.0
      -263805.0      -263461.0      -262755.0      -261730.0      -260413.0
      -259189.0      -258229.0      -257476.0      -256698.0      -255579.0
      -254208.0      -252786.0      -251478.0      -250402.0      -249401.0
      -248515.0      -247981.0      -247800.0      -247809.0      -247907.0
      -248116.0      -248324.0      -248425.0      -248677.0      -249184.0
      -249772.0      -250504.0      -251551.0      -252797.0      -253911.0
      -254956.0      -256058.0      -256940.0      -257498.0      -257809.0
      -257849.0      -257514.0      -256759.0      -255998.0      -255480.0
      -255069.0      -254811.0      -254715.0      -254813.0      -255058.0
      -255221.0      -255121.0      -254615.0      -253746.0      -252783.0
      -252017.0      -251531.0      -251399.0      -251879.0      -252953.0
      -254351.0      -255839.0      -257263.0      -258539.0      -259439.0
      -260001.0      -260419.0      -260669.0      -260569.0      -259882.0
      -258734.0      -257312.0      -255662.0      -254025.0      -252802.0
      -252195.0      -252175.0      -252818.0      -254007.0      -255492.0
