     0.05000000      -12345.00      -12345.00   3.281620e+09      -12345.00
   0.0005390000       659.9506      -811.0195      -12345.00      -12345.00
      -12345.00      -12345.00      -12345.00      -12345.00      -12345.00
      -12345.00      -12345.00      -12345.00      -12345.00      -12345.00
      -12345.00      -12345.00      -12345.00      -12345.00      -12345.00
      -12345.00      -12345.00      -12345.00      -12345.00      -12345.00
      -12345.00      -19.20220       17.58380       1260.000       0.000000
       9.831100       126.5297      -12345.00       24.71000      -12345.00
      -12345.00      -12345.00      -12345.00      -12345.00      -12345.00
      -12345.00      -12345.00      -12345.00      -12345.00      -12345.00
       12338.53       253.1835       86.58014       110.9680      -12345.00
      -12345.00      -12345.00       0.000000       90.00000      -12345.00
      -12345.00      -12345.00      -12345.00      -12345.00      -12345.00
      -12345.00      -12345.00      -12345.00      -12345.00      -12345.00
      2019        39        12         8        39
        19         6    -12345    -12345     13200
    -12345    -12345    -12345    -12345    -12345
         1    -12345    -12345    -12345    -12345
    -12345    -12345    -12345    -12345    -12345
    -12345    -12345    -12345    -12345    -12345
    -12345    -12345    -12345    -12345    -12345
         1    -12345    -12345    -12345    -12345
TSUM    Mindanao, Philip
00      -12345  -12345  
-12345  -12345  -12345  
-12345  -12345  -12345  
-12345  -12345  -12345  
-12345  -12345  -12345  
-12345  -12345  BH1     
IU      -12345  Streckei
[...]
       2665.000       2669.000       2635.000       2625.000       2631.000
       2600.000       2585.000       2576.000       2564.000       2533.000
       2503.000       2484.000       2467.000       2441.000       2422.000
       2387.000       2345.000       2349.000       2304.000       2238.000
       2213.000       2198.000       2181.000       2116.000       2068.000
       2041.000       2016.000       1979.000       1908.000       1853.000
       1826.000       1821.000       1781.000       1760.000       1740.000
       1722.000       1726.000       1698.000       1753.000       1779.000
       1785.000       1825.000       1814.000       1840.000       1877.000
       1938.000       1964.000       1960.000       2003.000       2024.000
       2062.000       2071.000       2082.000       2115.000       2148.000
       2144.000       2124.000       2151.000       2135.000       2142.000
       2154.000       2168.000       2193.000       2201.000       2229.000
       2239.000       2254.000       2285.000       2321.000       2327.000
       2338.000       2374.000       2397.000       2408.000       2411.000
       2445.000       2446.000       2418.000       2445.000       2438.000
       2419.000       2427.000       2418.000       2423.000       2400.000
       2359.000       2326.000       2284.000       2234.000       2235.000
       2217.000       2173.000       2137.000       2070.000       2050.000
       2003.000       1973.000       1957.000       1883.000       1833.000
       1779.000       1747.000       1728.000       1710.000       1673.000
       1601.000       1585.000       1547.000       1493.000       1454.000
       1409.000       1424.000       1386.000       1329.000       1337.000
       1311.000       1282.000       1249.000       1200.000       1202.000
       1231.000       1249.000       1266.000       1271.000       1289.000
       1310.000       1305.000       1331.000       1387.000       1433.000
       1466.000       1494.000       1524.000       1566.000       1609.000
       1661.000       1710.000       1758.000       1832.000       1867.000
       1889.000       1945.000       2015.000       2100.000       2164.000
       2202.000       2245.000       2307.000       2355.000       2387.000
       2440.000       2489.000       2513.000       2542.000       2559.000
       2563.000       2563.000       2572.000       2585.000       2565.000
       2590.000       2587.000       2571.000       2594.000       2550.000
       2520.000       2526.000       2498.000       2489.000       2499.000
       2484.000       2462.000       2426.000       2373.000       2345.000
       2342.000       2340.000       2331.000       2300.000       2249.000
       2208.000       2196.000       2178.000       2130.000       2088.000
       2051.000       1992.000       1952.000       1919.000       1878.000
       1837.000       1779.000       1716.000       1651.000       1624.000
       1612.000       1566.000       1527.000       1465.000       1400.000
       1371.000       1338.000       1286.000       1238.000       1213.000
       1163.000       1112.000       1093.000       1047.000       1004.000
       963.0000       913.0000       892.0000       871.0000       842.0000
       820.0000       799.0000       777.0000       756.0000       759.0000
       759.0000       777.0000       788.0000       750.0000       772.0000
       802.0000       827.0000       859.0000       866.0000       897.0000
       929.0000       989.0000       1018.000       1040.000       1108.000
       1157.000       1210.000       1256.000       1276.000       1308.000
       1367.000       1456.000       1536.000       1570.000       1597.000
       1655.000       1706.000       1746.000       1810.000       1841.000
       1862.000       1896.000       1926.000       1959.000       1956.000
       1974.000       2027.000       2056.000       2084.000       2097.000
       2098.000       2138.000       2173.000       2194.000       2182.000
       2167.000       2182.000       2176.000       2182.000       2166.000
       2137.000       2131.000       2118.000       2122.000       2094.000
       2070.000       2064.000       2034.000       2032.000       2001.000
       1949.000       1930.000       1891.000       1875.000       1839.000
       1768.000       1738.000       1691.000       1675.000       1645.000
       1576.000       1526.000       1471.000       1421.000       1359.000
       1293.000       1232.000       1220.000       1203.000       1140.000
       1098.000       1062.000       1037.000       1013.000       982.0000
       963.0000       931.0000       877.0000       850.0000       828.0000
       803.0000       813.0000       803.0000       768.0000       752.0000
       741.0000       734.0000       744.0000       747.0000       743.0000
       757.0000       785.0000       781.0000       800.0000       828.0000
       819.0000       860.0000       870.0000       874.0000       903.0000
       888.0000       919.0000       967.0000       994.0000       1030.000
       1053.000       1075.000       1118.000       1144.000       1164.000
       1202.000       1247.000       1296.000       1332.000       1362.000
       1388.000       1436.000       1488.000       1508.000       1524.000
       1570.000       1626.000       1655.000       1684.000       1718.000
       1743.000       1749.000       1767.000       1793.000       1803.000
       1829.000       1822.000       1820.000       1835.000       1825.000
       1817.000       1810.000       1804.000       1796.000       1789.000
       1781.000       1780.000       1760.000       1741.000       1748.000
       1727.000       1739.000       1753.000       1717.000       1706.000
       1675.000       1697.000       1708.000       1653.000       1622.000
       1572.000       1530.000       1480.000       1424.000       1395.000
       1366.000       1298.000       1221.000       1162.000       1115.000
       1098.000       1074.000       1030.000       969.0000       929.0000
       910.0000       894.0000       886.0000       838.0000       814.0000
       814.0000       795.0000       814.0000       804.0000       778.0000
       763.0000       750.0000       743.0000       714.0000       726.0000
       721.0000       702.0000       711.0000       661.0000       632.0000
       633.0000       648.0000       658.0000       627.0000       601.0000
       576.0000       569.0000       566.0000       571.0000       556.0000
       537.0000       533.0000       558.0000       570.0000       543.0000
       567.0000       583.0000       610.0000       647.0000       675.0000
       724.0000       762.0000       807.0000       838.0000       887.0000
       916.0000       938.0000       1006.000       1024.000       1068.000
       1151.000       1180.000       1233.000       1278.000       1296.000
       1359.000       1391.000       1405.000       1424.000       1441.000
       1488.000       1506.000       1511.000       1528.000       1527.000
       1513.000       1505.000       1526.000       1515.000       1497.000
       1490.000       1448.000       1430.000       1379.000       1319.000
       1292.000       1242.000       1180.000       1094.000       1032.000
       984.0000       925.0000       852.0000       773.0000       702.0000
       635.0000       619.0000       573.0000       498.0000       468.0000
       443.0000       424.0000       406.0000       405.0000       418.0000
       423.0000       441.0000       434.0000       453.0000       490.0000
       519.0000       539.0000       535.0000       609.0000       661.0000
       686.0000       752.0000       758.0000       777.0000       837.0000
       877.0000       903.0000       916.0000       940.0000       979.0000
       994.0000       1006.000       1001.000       985.0000       1005.000
       984.0000       998.0000       993.0000       949.0000       985.0000
       999.0000       988.0000       986.0000       963.0000       955.0000
       966.0000       950.0000       919.0000       931.0000       948.0000
       959.0000       984.0000       933.0000       900.0000       895.0000
       873.0000       883.0000       880.0000       879.0000       869.0000
       857.0000       851.0000       850.0000       829.0000       837.0000
       862.0000       831.0000       841.0000       805.0000       787.0000
       835.0000       816.0000       831.0000       821.0000       786.0000
       786.0000       782.0000       777.0000       766.0000       756.0000
       739.0000       729.0000       700.0000       682.0000       689.0000
       677.0000       651.0000       638.0000       619.0000       589.0000
       587.0000       570.0000       549.0000       544.0000       536.0000
       511.0000       486.0000       483.0000       466.0000       463.0000
       470.0000       462.0000       430.0000       417.0000       415.0000
       412.0000       420.0000       409.0000       410.0000       390.0000
       407.0000       398.0000       349.0000       346.0000       329.0000
       328.0000       314.0000       287.0000       258.0000       250.0000
       268.0000       273.0000       271.0000       254.0000       268.0000
       276.0000       277.0000       290.0000       295.0000       352.0000
       382.0000       382.0000       414.0000       442.0000       484.0000
       533.0000       570.0000       585.0000       600.0000       645.0000
       676.0000       698.0000       717.0000       738.0000       755.0000
       767.0000       777.0000       785.0000       802.0000       817.0000
       845.0000       838.0000       831.0000       828.0000       815.0000
       807.0000       783.0000       752.0000       720.0000       719.0000
       682.0000       634.0000       594.0000       577.0000       587.0000
       537.0000       507.0000       458.0000       417.0000       408.0000
       377.0000       397.0000       353.0000       301.0000       306.0000
       256.0000       222.0000       228.0000       205.0000       215.0000
       227.0000       190.0000       194.0000       189.0000       184.0000
       227.0000       237.0000       220.0000       240.0000       279.0000
       300.0000       335.0000       362.0000       380.0000       434.0000
       464.0000       483.0000       514.0000       564.0000       617.0000
       624.0000       649.0000       694.0000       713.0000       737.0000
       751.0000       754.0000       760.0000       755.0000       768.0000
       773.0000       771.0000       746.0000       756.0000       762.0000
       719.0000       733.0000       700.0000       691.0000       696.0000
       665.0000       639.0000       591.0000       597.0000       585.0000
       573.0000       540.0000       480.0000       461.0000       427.0000
       398.0000       374.0000       348.0000       314.0000       286.0000
       262.0000       240.0000       212.0000       201.0000       195.0000
       170.0000       163.0000       145.0000       162.0000       175.0000
       190.0000       192.0000       158.0000       213.0000       221.0000
       228.0000       233.0000       214.0000       279.0000       269.0000
       279.0000       266.0000       263.0000       292.0000       273.0000
       305.0000       284.0000       284.0000       283.0000       295.0000
       343.0000       325.0000       357.0000       381.0000       374.0000
       387.0000       383.0000       403.0000       436.0000       448.0000
       455.0000       475.0000       494.0000       510.0000       550.0000
       557.0000       538.0000       556.0000       556.0000       555.0000
       593.0000       613.0000       614.0000       652.0000       661.0000
       644.0000       657.0000       651.0000       663.0000       688.0000
       682.0000       697.0000       705.0000       690.0000       713.0000
       697.0000       672.0000       676.0000       664.0000       657.0000
       648.0000       616.0000       598.0000       604.0000       577.0000
       564.0000       553.0000       558.0000       566.0000       545.0000
       559.0000       552.0000       555.0000       585.0000       588.0000
       558.0000       520.0000       528.0000       510.0000       510.0000
       516.0000       485.0000       455.0000       437.0000       447.0000
       383.0000       373.0000       377.0000       338.0000       340.0000
       280.0000       235.0000       207.0000       169.0000       125.0000
       81.00000       51.00000       1.000000      -20.00000      -46.00000
      -92.00000      -130.0000      -175.0000      -191.0000      -234.0000
      -298.0000      -316.0000      -317.0000      -329.0000      -359.0000
      -379.0000      -400.0000      -422.0000      -417.0000      -383.0000
      -374.0000      -387.0000      -366.0000      -339.0000      -325.0000
      -310.0000      -276.0000      -252.0000      -217.0000      -159.0000
      -125.0000      -106.0000      -80.00000      -6.000000       46.00000
       80.00000       135.0000       184.0000       250.0000       296.0000
       356.0000       405.0000       465.0000       558.0000       632.0000
       703.0000       755.0000       848.0000       920.0000       966.0000
       1029.000       1063.000       1105.000       1151.000       1195.000
       1207.000       1235.000       1247.000       1204.000       1223.000
       1191.000       1141.000       1147.000       1103.000       1073.000
       1019.000       960.0000       933.0000       868.0000       824.0000
       794.0000       750.0000       709.0000       669.0000       619.0000
       579.0000       566.0000       550.0000       508.0000       456.0000
       457.0000       450.0000       395.0000       375.0000       355.0000
       332.0000       304.0000       272.0000       248.0000       224.0000
       204.0000       159.0000       138.0000       127.0000       106.0000
       90.00000       96.00000       83.00000       57.00000       64.00000
       35.00000       25.00000       43.00000       51.00000       44.00000
       28.00000       28.00000       30.00000       29.00000       2.000000
       1.000000       1.000000      -13.00000      -19.00000      -47.00000
      -66.00000      -63.00000      -48.00000      -73.00000      -70.00000
      -75.00000      -109.0000      -92.00000      -121.0000      -114.0000
      -96.00000      -93.00000      -63.00000      -76.00000      -82.00000
      -83.00000      -55.00000      -11.00000       11.00000       9.000000
       45.00000       76.00000       77.00000       126.0000       126.0000
       133.0000       178.0000       225.0000       268.0000       287.0000
       329.0000       388.0000       455.0000       493.0000       500.0000
       547.0000       601.0000       669.0000       711.0000       714.0000
       788.0000       833.0000       858.0000       914.0000       918.0000
       932.0000       980.0000       1008.000       1022.000       1035.000
       1029.000       1033.000       1012.000       1003.000       994.0000
       968.0000       974.0000       915.0000       882.0000       839.0000
       741.0000       721.0000       664.0000       622.0000       585.0000
       504.0000       468.0000       418.0000       371.0000       285.0000
       205.0000       178.0000       131.0000       94.00000       35.00000
      -8.000000      -30.00000      -65.00000      -112.0000      -163.0000
      -202.0000      -213.0000      -210.0000      -243.0000      -254.0000
      -277.0000      -297.0000      -282.0000      -276.0000      -294.0000
      -294.0000      -247.0000      -246.0000      -227.0000      -197.0000
      -196.0000      -147.0000      -138.0000      -142.0000      -129.0000
      -103.0000      -74.00000      -87.00000      -60.00000      -52.00000
      -59.00000      -60.00000      -87.00000      -103.0000      -102.0000
      -100.0000      -101.0000      -110.0000      -145.0000      -135.0000
      -112.0000      -115.0000      -104.0000      -95.00000      -100.0000
      -102.0000      -62.00000      -22.00000       1.000000       24.00000
       56.00000       100.0000       147.0000       189.0000       238.0000
       300.0000       343.0000       380.0000       410.0000       482.0000
       539.0000       558.0000       614.0000       639.0000       663.0000
       701.0000       724.0000       754.0000       748.0000       739.0000
       783.0000       819.0000       829.0000       808.0000       806.0000
       831.0000       810.0000       810.0000       805.0000       780.0000
       750.0000       754.0000       746.0000       701.0000       694.0000
       660.0000       626.0000       591.0000       549.0000       509.0000
       491.0000       467.0000       398.0000       367.0000       317.0000
       296.0000       280.0000       237.0000       209.0000       142.0000
       106.0000       75.00000       19.00000      -9.000000      -25.00000
      -49.00000      -70.00000      -99.00000      -125.0000      -124.0000
      -120.0000      -131.0000      -146.0000      -151.0000      -151.0000
      -146.0000      -163.0000      -179.0000      -168.0000      -167.0000
      -210.0000      -224.0000      -218.0000      -242.0000      -239.0000
      -226.0000      -224.0000      -245.0000      -256.0000      -262.0000
      -257.0000      -248.0000      -242.0000      -205.0000      -227.0000
      -222.0000      -190.0000      -219.0000      -210.0000      -181.0000
      -184.0000      -145.0000      -116.0000      -129.0000      -90.00000
      -85.00000      -76.00000      -31.00000      -54.00000      -28.00000
       17.00000       29.00000       67.00000       76.00000       100.0000
       139.0000       157.0000       190.0000       234.0000       261.0000
       304.0000       370.0000       389.0000       415.0000       471.0000
       507.0000       528.0000       546.0000       574.0000       595.0000
       630.0000       665.0000       670.0000       659.0000       655.0000
       666.0000       679.0000       657.0000       620.0000       619.0000
       612.0000       587.0000       573.0000       553.0000       533.0000
       503.0000       483.0000       465.0000       428.0000       428.0000
