     0.05000000      -12345.00      -12345.00   3.312420e+09      -12345.00
   0.0005380000       659.9506      -1123.020      -12345.00      -12345.00
      -12345.00      -12345.00      -12345.00      -12345.00      -12345.00
      -12345.00      -12345.00      -12345.00      -12345.00      -12345.00
      -12345.00      -12345.00      -12345.00      -12345.00      -12345.00
      -12345.00      -12345.00      -12345.00      -12345.00      -12345.00
      -12345.00      -38.05680      -61.97870       438.0000       102.0000
       9.831100       126.5297      -12345.00       24.71000      -12345.00
      -12345.00      -12345.00      -12345.00      -12345.00      -12345.00
      -12345.00      -12345.00      -12345.00      -12345.00      -12345.00
       16775.47       166.1167       197.4307       150.8721      -12345.00
      -12345.00      -12345.00       211.0000       90.00000      -12345.00
      -12345.00      -12345.00      -12345.00      -12345.00      -12345.00
      -12345.00      -12345.00      -12345.00      -12345.00      -12345.00
      2019        39        12        13        51
        19         6    -12345    -12345     13200
    -12345    -12345    -12345    -12345    -12345
         1    -12345    -12345    -12345    -12345
    -12345    -12345    -12345    -12345    -12345
    -12345    -12345    -12345    -12345    -12345
    -12345    -12345    -12345    -12345    -12345
         1    -12345    -12345    -12345    -12345
TRQA    Mindanao, Philip
00      -12345  -12345  
-12345  -12345  -12345  
-12345  -12345  -12345  
-12345  -12345  -12345  
-12345  -12345  -12345  
-12345  -12345  BH2     
IU      -12345  Geotech 
[...]
       1096.000       1097.000       1096.000       1095.000       1094.000
       1095.000       1094.000       1094.000       1094.000       1094.000
       1096.000       1096.000       1096.000       1095.000       1097.000
       1098.000       1097.000       1097.000       1096.000       1095.000
       1097.000       1097.000       1096.000       1095.000       1095.000
       1098.000       1099.000       1099.000       1101.000       1104.000
       1105.000       1103.000       1101.000       1102.000       1102.000
       1101.000       1102.000       1103.000       1102.000       1102.000
       1100.000       1100.000       1100.000       1098.000       1099.000
       1099.000       1097.000       1098.000       1097.000       1096.000
       1097.000       1098.000       1100.000       1100.000       1099.000
       1098.000       1095.000       1095.000       1095.000       1098.000
       1100.000       1097.000       1098.000       1097.000       1097.000
       1098.000       1096.000       1097.000       1099.000       1099.000
       1099.000       1098.000       1100.000       1099.000       1099.000
       1099.000       1097.000       1098.000       1099.000       1098.000
       1098.000       1098.000       1098.000       1099.000       1098.000
       1099.000       1100.000       1099.000       1098.000       1097.000
       1097.000       1099.000       1101.000       1101.000       1099.000
       1099.000       1100.000       1100.000       1100.000       1100.000
       1098.000       1098.000       1099.000       1099.000       1100.000
       1100.000       1101.000       1101.000       1100.000       1101.000
       1101.000       1101.000       1101.000       1100.000       1100.000
       1100.000       1098.000       1099.000       1101.000       1100.000
       1101.000       1100.000       1101.000       1101.000       1100.000
       1102.000       1103.000       1101.000       1101.000       1102.000
       1101.000       1102.000       1100.000       1099.000       1102.000
       1102.000       1103.000       1103.000       1103.000       1103.000
       1102.000       1102.000       1101.000       1102.000       1101.000
       1099.000       1100.000       1100.000       1098.000       1098.000
       1101.000       1103.000       1104.000       1101.000       1099.000
       1100.000       1098.000       1097.000       1099.000       1098.000
       1100.000       1099.000       1097.000       1097.000       1099.000
       1101.000       1100.000       1099.000       1097.000       1097.000
       1097.000       1096.000       1096.000       1095.000       1094.000
       1097.000       1097.000       1095.000       1093.000       1095.000
       1096.000       1095.000       1095.000       1096.000       1097.000
       1096.000       1096.000       1096.000       1096.000       1095.000
       1095.000       1095.000       1095.000       1095.000       1094.000
       1093.000       1095.000       1096.000       1096.000       1095.000
       1095.000       1098.000       1098.000       1097.000       1096.000
       1094.000       1095.000       1097.000       1097.000       1095.000
       1094.000       1096.000       1096.000       1095.000       1095.000
       1093.000       1093.000       1093.000       1093.000       1093.000
       1092.000       1093.000       1094.000       1095.000       1094.000
       1094.000       1098.000       1099.000       1097.000       1098.000
       1100.000       1100.000       1100.000       1098.000       1097.000
       1098.000       1098.000       1098.000       1097.000       1097.000
       1097.000       1096.000       1096.000       1096.000       1094.000
       1096.000       1098.000       1098.000       1098.000       1096.000
       1097.000       1095.000       1095.000       1096.000       1095.000
       1095.000       1095.000       1094.000       1095.000       1096.000
       1095.000       1097.000       1099.000       1097.000       1099.000
       1098.000       1096.000       1096.000       1095.000       1096.000
       1096.000       1097.000       1099.000       1098.000       1099.000
       1099.000       1096.000       1096.000       1095.000       1094.000
       1094.000       1093.000       1094.000       1093.000       1092.000
       1094.000       1093.000       1093.000       1092.000       1094.000
       1098.000       1097.000       1094.000       1093.000       1094.000
       1092.000       1092.000       1094.000       1093.000       1094.000
       1096.000       1094.000       1094.000       1095.000       1095.000
       1094.000       1095.000       1094.000       1094.000       1093.000
       1093.000       1095.000       1094.000       1093.000       1095.000
       1096.000       1094.000       1097.000       1095.000       1094.000
       1096.000       1097.000       1098.000       1098.000       1099.000
       1096.000       1097.000       1097.000       1095.000       1098.000
       1097.000       1098.000       1097.000       1098.000       1099.000
       1099.000       1101.000       1101.000       1100.000       1098.000
       1097.000       1097.000       1096.000       1095.000       1096.000
       1097.000       1097.000       1098.000       1097.000       1097.000
       1099.000       1099.000       1098.000       1098.000       1097.000
       1097.000       1099.000       1100.000       1099.000       1098.000
       1096.000       1094.000       1095.000       1096.000       1097.000
       1096.000       1097.000       1096.000       1095.000       1097.000
       1096.000       1097.000       1098.000       1098.000       1098.000
       1096.000       1096.000       1099.000       1099.000       1099.000
       1100.000       1098.000       1097.000       1099.000       1099.000
       1098.000       1099.000       1099.000       1098.000       1099.000
       1099.000       1097.000       1098.000       1098.000       1097.000
       1099.000       1098.000       1097.000       1100.000       1099.000
       1098.000       1099.000       1099.000       1101.000       1100.000
       1101.000       1100.000       1098.000       1099.000       1101.000
       1100.000       1100.000       1100.000       1100.000       1101.000
       1099.000       1098.000       1098.000       1097.000       1097.000
       1097.000       1099.000       1099.000       1099.000       1101.000
       1103.000       1101.000       1099.000       1098.000       1098.000
       1098.000       1097.000       1098.000       1099.000       1098.000
       1099.000       1098.000       1097.000       1098.000       1098.000
       1100.000       1100.000       1100.000       1101.000       1100.000
       1099.000       1099.000       1098.000       1098.000       1099.000
       1099.000       1098.000       1097.000       1098.000       1101.000
       1099.000       1098.000       1098.000       1099.000       1099.000
       1098.000       1100.000       1098.000       1098.000       1099.000
       1099.000       1099.000       1100.000       1098.000       1097.000
       1100.000       1100.000       1099.000       1099.000       1101.000
       1100.000       1097.000       1097.000       1096.000       1098.000
       1101.000       1099.000       1096.000       1097.000       1097.000
       1099.000       1099.000       1099.000       1099.000       1098.000
       1099.000       1099.000       1098.000       1099.000       1097.000
       1097.000       1097.000       1096.000       1097.000       1098.000
       1100.000       1097.000       1099.000       1099.000       1098.000
       1100.000       1101.000       1100.000       1101.000       1101.000
       1101.000       1100.000       1100.000       1100.000       1100.000
       1099.000       1098.000       1096.000       1097.000       1096.000
       1097.000       1097.000       1095.000       1095.000       1095.000
       1097.000       1097.000       1095.000       1097.000       1099.000
       1099.000       1096.000       1096.000       1097.000       1097.000
       1095.000       1095.000       1096.000       1095.000       1094.000
       1094.000       1097.000       1098.000       1098.000       1098.000
       1096.000       1097.000       1097.000       1097.000       1096.000
       1095.000       1095.000       1095.000       1095.000       1096.000
       1095.000       1095.000       1096.000       1096.000       1095.000
       1092.000       1093.000       1094.000       1094.000       1095.000
       1095.000       1097.000       1097.000       1095.000       1094.000
       1094.000       1096.000       1094.000       1094.000       1095.000
       1093.000       1094.000       1095.000       1096.000       1096.000
       1096.000       1097.000       1098.000       1098.000       1097.000
       1099.000       1098.000       1096.000       1097.000       1096.000
       1096.000       1095.000       1097.000       1098.000       1097.000
       1098.000       1100.000       1101.000       1100.000       1101.000
       1100.000       1099.000       1099.000       1099.000       1098.000
       1097.000       1096.000       1095.000       1096.000       1096.000
       1095.000       1096.000       1095.000       1098.000       1098.000
       1096.000       1096.000       1097.000       1096.000       1095.000
       1094.000       1096.000       1096.000       1096.000       1097.000
       1097.000       1099.000       1099.000       1099.000       1100.000
       1099.000       1098.000       1096.000       1096.000       1095.000
       1095.000       1094.000       1092.000       1094.000       1096.000
       1096.000       1095.000       1095.000       1094.000       1094.000
       1097.000       1096.000       1096.000       1096.000       1096.000
       1096.000       1096.000       1098.000       1097.000       1095.000
       1096.000       1095.000       1094.000       1095.000       1094.000
       1095.000       1096.000       1098.000       1096.000       1097.000
       1098.000       1097.000       1095.000       1096.000       1098.000
       1096.000       1096.000       1096.000       1096.000       1096.000
       1094.000       1096.000       1095.000       1094.000       1095.000
       1094.000       1094.000       1092.000       1093.000       1092.000
       1092.000       1092.000       1091.000       1093.000       1092.000
       1092.000       1093.000       1092.000       1093.000       1095.000
       1095.000       1094.000       1095.000       1095.000       1095.000
       1097.000       1097.000       1095.000       1095.000       1097.000
       1097.000       1097.000       1095.000       1096.000       1096.000
       1095.000       1096.000       1096.000       1095.000       1096.000
       1096.000       1095.000       1095.000       1094.000       1094.000
       1096.000       1097.000       1097.000       1097.000       1097.000
       1096.000       1097.000       1097.000       1096.000       1098.000
       1097.000       1095.000       1096.000       1095.000       1095.000
       1095.000       1094.000       1094.000       1096.000       1097.000
       1096.000       1097.000       1099.000       1098.000       1097.000
       1100.000       1099.000       1099.000       1098.000       1096.000
       1097.000       1097.000       1097.000       1097.000       1097.000
       1097.000       1097.000       1099.000       1100.000       1100.000
       1099.000       1098.000       1096.000       1095.000       1096.000
       1097.000       1098.000       1098.000       1096.000       1095.000
       1094.000       1094.000       1095.000       1095.000       1094.000
       1094.000       1093.000       1094.000       1094.000       1094.000
       1095.000       1095.000       1096.000       1096.000       1095.000
       1094.000       1093.000       1096.000       1096.000       1095.000
       1096.000       1095.000       1096.000       1096.000       1094.000
       1095.000       1097.000       1095.000       1096.000       1097.000
       1094.000       1092.000       1093.000       1093.000       1091.000
       1091.000       1090.000       1092.000       1093.000       1092.000
       1093.000       1092.000       1094.000       1095.000       1095.000
       1094.000       1095.000       1097.000       1096.000       1098.000
       1096.000       1096.000       1096.000       1094.000       1094.000
       1094.000       1094.000       1093.000       1092.000       1094.000
       1096.000       1095.000       1093.000       1094.000       1093.000
       1091.000       1091.000       1091.000       1090.000       1091.000
       1091.000       1091.000       1092.000       1088.000       1088.000
       1089.000       1088.000       1089.000       1089.000       1090.000
       1091.000       1092.000       1092.000       1092.000       1092.000
       1092.000       1092.000       1090.000       1090.000       1092.000
       1091.000       1092.000       1093.000       1094.000       1094.000
       1094.000       1093.000       1092.000       1093.000       1093.000
       1091.000       1092.000       1092.000       1092.000       1090.000
       1090.000       1092.000       1092.000       1092.000       1092.000
       1093.000       1093.000       1094.000       1094.000       1092.000
       1096.000       1096.000       1096.000       1096.000       1093.000
       1095.000       1097.000       1097.000       1097.000       1096.000
       1098.000       1095.000       1093.000       1094.000       1091.000
       1092.000       1093.000       1093.000       1093.000       1093.000
       1094.000       1095.000       1096.000       1095.000       1096.000
       1098.000       1097.000       1096.000       1095.000       1095.000
       1096.000       1096.000       1095.000       1094.000       1095.000
       1097.000       1098.000       1096.000       1097.000       1097.000
       1094.000       1094.000       1092.000       1093.000       1094.000
       1093.000       1092.000       1092.000       1092.000       1092.000
       1093.000       1094.000       1097.000       1098.000       1096.000
       1095.000       1094.000       1095.000       1095.000       1095.000
       1096.000       1097.000       1098.000       1098.000       1098.000
       1097.000       1096.000       1098.000       1098.000       1095.000
       1096.000       1098.000       1097.000       1096.000       1094.000
       1094.000       1097.000       1096.000       1096.000       1095.000
       1095.000       1095.000       1094.000       1095.000       1095.000
       1096.000       1096.000       1096.000       1096.000       1097.000
       1097.000       1096.000       1097.000       1096.000       1095.000
       1097.000       1095.000       1094.000       1095.000       1094.000
       1093.000       1092.000       1093.000       1093.000       1093.000
       1095.000       1097.000       1098.000       1098.000       1098.000
       1099.000       1098.000       1097.000       1098.000       1097.000
       1098.000       1098.000       1099.000       1100.000       1100.000
       1100.000       1098.000       1099.000       1099.000       1099.000
       1099.000       1100.000       1101.000       1101.000       1101.000
       1100.000       1101.000       1102.000       1100.000       1099.000
       1099.000       1099.000       1099.000       1101.000       1101.000
       1101.000       1100.000       1099.000       1097.000       1099.000
       1101.000       1101.000       1101.000       1099.000       1100.000
       1101.000       1102.000       1101.000       1100.000       1101.000
       1099.000       1099.000       1098.000       1098.000       1098.000
       1097.000       1099.000       1098.000       1099.000       1100.000
       1099.000       1100.000       1099.000       1098.000       1097.000
       1095.000       1096.000       1096.000       1096.000       1097.000
       1096.000       1096.000       1097.000       1095.000       1094.000
       1094.000       1093.000       1094.000       1097.000       1095.000
       1095.000       1097.000       1096.000       1097.000       1097.000
       1096.000       1096.000       1098.000       1098.000       1097.000
       1099.000       1100.000       1098.000       1096.000       1097.000
       1097.000       1095.000       1095.000       1096.000       1095.000
       1095.000       1096.000       1095.000       1095.000       1095.000
       1097.000       1098.000       1098.000       1101.000       1100.000
       1100.000       1101.000       1099.000       1100.000       1100.000
       1101.000       1101.000       1099.000       1098.000       1098.000
       1100.000       1099.000       1098.000       1098.000       1098.000
       1097.000       1098.000       1098.000       1097.000       1097.000
       1098.000       1099.000       1100.000       1098.000       1097.000
       1099.000       1099.000       1099.000       1099.000       1097.000
       1096.000       1097.000       1098.000       1099.000       1099.000
       1098.000       1097.000       1096.000       1097.000       1098.000
       1097.000       1098.000       1098.000       1098.000       1099.000
       1098.000       1097.000       1098.000       1099.000       1099.000
       1097.000       1098.000       1098.000       1097.000       1098.000
       1098.000       1099.000       1097.000       1097.000       1096.000
       1095.000       1095.000       1094.000       1096.000       1096.000
       1095.000       1096.000       1098.000       1098.000       1097.000
       1098.000       1096.000       1098.000       1099.000       1095.000
       1096.000       1096.000       1094.000       1095.000       1096.000
       1095.000       1097.000       1096.000       1096.000       1097.000
       1095.000       1097.000       1098.000       1097.000       1096.000
       1095.000       1096.000       1094.000       1093.000       1096.000
       1095.000       1094.000       1094.000       1095.000       1095.000
       1095.000       1093.000       1093.000       1093.000       1091.000
