     0.05000000      -12345.00      -12345.00   3.309370e+09      -12345.00
   0.0005380000       659.9506      -1123.020      -12345.00      -12345.00
      -12345.00      -12345.00      -12345.00      -12345.00      -12345.00
      -12345.00      -12345.00      -12345.00      -12345.00      -12345.00
      -12345.00      -12345.00      -12345.00      -12345.00      -12345.00
      -12345.00      -12345.00      -12345.00      -12345.00      -12345.00
      -12345.00      -38.05680      -61.97870       438.0000       102.0000
       9.831100       126.5297      -12345.00       24.71000      -12345.00
      -12345.00      -12345.00      -12345.00      -12345.00      -12345.00
      -12345.00      -12345.00      -12345.00      -12345.00      -12345.00
       16775.47       166.1167       197.4307       150.8721      -12345.00
      -12345.00      -12345.00       121.0000       90.00000      -12345.00
      -12345.00      -12345.00      -12345.00      -12345.00      -12345.00
      -12345.00      -12345.00      -12345.00      -12345.00      -12345.00
      2019        39        12        13        51
        19         6    -12345    -12345     13200
    -12345    -12345    -12345    -12345    -12345
         1    -12345    -12345    -12345    -12345
    -12345    -12345    -12345    -12345    -12345
    -12345    -12345    -12345    -12345    -12345
    -12345    -12345    -12345    -12345    -12345
         1    -12345    -12345    -12345    -12345
TRQA    Mindanao, Philip
00      -12345  -12345  
-12345  -12345  -12345  
-12345  -12345  -12345  
-12345  -12345  -12345  
-12345  -12345  -12345  
-12345  -12345  BH1     
IU      -12345  Geotech 
[...]
       2596.000       2596.000       2595.000       2595.000       2598.000
       2605.000       2604.000       2604.000       2603.000       2601.000
       2599.000       2596.000       2597.000       2597.000       2597.000
       2599.000       2599.000       2599.000       2599.000       2599.000
       2601.000       2603.000       2602.000       2601.000       2601.000
       2604.000       2608.000       2608.000       2609.000       2609.000
       2607.000       2608.000       2610.000       2610.000       2611.000
       2611.000       2611.000       2609.000       2605.000       2603.000
       2600.000       2601.000       2603.000       2605.000       2606.000
       2606.000       2605.000       2605.000       2605.000       2602.000
       2601.000       2601.000       2599.000       2600.000       2601.000
       2599.000       2597.000       2597.000       2599.000       2600.000
       2600.000       2599.000       2598.000       2596.000       2594.000
       2595.000       2597.000       2605.000       2614.000       2614.000
       2614.000       2611.000       2610.000       2611.000       2610.000
       2610.000       2605.000       2604.000       2603.000       2597.000
       2599.000       2597.000       2597.000       2598.000       2596.000
       2599.000       2596.000       2595.000       2594.000       2593.000
       2595.000       2594.000       2595.000       2597.000       2595.000
       2601.000       2605.000       2605.000       2605.000       2603.000
       2601.000       2601.000       2600.000       2600.000       2602.000
       2603.000       2601.000       2602.000       2602.000       2601.000
       2603.000       2608.000       2609.000       2607.000       2605.000
       2603.000       2602.000       2601.000       2601.000       2603.000
       2602.000       2601.000       2601.000       2600.000       2601.000
       2602.000       2603.000       2602.000       2601.000       2601.000
       2600.000       2600.000       2600.000       2600.000       2601.000
       2601.000       2601.000       2600.000       2601.000       2601.000
       2599.000       2599.000       2599.000       2599.000       2602.000
       2603.000       2601.000       2599.000       2597.000       2598.000
       2597.000       2596.000       2596.000       2597.000       2598.000
       2598.000       2597.000       2599.000       2598.000       2599.000
       2599.000       2599.000       2601.000       2600.000       2599.000
       2596.000       2595.000       2597.000       2597.000       2597.000
       2598.000       2599.000       2599.000       2598.000       2598.000
       2598.000       2599.000       2597.000       2596.000       2596.000
       2598.000       2599.000       2598.000       2598.000       2597.000
       2597.000       2599.000       2600.000       2605.000       2606.000
       2601.000       2600.000       2599.000       2598.000       2599.000
       2600.000       2600.000       2599.000       2599.000       2599.000
       2598.000       2599.000       2602.000       2601.000       2600.000
       2601.000       2600.000       2601.000       2601.000       2600.000
       2599.000       2599.000       2601.000       2599.000       2599.000
       2601.000       2600.000       2601.000       2602.000       2601.000
       2600.000       2601.000       2602.000       2601.000       2597.000
       2598.000       2599.000       2597.000       2599.000       2599.000
       2598.000       2599.000       2599.000       2598.000       2597.000
       2600.000       2600.000       2599.000       2599.000       2599.000
       2599.000       2597.000       2598.000       2598.000       2597.000
       2598.000       2600.000       2601.000       2600.000       2600.000
       2600.000       2600.000       2603.000       2601.000       2597.000
       2597.000       2597.000       2596.000       2595.000       2594.000
       2597.000       2595.000       2597.000       2601.000       2601.000
       2604.000       2603.000       2600.000       2600.000       2601.000
       2600.000       2600.000       2601.000       2600.000       2599.000
       2599.000       2598.000       2598.000       2598.000       2600.000
       2601.000       2599.000       2600.000       2600.000       2601.000
       2602.000       2601.000       2602.000       2601.000       2602.000
       2600.000       2598.000       2597.000       2595.000       2595.000
       2595.000       2596.000       2595.000       2593.000       2595.000
       2602.000       2603.000       2605.000       2605.000       2603.000
       2604.000       2603.000       2604.000       2601.000       2598.000
       2600.000       2602.000       2601.000       2599.000       2594.000
       2594.000       2595.000       2595.000       2597.000       2601.000
       2601.000       2600.000       2604.000       2607.000       2606.000
       2600.000       2595.000       2594.000       2593.000       2594.000
       2595.000       2599.000       2602.000       2601.000       2602.000
       2603.000       2605.000       2607.000       2607.000       2607.000
       2604.000       2604.000       2605.000       2605.000       2607.000
       2606.000       2605.000       2608.000       2613.000       2616.000
       2616.000       2614.000       2611.000       2611.000       2610.000
       2608.000       2608.000       2613.000       2615.000       2611.000
       2606.000       2599.000       2601.000       2603.000       2599.000
       2599.000       2601.000       2606.000       2610.000       2608.000
       2607.000       2604.000       2603.000       2603.000       2603.000
       2602.000       2600.000       2599.000       2600.000       2600.000
       2600.000       2601.000       2600.000       2598.000       2600.000
       2602.000       2602.000       2602.000       2602.000       2603.000
       2604.000       2606.000       2605.000       2603.000       2603.000
       2604.000       2604.000       2605.000       2606.000       2606.000
       2605.000       2604.000       2603.000       2602.000       2603.000
       2601.000       2600.000       2602.000       2603.000       2603.000
       2601.000       2601.000       2601.000       2598.000       2601.000
       2602.000       2601.000       2601.000       2602.000       2602.000
       2603.000       2604.000       2603.000       2602.000       2601.000
       2600.000       2600.000       2598.000       2599.000       2602.000
       2603.000       2603.000       2604.000       2605.000       2602.000
       2601.000       2603.000       2603.000       2603.000       2602.000
       2602.000       2602.000       2602.000       2602.000       2603.000
       2603.000       2602.000       2604.000       2607.000       2609.000
       2611.000       2606.000       2600.000       2601.000       2603.000
       2603.000       2601.000       2598.000       2593.000       2592.000
       2598.000       2601.000       2601.000       2600.000       2597.000
       2597.000       2600.000       2601.000       2603.000       2601.000
       2596.000       2595.000       2591.000       2590.000       2593.000
       2593.000       2597.000       2601.000       2601.000       2602.000
       2603.000       2606.000       2608.000       2608.000       2608.000
       2611.000       2612.000       2611.000       2611.000       2612.000
       2612.000       2611.000       2611.000       2605.000       2604.000
       2605.000       2604.000       2605.000       2607.000       2610.000
       2610.000       2610.000       2611.000       2614.000       2614.000
       2611.000       2609.000       2610.000       2613.000       2609.000
       2606.000       2607.000       2606.000       2606.000       2606.000
       2608.000       2609.000       2607.000       2608.000       2609.000
       2608.000       2606.000       2606.000       2605.000       2606.000
       2607.000       2609.000       2610.000       2610.000       2608.000
       2605.000       2600.000       2598.000       2601.000       2601.000
       2603.000       2604.000       2601.000       2602.000       2603.000
       2601.000       2601.000       2600.000       2599.000       2601.000
       2600.000       2598.000       2600.000       2599.000       2598.000
       2600.000       2601.000       2603.000       2604.000       2604.000
       2605.000       2605.000       2605.000       2605.000       2599.000
       2597.000       2599.000       2598.000       2599.000       2600.000
       2599.000       2600.000       2600.000       2597.000       2596.000
       2594.000       2595.000       2597.000       2597.000       2597.000
       2598.000       2598.000       2599.000       2600.000       2600.000
       2599.000       2597.000       2597.000       2597.000       2599.000
       2601.000       2600.000       2600.000       2600.000       2599.000
       2599.000       2599.000       2599.000       2599.000       2597.000
       2599.000       2600.000       2599.000       2599.000       2599.000
       2599.000       2599.000       2600.000       2600.000       2596.000
       2596.000       2597.000       2597.000       2596.000       2594.000
       2594.000       2596.000       2597.000       2598.000       2600.000
       2601.000       2600.000       2599.000       2599.000       2599.000
       2598.000       2601.000       2602.000       2601.000       2601.000
       2603.000       2601.000       2602.000       2603.000       2603.000
       2604.000       2604.000       2603.000       2603.000       2603.000
       2604.000       2604.000       2603.000       2603.000       2603.000
       2604.000       2606.000       2606.000       2605.000       2603.000
       2605.000       2605.000       2604.000       2605.000       2605.000
       2606.000       2605.000       2600.000       2598.000       2596.000
       2595.000       2594.000       2592.000       2595.000       2596.000
       2596.000       2598.000       2601.000       2600.000       2595.000
       2594.000       2595.000       2598.000       2600.000       2602.000
       2600.000       2594.000       2591.000       2589.000       2592.000
       2595.000       2598.000       2601.000       2598.000       2599.000
       2602.000       2602.000       2603.000       2601.000       2600.000
       2603.000       2602.000       2601.000       2602.000       2600.000
       2603.000       2604.000       2603.000       2607.000       2607.000
       2606.000       2606.000       2606.000       2607.000       2605.000
       2605.000       2604.000       2603.000       2603.000       2604.000
       2603.000       2602.000       2604.000       2609.000       2607.000
       2605.000       2605.000       2603.000       2604.000       2604.000
       2605.000       2605.000       2603.000       2603.000       2603.000
       2603.000       2604.000       2603.000       2604.000       2605.000
       2604.000       2603.000       2604.000       2605.000       2606.000
       2605.000       2604.000       2603.000       2601.000       2601.000
       2603.000       2604.000       2603.000       2603.000       2602.000
       2601.000       2602.000       2601.000       2600.000       2600.000
       2601.000       2601.000       2601.000       2601.000       2601.000
       2601.000       2601.000       2602.000       2606.000       2608.000
       2608.000       2611.000       2609.000       2605.000       2605.000
       2602.000       2599.000       2600.000       2600.000       2599.000
       2599.000       2600.000       2601.000       2601.000       2599.000
       2600.000       2602.000       2602.000       2603.000       2604.000
       2603.000       2602.000       2603.000       2602.000       2603.000
       2603.000       2602.000       2602.000       2600.000       2599.000
       2600.000       2601.000       2603.000       2602.000       2602.000
       2602.000       2601.000       2603.000       2605.000       2605.000
       2605.000       2607.000       2606.000       2605.000       2605.000
       2603.000       2604.000       2606.000       2605.000       2604.000
       2604.000       2604.000       2606.000       2608.000       2609.000
       2610.000       2608.000       2609.000       2608.000       2606.000
       2607.000       2605.000       2605.000       2606.000       2605.000
       2606.000       2608.000       2606.000       2606.000       2605.000
       2603.000       2603.000       2605.000       2605.000       2604.000
       2604.000       2604.000       2605.000       2604.000       2605.000
       2608.000       2612.000       2614.000       2616.000       2622.000
       2623.000       2618.000       2614.000       2608.000       2607.000
       2607.000       2606.000       2606.000       2602.000       2599.000
       2599.000       2595.000       2595.000       2595.000       2595.000
       2595.000       2591.000       2592.000       2594.000       2593.000
       2592.000       2592.000       2592.000       2591.000       2594.000
       2596.000       2597.000       2603.000       2604.000       2599.000
       2596.000       2594.000       2595.000       2595.000       2598.000
       2597.000       2593.000       2592.000       2592.000       2595.000
       2597.000       2598.000       2597.000       2597.000       2597.000
       2596.000       2594.000       2594.000       2592.000       2592.000
       2596.000       2601.000       2601.000       2604.000       2607.000
       2608.000       2609.000       2610.000       2610.000       2609.000
       2606.000       2603.000       2603.000       2601.000       2603.000
       2604.000       2602.000       2603.000       2603.000       2606.000
       2609.000       2612.000       2615.000       2611.000       2608.000
       2607.000       2608.000       2611.000       2607.000       2604.000
       2603.000       2602.000       2604.000       2603.000       2604.000
       2603.000       2602.000       2603.000       2603.000       2604.000
       2602.000       2604.000       2604.000       2602.000       2600.000
       2599.000       2602.000       2602.000       2601.000       2601.000
       2601.000       2602.000       2603.000       2604.000       2603.000
       2604.000       2606.000       2605.000       2603.000       2603.000
       2602.000       2598.000       2597.000       2597.000       2594.000
       2593.000       2595.000       2599.000       2602.000       2603.000
       2603.000       2599.000       2600.000       2602.000       2604.000
       2607.000       2608.000       2606.000       2605.000       2604.000
       2602.000       2602.000       2604.000       2606.000       2605.000
       2603.000       2603.000       2604.000       2599.000       2598.000
       2597.000       2594.000       2595.000       2596.000       2596.000
       2595.000       2595.000       2596.000       2595.000       2595.000
       2594.000       2592.000       2593.000       2596.000       2596.000
       2594.000       2594.000       2595.000       2595.000       2593.000
       2593.000       2593.000       2596.000       2600.000       2600.000
       2601.000       2605.000       2605.000       2603.000       2602.000
       2602.000       2602.000       2604.000       2604.000       2604.000
       2602.000       2604.000       2607.000       2604.000       2605.000
       2604.000       2602.000       2602.000       2600.000       2602.000
       2603.000       2603.000       2603.000       2602.000       2601.000
       2599.000       2601.000       2603.000       2602.000       2603.000
       2602.000       2603.000       2605.000       2605.000       2604.000
       2604.000       2603.000       2603.000       2604.000       2602.000
       2602.000       2603.000       2603.000       2603.000       2603.000
       2603.000       2601.000       2601.000       2603.000       2602.000
       2603.000       2604.000       2602.000       2602.000       2603.000
       2602.000       2602.000       2600.000       2601.000       2602.000
       2601.000       2602.000       2602.000       2601.000       2599.000
       2601.000       2604.000       2604.000       2603.000       2602.000
       2602.000       2603.000       2602.000       2605.000       2608.000
       2612.000       2612.000       2607.000       2603.000       2602.000
       2600.000       2602.000       2602.000       2602.000       2605.000
       2604.000       2603.000       2601.000       2602.000       2602.000
       2600.000       2600.000       2599.000       2599.000       2599.000
       2600.000       2600.000       2600.000       2599.000       2597.000
       2599.000       2599.000       2596.000       2598.000       2600.000
       2597.000       2598.000       2597.000       2596.000       2600.000
       2604.000       2603.000       2598.000       2597.000       2596.000
       2596.000       2597.000       2599.000       2603.000       2604.000
       2603.000       2604.000       2604.000       2603.000       2599.000
       2597.000       2598.000       2596.000       2597.000       2597.000
       2596.000       2597.000       2595.000       2596.000       2597.000
       2597.000       2598.000       2596.000       2597.000       2599.000
       2598.000       2599.000       2599.000       2599.000       2602.000
       2600.000       2600.000       2602.000       2600.000       2605.000
       2608.000       2605.000       2604.000       2604.000       2605.000
       2605.000       2608.000       2614.000       2613.000       2607.000
       2603.000       2601.000       2601.000       2601.000       2600.000
       2600.000       2601.000       2600.000       2599.000       2600.000
       2601.000       2602.000       2603.000       2603.000       2605.000
       2603.000       2599.000       2601.000       2602.000       2599.000
       2599.000       2598.000       2600.000       2601.000       2598.000
       2596.000       2595.000       2597.000       2597.000       2592.000
       2592.000       2594.000       2593.000       2594.000       2594.000
       2594.000       2596.000       2595.000       2598.000       2600.000
