     0.02500000      -12345.00      -12345.00   3.350240e+10      -12345.00
   0.0005380000       659.9755      -161.0195      -12345.00      -12345.00
      -12345.00      -12345.00      -12345.00      -12345.00      -12345.00
      -12345.00      -12345.00      -12345.00      -12345.00      -12345.00
      -12345.00      -12345.00      -12345.00      -12345.00      -12345.00
      -12345.00      -12345.00      -12345.00      -12345.00      -12345.00
      -12345.00       24.97350       121.4971       159.7000      0.3000000
       9.831100       126.5297      -12345.00       24.71000      -12345.00
      -12345.00      -12345.00      -12345.00      -12345.00      -12345.00
      -12345.00      -12345.00      -12345.00      -12345.00      -12345.00
       1757.075       343.0008       161.4906       15.80245      -12345.00
      -12345.00      -12345.00       0.000000       90.00000      -12345.00
      -12345.00      -12345.00      -12345.00      -12345.00      -12345.00
      -12345.00      -12345.00      -12345.00      -12345.00      -12345.00
      2019        39        11        57        49
        19         6    -12345    -12345     26400
    -12345    -12345    -12345    -12345    -12345
         1    -12345    -12345    -12345    -12345
    -12345    -12345    -12345    -12345    -12345
    -12345    -12345    -12345    -12345    -12345
    -12345    -12345    -12345    -12345    -12345
         1    -12345    -12345    -12345    -12345
TATO    Mindanao, Philip
10      -12345  -12345  
-12345  -12345  -12345  
-12345  -12345  -12345  
-12345  -12345  -12345  
-12345  -12345  -12345  
-12345  -12345  BH1     
IU      -12345  Streckei
[...]
      -86443.00      -74064.00      -67424.00      -52055.00      -36030.00
      -15582.00      -5471.000       5309.000       19264.00       17182.00
       39878.00       50557.00       32772.00       38659.00       45203.00
       42214.00       25981.00       21476.00       37029.00       29182.00
       29648.00       23420.00       13590.00       22779.00       6275.000
      -2996.000      -7888.000      -20218.00      -21974.00      -30978.00
      -35737.00      -31656.00      -30036.00      -32564.00      -30981.00
      -39048.00      -40553.00      -30625.00      -52344.00      -58337.00
      -46380.00      -63130.00      -61093.00      -57426.00      -76833.00
      -70956.00      -66558.00      -72010.00      -69485.00      -79753.00
      -74886.00      -66182.00      -76587.00      -60037.00      -38689.00
      -40680.00      -15663.00       4277.000      -4176.000       5444.000
       28530.00       40026.00       32532.00       39469.00       55579.00
       69323.00       68926.00       66132.00       97418.00       95332.00
       97694.00       125103.0       116869.0       118773.0       125950.0
       140747.0       149365.0       130817.0       143015.0       153449.0
       133143.0       131354.0       127646.0       119159.0       119383.0
       100066.0       96729.00       92191.00       67434.00       58592.00
       48542.00       28859.00       8053.000      -1785.000      -22548.00
      -44327.00      -49980.00      -74824.00      -87554.00      -87635.00
      -108275.0      -126988.0      -132469.0      -139959.0      -160945.0
      -171733.0      -175347.0      -186416.0      -200238.0      -227062.0
      -247017.0      -257836.0      -275377.0      -291228.0      -303601.0
      -313067.0      -307755.0      -307007.0      -332943.0      -328985.0
      -325432.0      -353843.0      -344757.0      -346117.0      -356157.0
      -345484.0      -348452.0      -329227.0      -322803.0      -330727.0
      -302690.0      -292499.0      -295875.0      -274581.0      -260799.0
      -249880.0      -233907.0      -214815.0      -187230.0      -175001.0
      -143368.0      -111717.0      -107266.0      -77412.00      -55978.00
      -46154.00      -36575.00      -29969.00       1978.000       3682.000
       872.0000       42937.00       55661.00       52872.00       73550.00
       81719.00       82513.00       94281.00       110419.0       111455.0
       97719.00       120648.0       145490.0       119007.0       136172.0
       172002.0       139080.0       137465.0       167941.0       144316.0
       125401.0       138367.0       122562.0       103318.0       104307.0
       88021.00       74624.00       64525.00       53360.00       46711.00
       32919.00       24733.00       4227.000      -7086.000      -4206.000
      -19015.00      -21318.00      -18432.00      -22977.00      -23709.00
      -19924.00      -11671.00      -8953.000      -3616.000      -416.0000
       3782.000       10671.00       8028.000       16653.00       18942.00
       22172.00       35477.00       27867.00       29279.00       31386.00
       28155.00       26149.00       19315.00       25081.00       17833.00
       19854.00       34068.00       28579.00       28306.00       38384.00
       59374.00       63174.00       55797.00       75647.00       84106.00
       91219.00       112100.0       117769.0       136129.0       157363.0
       164442.0       181834.0       201604.0       210030.0       212913.0
       234319.0       241942.0       233062.0       258948.0       270471.0
       262679.0       275894.0       277035.0       279166.0       293007.0
       289488.0       298884.0       315264.0       311359.0       308968.0
       305631.0       312668.0       310112.0       283817.0       290208.0
       296302.0       277021.0       276636.0       276694.0       261711.0
       246691.0       232938.0       222101.0       215122.0       196807.0
       177227.0       165092.0       149080.0       141017.0       124287.0
       105227.0       93961.00       79229.00       62678.00       30203.00
       15150.00       1504.000      -29943.00      -42457.00      -53920.00
      -64964.00      -81665.00      -94726.00      -92930.00      -93316.00
      -91235.00      -97978.00      -77020.00      -53078.00      -73874.00
      -64903.00      -43506.00      -42949.00      -30706.00      -29490.00
      -29302.00      -11156.00      -6568.000      -24585.00      -9728.000
       8393.000      -11656.00       5352.000       6997.000      -2155.000
       16472.00      -5435.000       12302.00       23798.00      -9725.000
       8664.000       2453.000      -16295.00      -8829.000      -28023.00
      -32756.00      -19852.00      -39074.00      -60293.00      -49276.00
      -49610.00      -60959.00      -69789.00      -79383.00      -72355.00
      -85599.00      -88383.00      -81136.00      -112264.0      -112011.0
      -99521.00      -123006.0      -137276.0      -137738.0      -146344.0
      -146214.0      -138681.0      -154684.0      -160847.0      -161611.0
      -173150.0      -164165.0      -172851.0      -190713.0      -184215.0
      -183231.0      -191552.0      -187290.0      -175636.0      -183953.0
      -182322.0      -164698.0      -167897.0      -173992.0      -168545.0
      -160698.0      -168845.0      -171732.0      -159355.0      -156807.0
      -158400.0      -172062.0      -169774.0      -154703.0      -162797.0
      -166511.0      -158215.0      -146518.0      -145099.0      -146313.0
      -132934.0      -132837.0      -140259.0      -129304.0      -119899.0
      -114717.0      -97892.00      -90214.00      -82157.00      -54107.00
      -42318.00      -36306.00      -17965.00      -10821.00       5746.000
       19181.00       19327.00       41601.00       50124.00       48635.00
       66594.00       71091.00       85936.00       106053.0       107181.0
       117736.0       133268.0       145551.0       144442.0       151524.0
       166967.0       160743.0       168411.0       177934.0       171226.0
       168663.0       167576.0       170493.0       167129.0       161183.0
       162202.0       152923.0       141141.0       143461.0       143528.0
       131735.0       125054.0       121563.0       110392.0       105206.0
       99906.00       96149.00       99661.00       89627.00       92421.00
       100579.0       81231.00       76691.00       80958.00       72362.00
       63089.00       53794.00       59818.00       56158.00       40002.00
       32766.00       28287.00       26720.00       20842.00       16947.00
       11161.00       11076.00       12692.00      -445.0000      -1068.000
       172.0000      -16702.00      -17348.00      -5868.000      -14619.00
      -18234.00      -21708.00      -24526.00      -14111.00      -34372.00
      -52142.00      -55579.00      -77037.00      -85967.00      -95090.00
      -115577.0      -121718.0      -131112.0      -150329.0      -150169.0
      -157307.0      -174016.0      -170491.0      -181767.0      -194051.0
      -202457.0      -224272.0      -220223.0      -233221.0      -248896.0
      -216417.0      -227738.0      -232914.0      -185880.0      -176492.0
      -162080.0      -128937.0      -102383.0      -66622.00      -36103.00
      -18151.00       4927.000       51645.00       75954.00       88218.00
       124013.0       141331.0       156044.0       188888.0       210800.0
       221964.0       243398.0       264627.0       278884.0       283743.0
       279873.0       297059.0       314557.0       308575.0       310698.0
       330721.0       338458.0       348816.0       368016.0       368261.0
       375567.0       370424.0       360185.0       375853.0       343528.0
       304862.0       349707.0       351492.0       281634.0       290056.0
       318862.0       285129.0       253807.0       250081.0       251634.0
       223706.0       195864.0       208025.0       197231.0       166313.0
       175399.0       176642.0       159544.0       158235.0       157408.0
       162463.0       158754.0       147752.0       157718.0       163556.0
       158225.0       155463.0       158282.0       163249.0       166210.0
       177062.0       159970.0       135052.0       141278.0       124818.0
       105565.0       93785.00       71608.00       55553.00       21982.00
       2940.000      -16561.00      -53353.00      -51061.00      -76181.00
      -108434.0      -78587.00      -102073.0      -156202.0      -117847.0
      -96558.00      -146232.0      -132194.0      -104904.0      -138259.0
      -144677.0      -132874.0      -143852.0      -159426.0      -164535.0
      -168568.0      -179240.0      -177639.0      -192611.0      -219910.0
      -215226.0      -214443.0      -227406.0      -232691.0      -237601.0
      -224374.0      -222937.0      -227750.0      -201111.0      -191385.0
      -184965.0      -169310.0      -157679.0      -144480.0      -138970.0
      -122046.0      -111184.0      -96516.00      -80536.00      -79900.00
      -66365.00      -56314.00      -48180.00      -50347.00      -49783.00
      -33733.00      -42576.00      -41475.00      -35962.00      -48388.00
      -40113.00      -49489.00      -54124.00      -38176.00      -57846.00
      -52511.00      -46089.00      -65649.00      -40744.00      -38758.00
      -59833.00      -29747.00      -23578.00      -42819.00      -29487.00
      -19533.00      -5418.000       6764.000       326.0000       1527.000
       19686.00       36541.00       21295.00       23709.00       43065.00
       43217.00       44642.00       31243.00       52017.00       66858.00
       26467.00       51554.00       87475.00       60821.00       75798.00
       112038.0       98609.00       116394.0       161442.0       155966.0
       165924.0       204738.0       206740.0       188690.0       221192.0
       246341.0       213350.0       237468.0       247751.0       213280.0
       243606.0       237870.0       196360.0       200671.0       203234.0
       175801.0       155028.0       162135.0       130465.0       107608.0
       122245.0       82131.00       67700.00       81604.00       41003.00
       35356.00       37432.00       3635.000      -15255.00      -36312.00
      -40101.00      -62270.00      -106294.0      -107087.0      -122108.0
      -167227.0      -178143.0      -190021.0      -219526.0      -214552.0
      -234759.0      -257490.0      -249582.0      -276801.0      -284020.0
      -282967.0      -294013.0      -307724.0      -326643.0      -310759.0
      -326580.0      -343422.0      -324083.0      -329812.0      -327578.0
      -314788.0      -303882.0      -297459.0      -283279.0      -244847.0
      -228450.0      -210080.0      -174610.0      -162443.0      -140800.0
      -112963.0      -94016.00      -63702.00      -40814.00      -18542.00
       6329.000       27815.00       56559.00       74727.00       82370.00
       98048.00       122903.0       135348.0       137958.0       159315.0
       167206.0       169372.0       194506.0       201652.0       195609.0
       193461.0       203790.0       209866.0       208177.0       227822.0
       218003.0       215691.0       244621.0       237666.0       239595.0
       249004.0       249313.0       260460.0       253588.0       255127.0
       271445.0       268085.0       269585.0       279333.0       276184.0
       289195.0       298201.0       282789.0       293609.0       299603.0
       282061.0       287054.0       287380.0       286777.0       293211.0
       277162.0       287715.0       288905.0       267275.0       278018.0
       267389.0       259536.0       260240.0       248977.0       247098.0
       223709.0       225704.0       230667.0       191062.0       183982.0
       178638.0       145712.0       133616.0       122495.0       100690.0
       89482.00       85659.00       55682.00       38730.00       62608.00
       45353.00       28104.00       54976.00       31991.00       11295.00
       48100.00       42344.00       20331.00       38457.00       52532.00
       50034.00       43065.00       43283.00       37409.00       36915.00
       45968.00       28634.00       19225.00       13483.00      -15054.00
      -32980.00      -50028.00      -54203.00      -64447.00      -92773.00
      -76813.00      -81908.00      -108331.0      -90514.00      -94404.00
      -101689.0      -85769.00      -93741.00      -103520.0      -94134.00
      -99689.00      -121456.0      -135481.0      -150424.0      -163948.0
      -186516.0      -225183.0      -246309.0      -263011.0      -289444.0
      -313337.0      -343684.0      -359996.0      -373349.0      -398823.0
      -402220.0      -408175.0      -426879.0      -423225.0      -425780.0
      -439151.0      -423309.0      -413170.0      -407599.0      -382626.0
      -358182.0      -334022.0      -320527.0      -280132.0      -255375.0
      -250805.0      -190371.0      -177146.0      -157939.0      -91809.00
      -99679.00      -90599.00      -39416.00      -26854.00      -25526.00
      -3556.000       19159.00       17029.00       20623.00       35566.00
       35923.00       41520.00       50416.00       48384.00       60875.00
       57705.00       50520.00       70326.00       43311.00       37084.00
       61223.00       41291.00       30783.00       28614.00       37019.00
       24116.00       18823.00       19662.00      -7899.000       14508.00
       7791.000      -14502.00       3015.000      -10982.00      -18814.00
      -10420.00      -20065.00      -26771.00      -28306.00      -14910.00
      -12248.00      -33178.00      -12166.00      -7304.000      -13194.00
       1785.000      -16639.00      -5728.000       6491.000      -5873.000
       75.00000       8082.000       13739.00       21468.00       65054.00
       51754.00       14063.00       104439.0       115763.0       25586.00
       80136.00       169337.0       97947.00       33660.00       142961.0
       161437.0       39938.00       75428.00       145231.0       68949.00
       39068.00       87138.00       60822.00       21695.00       43271.00
       43126.00       18601.00       18718.00       21501.00       16924.00
       14710.00       7802.000      -9661.000      -7406.000       853.0000
      -27566.00      -45479.00      -37428.00      -35386.00      -52751.00
      -68838.00      -61613.00      -62974.00      -71545.00      -75769.00
      -79195.00      -75729.00      -79199.00      -87026.00      -79380.00
      -87735.00      -98638.00      -78906.00      -78024.00      -84898.00
      -76549.00      -60125.00      -38378.00      -43474.00      -37867.00
       831.0000       12835.00       18637.00       50754.00       73869.00
       86581.00       112624.0       138951.0       142722.0       156246.0
       188855.0       187315.0       185162.0       222083.0       224762.0
       210346.0       231703.0       244136.0       222909.0       217481.0
       253001.0       241871.0       212482.0       228624.0       229857.0
       218084.0       210788.0       214409.0       221994.0       208091.0
       196526.0       212390.0       219865.0       197437.0       207246.0
       236943.0       224658.0       214962.0       241315.0       241447.0
       216769.0       233502.0       249847.0       230537.0       221037.0
       224114.0       215556.0       202958.0       187736.0       173035.0
       175798.0       164916.0       152260.0       154293.0       142651.0
       144781.0       151429.0       144796.0       150944.0       162304.0
       157451.0       151061.0       158362.0       151562.0       141938.0
       145483.0       138776.0       138916.0       132687.0       104923.0
       109905.0       119960.0       86960.00       71541.00       84189.00
       63993.00       38710.00       47449.00       46694.00       34375.00
       20262.00       10635.00       23045.00       2167.000      -18579.00
      -7962.000      -27304.00      -33983.00      -32553.00      -54516.00
      -63428.00      -73870.00      -85059.00      -90072.00      -112138.0
      -124005.0      -121602.0      -141500.0      -153823.0      -154939.0
      -149032.0      -149252.0      -176875.0      -160009.0      -150923.0
      -181273.0      -162124.0      -153875.0      -162860.0      -141390.0
      -140294.0      -137538.0      -119030.0      -119809.0      -103257.0
      -85816.00      -94654.00      -72771.00      -56217.00      -65139.00
      -43904.00      -30869.00      -36477.00      -29202.00      -19098.00
      -10949.00      -15411.00      -22537.00      -1958.000       5033.000
      -8555.000       602.0000      -5675.000      -7365.000       3600.000
      -4277.000       3949.000       10876.00       18702.00       21456.00
       11343.00       28919.00       35208.00       26640.00       26782.00
       28530.00       40773.00       29547.00       17099.00       30799.00
       27200.00       25078.00       21480.00       5943.000       3918.000
      -3420.000      -9814.000      -11412.00      -9960.000      -10978.00
      -18022.00      -15091.00      -16281.00      -8073.000       678.0000
      -4414.000       8360.000       28726.00       29708.00       26608.00
       44904.00       53543.00       46259.00       53573.00       49779.00
       45817.00       49191.00       34875.00       35834.00       44611.00
       40322.00       37205.00       32080.00       38633.00       43321.00
       34965.00       26930.00       32338.00       50599.00       37730.00
       31898.00       49518.00       45989.00       51192.00       53653.00
       38221.00       44882.00       54607.00       30050.00       12118.00
       13327.00      -6861.000      -23814.00      -26592.00      -48640.00
      -69427.00      -79726.00      -100267.0      -112402.0      -122475.0
      -138002.0      -143435.0      -152839.0      -154730.0      -146963.0
      -157432.0      -156911.0      -139068.0      -139228.0      -128173.0
      -109664.0      -113176.0      -101646.0      -82704.00      -77694.00
      -69193.00      -64403.00      -49096.00      -30320.00      -40665.00
      -24918.00       11318.00       647.0000       3130.000       26958.00
       24240.00       35716.00       50611.00       57330.00       69400.00
