     0.02500000      -12345.00      -12345.00   2.436090e+09      -12345.00
       0.000000       660.0000      -1131.000      -12345.00      -12345.00
      -12345.00      -12345.00      -12345.00      -12345.00      -12345.00
      -12345.00      -12345.00      -12345.00      -12345.00      -12345.00
      -12345.00      -12345.00      -12345.00      -12345.00      -12345.00
      -12345.00      -12345.00      -12345.00      -12345.00      -12345.00
      -12345.00       13.14340      -59.55880       180.0000       0.000000
       9.831100       126.5297      -12345.00       24.71000      -12345.00
      -12345.00      -12345.00      -12345.00      -12345.00      -12345.00
      -12345.00      -12345.00      -12345.00      -12345.00      -12345.00
       17388.78       14.94877       344.8727       156.3880      -12345.00
      -12345.00      -12345.00       0.000000       90.00000      -12345.00
      -12345.00      -12345.00      -12345.00      -12345.00      -12345.00
      -12345.00      -12345.00      -12345.00      -12345.00      -12345.00
      2019        39        12        13        59
         0         6    -12345    -12345     26401
    -12345    -12345    -12345    -12345    -12345
         1    -12345    -12345    -12345    -12345
    -12345    -12345    -12345    -12345    -12345
    -12345    -12345    -12345    -12345    -12345
    -12345    -12345    -12345    -12345    -12345
         1    -12345    -12345    -12345    -12345
BBGH    Mindanao, Philip
00      -12345  -12345  
-12345  -12345  -12345  
-12345  -12345  -12345  
-12345  -12345  -12345  
-12345  -12345  -12345  
-12345  -12345  BH1     
CU      -12345  Streckei
[...]
       214.0000       501.0000       762.0000       1455.000       1876.000
       2182.000       2671.000       3170.000       2976.000       2516.000
       2448.000       2220.000       2295.000       2420.000       2210.000
       2445.000       2467.000       2227.000       2000.000       1519.000
       1500.000       1505.000       1411.000       1481.000       989.0000
       783.0000       681.0000       21.00000      -168.0000      -312.0000
      -642.0000      -1009.000      -1404.000      -1247.000      -1084.000
      -1219.000      -1608.000      -1856.000      -1707.000      -2036.000
      -2535.000      -2697.000      -2977.000      -3218.000      -2959.000
      -2833.000      -2949.000      -2382.000      -1898.000      -2068.000
      -2029.000      -1546.000      -1186.000      -1334.000      -1572.000
      -1714.000      -1715.000      -1456.000      -1285.000      -1075.000
      -942.0000      -1208.000      -1467.000      -1272.000      -739.0000
      -767.0000      -1170.000      -961.0000      -397.0000      -26.00000
       52.00000       62.00000       251.0000       33.00000      -625.0000
      -889.0000      -1207.000      -1454.000      -1441.000      -1683.000
      -1031.000      -153.0000      -260.0000      -334.0000      -168.0000
      -6.000000      -323.0000      -594.0000      -64.00000       360.0000
       488.0000       682.0000       1333.000       2110.000       2614.000
       3134.000       3472.000       3845.000       3952.000       4060.000
       4515.000       4639.000       5242.000       6081.000       6498.000
       6979.000       7052.000       6869.000       6918.000       6872.000
       6623.000       6562.000       6531.000       6232.000       6201.000
       6342.000       6160.000       5852.000       5739.000       5692.000
       5482.000       5191.000       4890.000       4546.000       3951.000
       3314.000       3086.000       2811.000       2505.000       2380.000
       1809.000       1398.000       1458.000       1241.000       869.0000
       356.0000       156.0000       282.0000      -155.0000      -876.0000
      -1370.000      -1598.000      -1806.000      -2224.000      -2594.000
      -2462.000      -2294.000      -2649.000      -2763.000      -2970.000
      -3724.000      -4383.000      -5198.000      -5495.000      -4970.000
      -5032.000      -5571.000      -6075.000      -6571.000      -6915.000
      -7256.000      -7560.000      -8004.000      -8690.000      -9276.000
      -9534.000      -9923.000      -10302.00      -10122.00      -10093.00
      -10195.00      -10367.00      -10917.00      -11346.00      -11699.00
      -11607.00      -10899.00      -10378.00      -10121.00      -10030.00
      -9941.000      -9845.000      -9804.000      -9587.000      -9447.000
      -9219.000      -8576.000      -7896.000      -7352.000      -6882.000
      -6708.000      -6550.000      -6085.000      -5306.000      -4354.000
      -3757.000      -3305.000      -2764.000      -2339.000      -1953.000
      -1439.000      -862.0000      -270.0000       745.0000       1908.000
       2518.000       2999.000       3769.000       4228.000       4541.000
       5247.000       5397.000       5279.000       5944.000       6169.000
       6417.000       7280.000       7306.000       7300.000       7767.000
       7864.000       7620.000       7549.000       7791.000       7521.000
       7085.000       7056.000       6825.000       6375.000       6008.000
       5888.000       5789.000       5425.000       5326.000       5447.000
       5359.000       5394.000       5577.000       5763.000       5792.000
       5828.000       6503.000       7000.000       6940.000       7079.000
       7105.000       7035.000       6910.000       6774.000       6879.000
       6293.000       5638.000       5948.000       5765.000       4958.000
       4745.000       4467.000       3668.000       3442.000       3644.000
       3252.000       2853.000       2984.000       3140.000       2819.000
       2245.000       1857.000       1359.000       975.0000       636.0000
       210.0000       150.0000       277.0000       421.0000       306.0000
       196.0000       92.00000      -255.0000      -246.0000      -478.0000
      -1016.000      -1041.000      -627.0000      -289.0000      -194.0000
       0.000000      -144.0000      -93.00000       137.0000      -89.00000
       271.0000       361.0000      -127.0000      -42.00000       80.00000
      -49.00000      -298.0000      -690.0000      -1125.000      -1429.000
      -1544.000      -1438.000      -1118.000      -1234.000      -1474.000
      -1795.000      -2556.000      -2928.000      -3047.000      -2831.000
      -2376.000      -2378.000      -2239.000      -2185.000      -2664.000
      -2965.000      -3184.000      -3829.000      -4212.000      -3920.000
      -4126.000      -4518.000      -4005.000      -3811.000      -3975.000
      -3749.000      -3763.000      -3911.000      -3942.000      -3938.000
      -4178.000      -4420.000      -4163.000      -4161.000      -4267.000
      -3952.000      -3904.000      -4012.000      -3934.000      -3916.000
      -4028.000      -4152.000      -3990.000      -3542.000      -2920.000
      -2350.000      -2359.000      -2449.000      -2198.000      -2253.000
      -2017.000      -1099.000      -715.0000      -626.0000      -307.0000
      -266.0000      -246.0000      -165.0000      -89.00000       44.00000
       91.00000       190.0000      -13.00000      -376.0000      -470.0000
      -786.0000      -1275.000      -1475.000      -1416.000      -1566.000
      -1683.000      -1727.000      -2438.000      -3176.000      -3453.000
      -3930.000      -4276.000      -4235.000      -4482.000      -4529.000
      -4619.000      -5210.000      -5452.000      -5696.000      -5798.000
      -5437.000      -5400.000      -5446.000      -5190.000      -4912.000
      -4580.000      -4329.000      -3628.000      -2655.000      -2510.000
      -2319.000      -1700.000      -1231.000      -1306.000      -1106.000
       11.00000       609.0000       1055.000       1409.000       1629.000
       2594.000       3183.000       3367.000       3310.000       3289.000
       3793.000       3784.000       4105.000       4563.000       4346.000
       4737.000       5153.000       5270.000       5342.000       5110.000
       5134.000       5236.000       5175.000       4971.000       4721.000
       4689.000       4605.000       4519.000       4406.000       3836.000
       3077.000       2754.000       2740.000       2832.000       3205.000
       3283.000       2990.000       3091.000       3372.000       3117.000
       2776.000       2902.000       2640.000       2162.000       2450.000
       2703.000       2708.000       2882.000       2929.000       3320.000
       3603.000       3389.000       3334.000       3342.000       3326.000
       3403.000       3674.000       3571.000       3241.000       3196.000
       3185.000       3527.000       3665.000       3668.000       3963.000
       3685.000       3443.000       3440.000       3097.000       3040.000
       3098.000       3048.000       2867.000       2543.000       2817.000
       2812.000       2460.000       2758.000       2630.000       2175.000
       1798.000       1318.000       1345.000       1089.000       431.0000
       175.0000      -2.000000      -163.0000      -457.0000      -821.0000
      -1051.000      -1587.000      -2180.000      -2209.000      -2287.000
      -2974.000      -3424.000      -3665.000      -4185.000      -4634.000
      -5091.000      -5723.000      -6310.000      -6734.000      -6912.000
      -6766.000      -6904.000      -7079.000      -7077.000      -7726.000
      -8269.000      -8127.000      -7992.000      -8158.000      -7960.000
      -7454.000      -7565.000      -7463.000      -6985.000      -7036.000
      -6953.000      -6496.000      -6207.000      -6026.000      -5542.000
      -4566.000      -3945.000      -3674.000      -3007.000      -2528.000
      -2354.000      -2114.000      -1578.000      -1071.000      -902.0000
      -142.0000       884.0000       1386.000       1611.000       1762.000
       2070.000       2229.000       2011.000       1919.000       2275.000
       2939.000       3280.000       3119.000       2752.000       2628.000
       3171.000       3416.000       3295.000       3188.000       2706.000
       2477.000       2471.000       2516.000       2673.000       2773.000
       2766.000       2758.000       3298.000       3841.000       3851.000
       3435.000       2629.000       2342.000       2679.000       2861.000
       3156.000       3501.000       3478.000       3809.000       4597.000
       4998.000       5008.000       4623.000       4096.000       3975.000
       3988.000       3936.000       3630.000       3589.000       4022.000
       4196.000       4506.000       4809.000       4655.000       4460.000
       4475.000       4381.000       3845.000       3387.000       3340.000
       3596.000       3969.000       3973.000       4236.000       5081.000
       5112.000       4623.000       4762.000       5031.000       4879.000
       4869.000       5154.000       5122.000       5023.000       5039.000
       5156.000       5331.000       5172.000       4796.000       4477.000
       4405.000       4472.000       4370.000       4233.000       4125.000
       3977.000       3840.000       3587.000       2964.000       2279.000
       1806.000       1024.000       285.0000      -145.0000      -627.0000
      -595.0000      -332.0000      -524.0000      -794.0000      -1339.000
      -2025.000      -2245.000      -3103.000      -4435.000      -4993.000
      -5724.000      -6475.000      -6666.000      -6996.000      -7144.000
      -7231.000      -7499.000      -7640.000      -7802.000      -7956.000
      -8415.000      -8950.000      -9107.000      -9465.000      -9829.000
      -9760.000      -9692.000      -9641.000      -9243.000      -8843.000
      -8759.000      -8484.000      -8530.000      -9114.000      -9128.000
      -9123.000      -9700.000      -10037.00      -10297.00      -10898.00
      -10937.00      -10573.00      -10559.00      -10269.00      -9964.000
      -10414.00      -11160.00      -11239.00      -10540.00      -10255.00
      -10381.00      -10030.00      -9855.000      -9677.000      -9297.000
      -9409.000      -8776.000      -8025.000      -8471.000      -8293.000
      -7444.000      -6768.000      -5945.000      -5253.000      -4695.000
      -3998.000      -3046.000      -2052.000      -970.0000      -26.00000
       253.0000       538.0000       1120.000       1751.000       2312.000
       2725.000       3401.000       3634.000       3701.000       4849.000
       5559.000       5696.000       6324.000       6260.000       6202.000
       6681.000       6456.000       6324.000       6443.000       6259.000
       6476.000       6793.000       6897.000       7132.000       7287.000
       7280.000       7184.000       7063.000       6748.000       6309.000
       5885.000       5454.000       5179.000       4698.000       4512.000
       4942.000       5268.000       5624.000       5608.000       5015.000
       4747.000       4602.000       4488.000       4557.000       4461.000
       4763.000       5325.000       5753.000       6388.000       6957.000
       7410.000       7961.000       8489.000       8895.000       9452.000
       10179.00       10702.00       11250.00       11956.00       12531.00
       12817.00       13131.00       13656.00       13824.00       13982.00
       14244.00       13987.00       14060.00       14518.00       14608.00
       14686.00       14786.00       14710.00       14314.00       13688.00
       13363.00       13025.00       12349.00       12009.00       11804.00
       11455.00       11166.00       10613.00       9929.000       8974.000
       7970.000       7260.000       6469.000       5759.000       4963.000
       4001.000       3138.000       2532.000       1864.000       1044.000
       586.0000      -129.0000      -1175.000      -2144.000      -3034.000
      -3583.000      -3958.000      -4422.000      -4898.000      -5016.000
      -5234.000      -5654.000      -6019.000      -6874.000      -7673.000
      -8152.000      -8228.000      -7839.000      -7994.000      -8028.000
      -7927.000      -8805.000      -9736.000      -10284.00      -10929.00
      -11873.00      -12660.00      -12814.00      -13016.00      -13446.00
      -13950.00      -14297.00      -14465.00      -15075.00      -15930.00
      -16739.00      -17589.00      -18559.00      -19477.00      -20008.00
      -20365.00      -20614.00      -20781.00      -20733.00      -20601.00
      -20696.00      -20573.00      -20881.00      -21401.00      -21220.00
      -21119.00      -20936.00      -20563.00      -20513.00      -20578.00
      -20301.00      -19805.00      -19829.00      -19731.00      -19004.00
      -18186.00      -17182.00      -16077.00      -15265.00      -14565.00
      -13533.00      -12518.00      -11934.00      -10989.00      -9726.000
      -8881.000      -7678.000      -6327.000      -5422.000      -4268.000
      -2882.000      -1462.000      -218.0000       1148.000       2448.000
       3192.000       4530.000       5905.000       6728.000       8089.000
       9568.000       10481.00       10922.00       11475.00       12315.00
       12809.00       13204.00       13803.00       14156.00       14331.00
       14576.00       14908.00       15368.00       15487.00       15197.00
       15210.00       15491.00       15505.00       15264.00       15079.00
       14905.00       14487.00       14296.00       14515.00       14299.00
       13800.00       13400.00       12822.00       12282.00       11797.00
       11377.00       10951.00       10468.00       10368.00       9919.000
       9057.000       8792.000       8591.000       8406.000       8378.000
       8102.000       7629.000       6770.000       6464.000       6882.000
       6630.000       6502.000       7070.000       7103.000       7053.000
       7443.000       7184.000       6359.000       6020.000       6125.000
       6279.000       6310.000       6478.000       6891.000       7074.000
       7433.000       8060.000       7985.000       7441.000       7534.000
       8048.000       8347.000       8367.000       8268.000       8059.000
       7524.000       7307.000       7257.000       6980.000       7013.000
       6818.000       6161.000       5659.000       5288.000       4495.000
       3547.000       3148.000       2906.000       2535.000       2106.000
       1542.000       891.0000       92.00000      -613.0000      -1210.000
      -1983.000      -2650.000      -3276.000      -3840.000      -4108.000
      -4671.000      -5450.000      -5817.000      -6094.000      -6798.000
      -7363.000      -7570.000      -8008.000      -8225.000      -7990.000
      -7996.000      -8361.000      -8365.000      -8089.000      -8215.000
      -8543.000      -8677.000      -8320.000      -7966.000      -7887.000
      -7367.000      -7009.000      -7180.000      -6982.000      -6474.000
      -6354.000      -6689.000      -6648.000      -6389.000      -6632.000
      -6701.000      -6438.000      -6570.000      -6955.000      -7154.000
      -7336.000      -7658.000      -8038.000      -8437.000      -8823.000
      -9197.000      -9674.000      -10125.00      -10378.00      -10651.00
      -10691.00      -10424.00      -10437.00      -10550.00      -10760.00
      -11150.00      -11401.00      -11791.00      -11932.00      -11851.00
      -12000.00      -11719.00      -11474.00      -11866.00      -11953.00
      -11863.00      -12220.00      -12323.00      -12153.00      -12121.00
      -12033.00      -11806.00      -11517.00      -11401.00      -10984.00
      -10356.00      -9983.000      -9142.000      -8600.000      -8567.000
      -7769.000      -6849.000      -6104.000      -5231.000      -4219.000
      -2837.000      -1834.000      -1021.000       177.0000       1001.000
       1870.000       2944.000       3588.000       4616.000       5858.000
       6403.000       7121.000       8236.000       9139.000       10225.00
       11310.00       11978.00       12602.00       13634.00       14317.00
       14163.00       14432.00       14732.00       14718.00       15342.00
       16032.00       16139.00       15971.00       16057.00       16432.00
       16865.00       17137.00       17140.00       17203.00       17188.00
       16797.00       16577.00       16595.00       16517.00       16618.00
       16517.00       16183.00       16179.00       16218.00       16129.00
       15985.00       16037.00       16016.00       15521.00       15265.00
       14985.00       14225.00       13625.00       13197.00       12664.00
       12118.00       11804.00       11729.00       11424.00       10721.00
       10125.00       9667.000       8721.000       7582.000       6867.000
       6156.000       5410.000       4851.000       4038.000       3293.000
       2698.000       1709.000       815.0000       85.00000      -1068.000
      -2268.000      -3094.000      -3836.000      -4529.000      -5062.000
      -5842.000      -6653.000      -6921.000      -7541.000      -8634.000
      -8905.000      -9236.000      -10033.00      -10086.00      -10215.00
      -10549.00      -10531.00      -10631.00      -10626.00      -10859.00
      -11373.00      -11534.00      -11994.00      -12199.00      -11531.00
      -11078.00      -10695.00      -10571.00      -10465.00      -9732.000
      -9329.000      -9078.000      -8833.000      -9005.000      -9178.000
      -8881.000      -8402.000      -8355.000      -8119.000      -7528.000
      -7364.000      -7190.000      -6769.000      -6597.000      -6524.000
      -6120.000      -5767.000      -5908.000      -5533.000      -5410.000
      -5783.000      -5253.000      -5554.000      -6157.000      -5872.000
      -5987.000      -5954.000      -5884.000      -5879.000      -5751.000
      -5978.000      -5894.000      -5755.000      -5662.000      -5317.000
      -5586.000      -5859.000      -5893.000      -6336.000      -6472.000
      -6395.000      -6572.000      -6703.000      -6773.000      -6948.000
