     0.05000000      -12345.00      -12345.00   4.437570e+09      -12345.00
   0.0005360000       659.9506      -230.0195      -12345.00      -12345.00
      -12345.00      -12345.00      -12345.00      -12345.00      -12345.00
      -12345.00      -12345.00      -12345.00      -12345.00      -12345.00
      -12345.00      -12345.00      -12345.00      -12345.00      -12345.00
      -12345.00      -12345.00      -12345.00      -12345.00      -12345.00
      -12345.00       31.09480       121.1908       40.00000       0.000000
       9.831100       126.5297      -12345.00       24.71000      -12345.00
      -12345.00      -12345.00      -12345.00      -12345.00      -12345.00
      -12345.00      -12345.00      -12345.00      -12345.00      -12345.00
       2416.499       347.5515       165.6619       21.73306      -12345.00
      -12345.00      -12345.00       0.000000       90.00000      -12345.00
      -12345.00      -12345.00      -12345.00      -12345.00      -12345.00
      -12345.00      -12345.00      -12345.00      -12345.00      -12345.00
      2019        39        11        58        58
        19         6    -12345    -12345     13200
    -12345    -12345    -12345    -12345    -12345
         1    -12345    -12345    -12345    -12345
    -12345    -12345    -12345    -12345    -12345
    -12345    -12345    -12345    -12345    -12345
    -12345    -12345    -12345    -12345    -12345
         1    -12345    -12345    -12345    -12345
SSE     Mindanao, Philip
00      -12345  -12345  
-12345  -12345  -12345  
-12345  -12345  -12345  
-12345  -12345  -12345  
-12345  -12345  -12345  
-12345  -12345  BH1     
IC      -12345  Streckei
[...]
       4493.000       4110.000       3683.000       3382.000       2969.000
       2548.000       2156.000       1551.000       772.0000       187.0000
      -493.0000      -1140.000      -1548.000      -2164.000      -2650.000
      -3041.000      -3444.000      -3701.000      -3853.000      -3929.000
      -4071.000      -4106.000      -4251.000      -4319.000      -4342.000
      -4517.000      -4662.000      -4984.000      -5097.000      -5237.000
      -5384.000      -5302.000      -5426.000      -5417.000      -5416.000
      -5421.000      -5218.000      -4961.000      -4679.000      -4282.000
      -3682.000      -3122.000      -2364.000      -1546.000      -713.0000
       181.0000       935.0000       1818.000       2594.000       3267.000
       3921.000       4549.000       5193.000       5456.000       5661.000
       6022.000       6193.000       6254.000       6259.000       6227.000
       6132.000       6015.000       5798.000       5396.000       5032.000
       4798.000       4471.000       4116.000       3893.000       3507.000
       3136.000       2814.000       2466.000       2191.000       1993.000
       1830.000       1541.000       1271.000       1128.000       980.0000
       734.0000       573.0000       247.0000      -181.0000      -466.0000
      -935.0000      -1302.000      -1679.000      -2131.000      -2403.000
      -2733.000      -2881.000      -3005.000      -3164.000      -3211.000
      -3369.000      -3446.000      -3578.000      -3614.000      -3495.000
      -3389.000      -3200.000      -3090.000      -2809.000      -2493.000
      -2181.000      -1758.000      -1542.000      -1135.000      -524.0000
      -54.00000       478.0000       1117.000       1670.000       2268.000
       3018.000       3613.000       4224.000       4865.000       5406.000
       6000.000       6377.000       6677.000       7083.000       7357.000
       7668.000       7978.000       8157.000       8333.000       8530.000
       8764.000       8985.000       9203.000       9368.000       9472.000
       9690.000       9791.000       9669.000       9608.000       9519.000
       9276.000       8956.000       8542.000       8081.000       7646.000
       7080.000       6393.000       5561.000       4786.000       4244.000
       3652.000       3069.000       2437.000       1818.000       1272.000
       697.0000       298.0000      -76.00000      -438.0000      -777.0000
      -1162.000      -1417.000      -1766.000      -2148.000      -2510.000
      -2849.000      -3046.000      -3167.000      -3236.000      -3404.000
      -3494.000      -3605.000      -3728.000      -3772.000      -3883.000
      -3963.000      -4108.000      -4231.000      -4277.000      -4214.000
      -4202.000      -4213.000      -4118.000      -3996.000      -3765.000
      -3533.000      -3208.000      -2893.000      -2593.000      -2310.000
      -2079.000      -1841.000      -1670.000      -1483.000      -1266.000
      -1003.000      -880.0000      -706.0000      -372.0000      -144.0000
       36.00000       162.0000       174.0000       206.0000       254.0000
       184.0000       26.00000      -220.0000      -431.0000      -774.0000
      -1189.000      -1551.000      -2032.000      -2294.000      -2537.000
      -2736.000      -2728.000      -2731.000      -2580.000      -2519.000
      -2440.000      -2074.000      -1702.000      -1342.000      -891.0000
      -500.0000      -174.0000       295.0000       709.0000       1079.000
       1498.000       1847.000       2220.000       2457.000       2717.000
       3041.000       3241.000       3566.000       3889.000       4188.000
       4485.000       4695.000       5016.000       5280.000       5457.000
       5611.000       5715.000       5977.000       6115.000       6179.000
       6304.000       6299.000       6260.000       6128.000       6039.000
       5839.000       5596.000       5477.000       5136.000       4839.000
       4541.000       4124.000       3775.000       3301.000       2840.000
       2458.000       2033.000       1723.000       1466.000       1264.000
       1119.000       953.0000       856.0000       676.0000       566.0000
       543.0000       498.0000       590.0000       536.0000       481.0000
       513.0000       345.0000       143.0000      -49.00000      -165.0000
      -221.0000      -349.0000      -563.0000      -901.0000      -1138.000
      -1358.000      -1665.000      -1805.000      -1987.000      -2211.000
      -2242.000      -2336.000      -2398.000      -2483.000      -2548.000
      -2398.000      -2424.000      -2575.000      -2761.000      -2939.000
      -3179.000      -3498.000      -3877.000      -4254.000      -4361.000
      -4518.000      -4737.000      -4891.000      -4941.000      -5002.000
      -5089.000      -4986.000      -5050.000      -5082.000      -4982.000
      -4883.000      -4758.000      -4792.000      -4653.000      -4435.000
      -4284.000      -4050.000      -3781.000      -3425.000      -2989.000
      -2578.000      -2181.000      -1715.000      -1343.000      -990.0000
      -590.0000      -154.0000       258.0000       508.0000       770.0000
       893.0000       1016.000       1259.000       1399.000       1530.000
       1638.000       1769.000       1844.000       1924.000       2158.000
       2339.000       2501.000       2829.000       3233.000       3376.000
       3459.000       3618.000       3743.000       4006.000       4247.000
       4474.000       4699.000       4832.000       4838.000       4790.000
       4747.000       4751.000       4889.000       4907.000       4844.000
       4858.000       4950.000       5050.000       5048.000       5006.000
       5053.000       5076.000       4931.000       4689.000       4414.000
       4139.000       3764.000       3357.000       3011.000       2617.000
       2220.000       1867.000       1502.000       1182.000       972.0000
       805.0000       629.0000       572.0000       676.0000       741.0000
       718.0000       861.0000       1145.000       1369.000       1613.000
       1786.000       1816.000       1737.000       1590.000       1491.000
       1371.000       1145.000       919.0000       743.0000       497.0000
       144.0000      -127.0000      -327.0000      -601.0000      -763.0000
      -868.0000      -1030.000      -1274.000      -1601.000      -1764.000
      -1905.000      -2009.000      -1922.000      -1899.000      -1839.000
      -1647.000      -1423.000      -1121.000      -667.0000      -265.0000
       17.00000       513.0000       911.0000       1309.000       1737.000
       1913.000       2271.000       2584.000       2788.000       2932.000
       2933.000       3042.000       3033.000       2938.000       2889.000
       2744.000       2491.000       2245.000       2031.000       1648.000
       1329.000       1192.000       1059.000       777.0000       431.0000
       366.0000       290.0000       215.0000       248.0000       342.0000
       491.0000       583.0000       846.0000       1035.000       1238.000
       1597.000       1780.000       2041.000       2381.000       2755.000
       3178.000       3387.000       3642.000       3973.000       4231.000
       4490.000       4721.000       4886.000       4852.000       4665.000
       4476.000       4429.000       4388.000       4206.000       4080.000
       3987.000       3815.000       3740.000       3776.000       3671.000
       3608.000       3653.000       3490.000       3283.000       3180.000
       3045.000       2872.000       2731.000       2669.000       2513.000
       2295.000       2108.000       1843.000       1531.000       1188.000
       760.0000       329.0000      -99.00000      -600.0000      -980.0000
      -1360.000      -1769.000      -2058.000      -2317.000      -2497.000
      -2607.000      -2708.000      -2721.000      -2688.000      -2710.000
      -2598.000      -2523.000      -2483.000      -2297.000      -2180.000
      -2044.000      -1916.000      -1825.000      -1686.000      -1542.000
      -1355.000      -1225.000      -1026.000      -752.0000      -692.0000
      -646.0000      -553.0000      -411.0000      -268.0000      -188.0000
      -15.00000       2.000000       11.00000       56.00000       89.00000
       161.0000       90.00000       140.0000       208.0000       245.0000
       327.0000       462.0000       651.0000       731.0000       823.0000
       931.0000       1003.000       1053.000       1227.000       1303.000
       1096.000       907.0000       798.0000       803.0000       821.0000
       845.0000       892.0000       887.0000       928.0000       854.0000
       884.0000       890.0000       667.0000       702.0000       702.0000
       584.0000       478.0000       278.0000       282.0000       309.0000
       277.0000       457.0000       664.0000       693.0000       632.0000
       776.0000       906.0000       884.0000       922.0000       866.0000
       843.0000       913.0000       1045.000       1224.000       1415.000
       1634.000       1782.000       1941.000       2121.000       2242.000
       2408.000       2481.000       2589.000       2938.000       3095.000
       3180.000       3277.000       3304.000       3361.000       3321.000
       3503.000       3599.000       3591.000       3820.000       3832.000
       3937.000       4127.000       4171.000       4303.000       4404.000
       4495.000       4534.000       4441.000       4319.000       4269.000
       4207.000       4197.000       4186.000       4050.000       3929.000
       3817.000       3676.000       3608.000       3704.000       3760.000
       3755.000       3707.000       3591.000       3547.000       3484.000
       3386.000       3305.000       3326.000       3364.000       3323.000
       3463.000       3547.000       3587.000       3827.000       4217.000
       4555.000       4808.000       5326.000       5715.000       6100.000
       6629.000       7159.000       7932.000       8691.000       9492.000
       10305.00       11188.00       12071.00       12851.00       13735.00
       14589.00       15454.00       16221.00       16977.00       17605.00
       18160.00       18854.00       19292.00       19687.00       20009.00
       20208.00       20274.00       20026.00       19794.00       19337.00
       18666.00       17949.00       17143.00       16331.00       15374.00
       14436.00       13361.00       12162.00       11119.00       10012.00
       8708.000       7480.000       6402.000       5158.000       3834.000
       2427.000       975.0000      -366.0000      -1629.000      -2781.000
      -3875.000      -5103.000      -6459.000      -7639.000      -8874.000
      -10213.00      -11410.00      -12587.00      -13950.00      -15357.00
      -16635.00      -17991.00      -19186.00      -20337.00      -21587.00
      -22716.00      -23857.00      -25037.00      -26250.00      -27544.00
      -28888.00      -30085.00      -31218.00      -32294.00      -33309.00
      -34226.00      -34930.00      -35462.00      -35639.00      -35706.00
      -35552.00      -35044.00      -34466.00      -33697.00      -32766.00
      -31688.00      -30379.00      -28970.00      -27622.00      -26262.00
      -24775.00      -23306.00      -21797.00      -20099.00      -18427.00
      -16822.00      -15324.00      -13910.00      -12620.00      -11536.00
      -10428.00      -9462.000      -8591.000      -7743.000      -7058.000
      -6519.000      -6177.000      -5949.000      -5934.000      -6104.000
      -6327.000      -6709.000      -7272.000      -8081.000      -9006.000
      -10060.00      -11263.00      -12405.00      -13634.00      -14997.00
      -16549.00      -18150.00      -19763.00      -21406.00      -22931.00
      -24519.00      -26097.00      -27689.00      -29163.00      -30576.00
      -31877.00      -32927.00      -33981.00      -34795.00      -35437.00
      -35842.00      -36071.00      -36286.00      -36206.00      -36035.00
      -35704.00      -35136.00      -34517.00      -33673.00      -32683.00
      -31709.00      -30684.00      -29460.00      -28083.00      -26695.00
      -25191.00      -23614.00      -21917.00      -20120.00      -18149.00
      -15873.00      -13510.00      -10860.00      -7999.000      -5024.000
      -1835.000       1325.000       4703.000       8241.000       11823.00
       15696.00       19577.00       23454.00       27399.00       31463.00
       35671.00       39841.00       44062.00       48111.00       52007.00
       55971.00       59853.00       63518.00       66958.00       70327.00
       73476.00       76294.00       78954.00       81283.00       83317.00
       85172.00       86732.00       88087.00       89166.00       89937.00
       90491.00       90649.00       90278.00       89720.00       88968.00
       87846.00       86484.00       84857.00       83202.00       81282.00
       78978.00       76685.00       74092.00       71282.00       68423.00
       65525.00       62637.00       59594.00       56740.00       53855.00
       50908.00       48113.00       45207.00       42274.00       39255.00
       36340.00       33406.00       30445.00       27769.00       24974.00
       22141.00       19414.00       16700.00       14061.00       11456.00
       8980.000       6597.000       4386.000       2239.000       91.00000
      -1794.000      -3642.000      -5330.000      -6819.000      -8290.000
      -9568.000      -10645.00      -11620.00      -12567.00      -13239.00
      -13798.00      -14396.00      -15003.00      -15546.00      -15786.00
      -16176.00      -16574.00      -16880.00      -17266.00      -17549.00
      -17990.00      -18324.00      -18531.00      -18989.00      -19383.00
      -19794.00      -20416.00      -20981.00      -21527.00      -22208.00
      -22779.00      -23324.00      -23853.00      -24210.00      -24823.00
      -25340.00      -25653.00      -25999.00      -26262.00      -26363.00
      -26228.00      -26094.00      -25831.00      -25416.00      -24820.00
      -24167.00      -23608.00      -22966.00      -22323.00      -21704.00
      -21022.00      -20264.00      -19558.00      -18801.00      -18026.00
      -17303.00      -16418.00      -15604.00      -14808.00      -13913.00
      -13017.00      -12027.00      -11096.00      -10148.00      -9221.000
      -8308.000      -7262.000      -6082.000      -4722.000      -3364.000
      -1951.000      -425.0000       996.0000       2600.000       4365.000
       6011.000       7695.000       9452.000       11203.00       12928.00
       14643.00       16291.00       17991.00       19521.00       20796.00
       22068.00       23219.00       24219.00       25036.00       25689.00
       26096.00       26349.00       26381.00       25922.00       25371.00
       24685.00       23693.00       22625.00       21231.00       19643.00
       17976.00       15970.00       13924.00       11824.00       9454.000
       7070.000       4706.000       2270.000      -208.0000      -2812.000
      -5464.000      -8053.000      -10712.00      -13428.00      -16117.00
      -18929.00      -21718.00      -24389.00      -27043.00      -29710.00
      -32430.00      -35114.00      -37770.00      -40387.00      -42999.00
      -45451.00      -47610.00      -49610.00      -51548.00      -53283.00
      -54669.00      -55888.00      -56831.00      -57512.00      -58032.00
      -58226.00      -58294.00      -58170.00      -57752.00      -57172.00
      -56375.00      -55512.00      -54519.00      -53205.00      -51722.00
      -50157.00      -48484.00      -46563.00      -44318.00      -41990.00
      -39461.00      -36823.00      -34184.00      -31453.00      -28742.00
      -25787.00      -22779.00      -19795.00      -16896.00      -14228.00
      -11465.00      -8762.000      -6278.000      -3963.000      -1759.000
       410.0000       2363.000       4203.000       6036.000       7634.000
       9229.000       10770.00       12108.00       13371.00       14479.00
       15456.00       16371.00       17344.00       18219.00       18905.00
       19434.00       19893.00       20365.00       20707.00       20929.00
       21053.00       21133.00       21212.00       21119.00       20765.00
       20437.00       20058.00       19701.00       19351.00       18855.00
       18617.00       18317.00       17876.00       17490.00       17192.00
       17003.00       16764.00       16547.00       16238.00       15901.00
       15472.00       15125.00       14835.00       14639.00       14518.00
       14341.00       14428.00       14367.00       14345.00       14355.00
       14352.00       14468.00       14604.00       14637.00       14572.00
       14603.00       14476.00       14371.00       14225.00       14220.00
       14153.00       13855.00       13392.00       12840.00       12366.00
       11850.00       11612.00       11308.00       10933.00       10592.00
       10131.00       9697.000       9265.000       9006.000       8899.000
       8626.000       8407.000       8264.000       8014.000       7910.000
       7821.000       7832.000       7854.000       7619.000       7370.000
       7148.000       7008.000       6862.000       6554.000       6252.000
       5913.000       5665.000       5502.000       5189.000       4973.000
       4665.000       4383.000       4180.000       3754.000       3356.000
       3048.000       2768.000       2366.000       1831.000       1216.000
       678.0000       58.00000      -745.0000      -1546.000      -2288.000
      -3101.000      -4123.000      -5050.000      -6014.000      -7057.000
      -8202.000      -9316.000      -10160.00      -11213.00      -12351.00
      -13340.00      -14301.00      -15155.00      -15978.00      -16712.00
      -17463.00      -18159.00      -18767.00      -19451.00      -19934.00
      -20350.00      -20663.00      -20909.00      -21120.00      -21250.00
      -21371.00      -21233.00      -21157.00      -21059.00      -20799.00
      -20501.00      -20245.00      -19987.00      -19440.00      -18852.00
      -18221.00      -17547.00      -16852.00      -16029.00      -15205.00
      -14221.00      -13035.00      -11813.00      -10426.00      -8835.000
      -7222.000      -5680.000      -4011.000      -2120.000      -109.0000
