     0.02500000      -12345.00      -12345.00   2.458930e+09      -12345.00
   0.0005390000       659.9755      -395.0196      -12345.00      -12345.00
      -12345.00      -12345.00      -12345.00      -12345.00      -12345.00
      -12345.00      -12345.00      -12345.00      -12345.00      -12345.00
      -12345.00      -12345.00      -12345.00      -12345.00      -12345.00
      -12345.00      -12345.00      -12345.00      -12345.00      -12345.00
      -12345.00       9.287300       167.5369       0.000000       6.000000
       9.831100       126.5297      -12345.00       24.71000      -12345.00
      -12345.00      -12345.00      -12345.00      -12345.00      -12345.00
      -12345.00      -12345.00      -12345.00      -12345.00      -12345.00
       4494.740       87.20193       274.2630       40.42395      -12345.00
      -12345.00      -12345.00       25.70000       90.00000      -12345.00
      -12345.00      -12345.00      -12345.00      -12345.00      -12345.00
      -12345.00      -12345.00      -12345.00      -12345.00      -12345.00
      2019        39        12         1        43
        19         6    -12345    -12345     26400
    -12345    -12345    -12345    -12345    -12345
         1    -12345    -12345    -12345    -12345
    -12345    -12345    -12345    -12345    -12345
    -12345    -12345    -12345    -12345    -12345
    -12345    -12345    -12345    -12345    -12345
         1    -12345    -12345    -12345    -12345
KWJN    Mindanao, Philip
00      -12345  -12345  
-12345  -12345  -12345  
-12345  -12345  -12345  
-12345  -12345  -12345  
-12345  -12345  -12345  
-12345  -12345  BH2     
II      -12345  Streckei
[...]
       11008.00       11497.00       12819.00       14061.00       13850.00
       14550.00       13953.00       13789.00       15571.00       15122.00
       13721.00       13602.00       14327.00       14746.00       13434.00
       13483.00       14518.00       12664.00       10843.00       11963.00
       12657.00       10578.00       11849.00       14231.00       10177.00
       9739.000       12441.00       10551.00       11925.00       13490.00
       11877.00       12647.00       13823.00       13557.00       13357.00
       13318.00       12824.00       12843.00       11579.00       11897.00
       13413.00       11656.00       12053.00       9917.000       7922.000
       11243.00       9296.000       7685.000       9491.000       8925.000
       8351.000       7194.000       6445.000       7724.000       6261.000
       3854.000       4753.000       3672.000       3164.000       4194.000
       4459.000       5597.000       3181.000       1600.000       2411.000
       3429.000       4328.000       2284.000       1998.000       2879.000
       2394.000       384.0000       372.0000       2998.000       466.0000
      -1588.000       383.0000       840.0000      -1313.000      -3306.000
      -2949.000      -5010.000      -6362.000      -5160.000      -7014.000
      -7820.000      -7000.000      -8457.000      -9505.000      -9221.000
      -9593.000      -8812.000      -7884.000      -8812.000      -9783.000
      -10320.00      -9229.000      -8419.000      -9227.000      -11115.00
      -11977.00      -9304.000      -8198.000      -10083.00      -11565.00
      -10439.00      -9142.000      -11078.00      -12540.00      -12315.00
      -12375.00      -13390.00      -13699.00      -11922.00      -11140.00
      -13035.00      -14701.00      -13459.00      -12744.00      -12515.00
      -10469.00      -9419.000      -9155.000      -9258.000      -9873.000
      -9427.000      -7508.000      -6172.000      -4760.000      -2547.000
      -1223.000       218.0000       2250.000       4822.000       5947.000
       5921.000       6924.000       8274.000       10704.00       11996.00
       11891.00       13201.00       13924.00       15795.00       18378.00
       17739.00       17677.00       20388.00       21682.00       21286.00
       23177.00       24060.00       23286.00       25443.00       27584.00
       27155.00       26061.00       26850.00       27617.00       25779.00
       25269.00       26417.00       26302.00       25071.00       23765.00
       23850.00       25038.00       25157.00       23705.00       24826.00
       26086.00       24351.00       24865.00       25119.00       24120.00
       23998.00       23163.00       23740.00       25968.00       26275.00
       23108.00       20559.00       21428.00       21806.00       19822.00
       18652.00       17811.00       18058.00       18006.00       14283.00
       12421.00       12730.00       12897.00       11459.00       9796.000
       10473.00       10436.00       9705.000       7522.000       6678.000
       6707.000       5315.000       5574.000       5443.000       3730.000
       2215.000       3874.000       5706.000       4230.000       2956.000
       3153.000       3171.000       1076.000      -86.00000      -552.0000
      -2652.000      -1985.000      -281.0000      -600.0000      -162.0000
       2128.000       2641.000       2002.000       1842.000      -876.0000
      -1673.000      -954.0000      -972.0000      -1297.000      -2665.000
      -1030.000      -421.0000      -685.0000      -230.0000      -296.0000
       1679.000       1281.000       1550.000       2311.000       1381.000
       3533.000       3655.000       4199.000       6027.000       4188.000
       5352.000       8094.000       6944.000       5487.000       7050.000
       8298.000       5983.000       6352.000       6698.000       6693.000
       11573.00       9435.000       6847.000       10327.00       10076.00
       10907.00       12722.00       14039.00       14126.00       12635.00
       14904.00       16249.00       15721.00       17087.00       16801.00
       16947.00       18435.00       17825.00       20082.00       22503.00
       19627.00       18140.00       18885.00       19494.00       21193.00
       22181.00       21595.00       20673.00       20195.00       21188.00
       23585.00       22780.00       19839.00       20017.00       20814.00
       19503.00       17618.00       18375.00       21381.00       22354.00
       19748.00       18945.00       20027.00       15986.00       13215.00
       14341.00       13614.00       13461.00       10864.00       7217.000
       9367.000       10862.00       9980.000       10143.00       7834.000
       7420.000       9177.000       7147.000       6706.000       6765.000
       5805.000       8877.000       11058.00       10507.00       8596.000
       6785.000       8976.000       10704.00       9787.000       9392.000
       11204.00       11731.00       10664.00       12478.00       12558.00
       12240.00       12097.00       11573.00       14717.00       16069.00
       15665.00       14242.00       12991.00       15987.00       19114.00
       19104.00       18936.00       21016.00       19350.00       17668.00
       18957.00       18102.00       19049.00       19078.00       18570.00
       18991.00       17550.00       18003.00       17777.00       16510.00
       17394.00       16791.00       14497.00       14640.00       14465.00
       12177.00       12279.00       12243.00       8816.000       7189.000
       8365.000       8579.000       8611.000       6917.000       5602.000
       7450.000       6410.000       5369.000       6563.000       4812.000
       2303.000       2631.000       4603.000       4241.000       1606.000
       440.0000       1820.000       3889.000       2247.000       182.0000
       3999.000       3584.000      -1001.000       1005.000       2271.000
       2634.000       4967.000       5841.000       6701.000       6498.000
       7092.000       6983.000       5267.000       6481.000       7652.000
       5624.000       5641.000       7706.000       6654.000       6735.000
       8172.000       7169.000       5660.000       5409.000       6727.000
       6947.000       4051.000       2148.000       4089.000       5661.000
       7078.000       7403.000       3886.000       3306.000       6330.000
       8227.000       6686.000       5362.000       7168.000       4838.000
       4708.000       7851.000       4518.000       3834.000       6038.000
       4856.000       5188.000       3764.000       677.0000       2301.000
       2224.000      -2705.000      -4724.000      -4029.000      -6066.000
      -7595.000      -4758.000      -3491.000      -6250.000      -8559.000
      -7837.000      -5850.000      -6211.000      -6189.000      -5813.000
      -7799.000      -6921.000      -4494.000      -2570.000       778.0000
       36.00000      -2552.000      -2354.000      -2307.000      -1319.000
       643.0000       1618.000       2026.000       1429.000       1317.000
       2713.000       5240.000       7574.000       5665.000       5228.000
       9149.000       9374.000       9146.000       9395.000       8177.000
       9817.000       11617.00       11252.00       8459.000       8430.000
       11981.00       12221.00       13289.00       12706.00       9321.000
       10036.00       9570.000       8436.000       8873.000       6845.000
       6639.000       8402.000       7794.000       7252.000       8589.000
       8283.000       7179.000       8864.000       8486.000       8171.000
       11042.00       10235.00       9756.000       12069.00       12050.00
       10513.00       8676.000       10184.00       13215.00       11704.00
       11585.00       13334.00       12680.00       12792.00       12032.00
       10422.00       10876.00       13101.00       14003.00       13230.00
       13865.00       14206.00       15499.00       16268.00       13577.00
       12111.00       14458.00       18882.00       19310.00       17558.00
       18525.00       19100.00       18816.00       18060.00       17008.00
       17090.00       18726.00       18656.00       17486.00       18177.00
       19744.00       19395.00       14791.00       14196.00       17734.00
       17751.00       18518.00       19112.00       17799.00       18272.00
       18785.00       19775.00       21031.00       19936.00       19006.00
       19364.00       19419.00       19541.00       19972.00       20204.00
       21357.00       20864.00       17708.00       17438.00       18365.00
       17558.00       18126.00       18752.00       18088.00       17612.00
       17193.00       17048.00       16018.00       14868.00       13689.00
       11859.00       12256.00       11729.00       9605.000       9545.000
       8868.000       6476.000       6124.000       6737.000       6050.000
       5443.000       4252.000       4363.000       4585.000       4056.000
       5542.000       6178.000       5100.000       4918.000       7550.000
       10399.00       9094.000       8472.000       11001.00       11629.00
       11307.00       10140.00       11176.00       13384.00       12615.00
       14109.00       14989.00       16046.00       17821.00       17817.00
       18630.00       17970.00       17531.00       19289.00       22427.00
       23614.00       23508.00       24113.00       23513.00       25215.00
       25554.00       24065.00       26043.00       26588.00       25943.00
       25909.00       26950.00       28901.00       26557.00       24583.00
       24313.00       23857.00       25982.00       24394.00       22174.00
       20940.00       16141.00       16295.00       17434.00       17268.00
       18832.00       15448.00       14607.00       18471.00       18226.00
       16613.00       17371.00       16803.00       16191.00       16938.00
       14293.00       14454.00       18148.00       17733.00       15908.00
       13766.00       14426.00       16205.00       14218.00       14624.00
       15224.00       14854.00       14241.00       11666.00       13517.00
       16480.00       16815.00       18508.00       20060.00       19254.00
       17610.00       17897.00       19129.00       19936.00       22105.00
       23198.00       23190.00       24490.00       25418.00       27204.00
       26478.00       24775.00       27990.00       27253.00       23926.00
       25954.00       25815.00       23727.00       25227.00       26694.00
       27862.00       27897.00       26134.00       27437.00       26802.00
       23755.00       27103.00       29272.00       28698.00       29904.00
       28222.00       26712.00       25450.00       27217.00       29970.00
       26000.00       23602.00       23938.00       22984.00       21492.00
       21467.00       22384.00       20562.00       19536.00       18634.00
       17000.00       17007.00       17490.00       17725.00       15910.00
       13968.00       13317.00       13946.00       14342.00       12754.00
       13218.00       13184.00       10870.00       9670.000       9283.000
       8394.000       6248.000       5223.000       6380.000       6180.000
       3511.000       3692.000       5257.000       3625.000       1835.000
       959.0000       688.0000      -859.0000      -3631.000      -4306.000
      -4927.000      -5820.000      -4877.000      -5380.000      -8018.000
      -8664.000      -6943.000      -6275.000      -8168.000      -9721.000
      -10698.00      -12234.00      -12459.00      -12326.00      -13066.00
      -14520.00      -15434.00      -15753.00      -18211.00      -20540.00
      -21211.00      -21359.00      -21193.00      -23828.00      -26097.00
      -25191.00      -25429.00      -26087.00      -25966.00      -27362.00
      -28118.00      -26393.00      -26998.00      -29080.00      -29450.00
      -30077.00      -30815.00      -31455.00      -30059.00      -27822.00
      -30372.00      -32739.00      -31133.00      -30056.00      -28520.00
      -27531.00      -28237.00      -28506.00      -28543.00      -26457.00
      -23582.00      -22324.00      -21862.00      -20237.00      -16904.00
      -15845.00      -16479.00      -16120.00      -13738.00      -9386.000
      -7709.000      -7334.000      -4987.000      -3738.000      -1662.000
       1925.000       3975.000       5112.000       5040.000       7231.000
       10287.00       10574.00       12660.00       14852.00       13272.00
       13286.00       18732.00       20616.00       18815.00       20046.00
       22579.00       25608.00       26902.00       28312.00       29858.00
       30404.00       32392.00       34812.00       36254.00       36331.00
       37976.00       39589.00       39520.00       40925.00       43132.00
       44605.00       44240.00       41646.00       39618.00       41092.00
       44033.00       44305.00       42985.00       42710.00       43001.00
       43352.00       42070.00       38932.00       38341.00       39099.00
       36777.00       34135.00       32100.00       30740.00       31874.00
       32240.00       30881.00       29664.00       29651.00       29860.00
       27336.00       24730.00       25882.00       26952.00       25085.00
       22297.00       19964.00       20499.00       21565.00       20118.00
       19302.00       19130.00       19298.00       18885.00       16182.00
       15548.00       16349.00       14551.00       14953.00       17796.00
       14869.00       11182.00       14782.00       18113.00       16451.00
       14566.00       13823.00       13290.00       14895.00       17331.00
       16619.00       13643.00       13727.00       16557.00       15746.00
       13692.00       14637.00       14165.00       13113.00       14245.00
       13480.00       11444.00       9332.000       8262.000       10655.00
       12538.00       12128.00       10732.00       10186.00       11061.00
       10854.00       11207.00       11753.00       12199.00       14427.00
       14427.00       14439.00       16468.00       16625.00       15542.00
       14045.00       14069.00       14219.00       13881.00       15445.00
       16030.00       15174.00       14765.00       14919.00       15111.00
       16432.00       18015.00       16859.00       16402.00       17603.00
       17088.00       17621.00       18399.00       17125.00       17511.00
       17844.00       17378.00       19205.00       19862.00       18504.00
       18768.00       19479.00       18415.00       17125.00       16763.00
       15732.00       15630.00       17458.00       19111.00       19395.00
       19138.00       19732.00       18418.00       16324.00       15082.00
       15337.00       17450.00       16234.00       14290.00       14317.00
       15152.00       16473.00       15275.00       13130.00       12767.00
       15090.00       16232.00       13927.00       12919.00       13400.00
       12699.00       11751.00       13011.00       12527.00       9471.000
       9930.000       11361.00       9150.000       7334.000       8928.000
       9274.000       7749.000       5423.000       2734.000       2544.000
       3258.000       4220.000       3964.000       1136.000      -1558.000
      -1451.000      -144.0000      -1800.000      -1798.000       1393.000
       812.0000      -1866.000      -928.0000      -935.0000      -4944.000
      -5305.000      -1115.000       708.0000      -236.0000       76.00000
       1951.000       1836.000      -254.0000       2315.000       5620.000
       3826.000       3970.000       4942.000       5693.000       6103.000
       4447.000       7316.000       10290.00       9717.000       9072.000
       9162.000       11198.00       12675.00       11767.00       8399.000
       7110.000       11261.00       14866.00       13966.00       13247.00
       13916.00       13610.00       15229.00       16945.00       16752.00
       16857.00       17384.00       20259.00       21170.00       17343.00
       19846.00       23211.00       21469.00       24357.00       22617.00
       17908.00       19705.00       19685.00       18996.00       19696.00
       20145.00       17687.00       14306.00       17087.00       18988.00
       18669.00       17722.00       13450.00       14419.00       18602.00
       16974.00       15388.00       16026.00       16256.00       18998.00
       20307.00       20306.00       21396.00       21012.00       21943.00
       22639.00       22314.00       21799.00       21321.00       23126.00
       22546.00       21452.00       22377.00       21282.00       22616.00
       24222.00       20951.00       18114.00       18024.00       20035.00
       20929.00       18200.00       17015.00       17663.00       17199.00
       17210.00       14996.00       13187.00       15184.00       12571.00
       8679.000       10233.00       11764.00       12359.00       12010.00
       9675.000       7455.000       5594.000       5767.000       8130.000
       7201.000       2234.000       413.0000       1795.000       233.0000
      -774.0000       1459.000       3281.000       1640.000      -1627.000
      -1750.000      -1499.000      -609.0000      -2297.000      -5159.000
      -2885.000      -6321.000      -11445.00      -10726.00      -10533.00
      -9848.000      -10353.00      -12957.00      -12674.00      -14070.00
      -17560.00      -15649.00      -14953.00      -17411.00      -18388.00
      -20365.00      -20576.00      -20043.00      -21778.00      -19731.00
      -16459.00      -16372.00      -16715.00      -19683.00      -18747.00
      -14738.00      -16367.00      -15886.00      -13262.00      -12954.00
      -12744.00      -11049.00      -8856.000      -8644.000      -8809.000
      -8712.000      -8116.000      -9034.000      -10079.00      -7090.000
      -6074.000      -9328.000      -9754.000      -5809.000      -5135.000
      -7539.000      -6803.000      -6226.000      -5962.000      -7087.000
      -8811.000      -6059.000      -4762.000      -5202.000      -5719.000
      -5215.000      -3568.000      -4614.000      -2655.000      -2273.000
      -5254.000      -5782.000      -5670.000      -2219.000      -2323.000
      -4570.000      -2025.000      -1062.000       12.00000       543.0000
       82.00000       2256.000       3837.000       5446.000       7338.000
