     0.05000000      -12345.00      -12345.00   3.717140e+09      -12345.00
   0.0005380000       659.9506      -623.0195      -12345.00      -12345.00
      -12345.00      -12345.00      -12345.00      -12345.00      -12345.00
      -12345.00      -12345.00      -12345.00      -12345.00      -12345.00
      -12345.00      -12345.00      -12345.00      -12345.00      -12345.00
      -12345.00      -12345.00      -12345.00      -12345.00      -12345.00
      -12345.00      -4.673700       55.47920       475.0000       91.00000
       9.831100       126.5297      -12345.00       24.71000      -12345.00
      -12345.00      -12345.00      -12345.00      -12345.00      -12345.00
      -12345.00      -12345.00      -12345.00      -12345.00      -12345.00
       8030.909       261.8699       78.18497       72.22691      -12345.00
      -12345.00      -12345.00       242.4000       90.00000      -12345.00
      -12345.00      -12345.00      -12345.00      -12345.00      -12345.00
      -12345.00      -12345.00      -12345.00      -12345.00      -12345.00
      2019        39        12         5        31
        19         6    -12345    -12345     13200
    -12345    -12345    -12345    -12345    -12345
         1    -12345    -12345    -12345    -12345
    -12345    -12345    -12345    -12345    -12345
    -12345    -12345    -12345    -12345    -12345
    -12345    -12345    -12345    -12345    -12345
         1    -12345    -12345    -12345    -12345
MSEY    Mindanao, Philip
00      -12345  -12345  
-12345  -12345  -12345  
-12345  -12345  -12345  
-12345  -12345  -12345  
-12345  -12345  -12345  
-12345  -12345  BH1     
II      -12345  Geotech 
[...]
      -1201289.      -1201228.      -1201212.      -1201371.      -1201680.
      -1201891.      -1201943.      -1201989.      -1202191.      -1202511.
      -1202654.      -1202678.      -1202717.      -1202749.      -1202704.
      -1202527.      -1202410.      -1202502.      -1202727.      -1202906.
      -1203018.      -1203187.      -1203374.      -1203405.      -1203253.
      -1203048.      -1202921.      -1202786.      -1202421.      -1201900.
      -1201449.      -1201101.      -1200744.      -1200317.      -1199867.
      -1199509.      -1199217.      -1198901.      -1198555.      -1198257.
      -1198059.      -1197818.      -1197513.      -1197240.      -1197102.
      -1197109.      -1197105.      -1197043.      -1197052.      -1197193.
      -1197325.      -1197351.      -1197306.      -1197217.      -1197065.
      -1196928.      -1196803.      -1196760.      -1196913.      -1197132.
      -1197306.      -1197437.      -1197646.      -1197957.      -1198219.
      -1198250.      -1198030.      -1197780.      -1197614.      -1197486.
      -1197345.      -1197247.      -1197217.      -1197262.      -1197343.
      -1197384.      -1197437.      -1197505.      -1197616.      -1197674.
      -1197631.      -1197644.      -1197705.      -1197785.      -1197855.
      -1197869.      -1197883.      -1197969.      -1198168.      -1198446.
      -1198797.      -1199189.      -1199510.      -1199728.      -1199834.
      -1199920.      -1200062.      -1200187.      -1200336.      -1200551.
      -1200796.      -1200970.      -1200979.      -1200957.      -1201024.
      -1201170.      -1201294.      -1201282.      -1201240.      -1201295.
      -1201347.      -1201311.      -1201241.      -1201174.      -1201116.
      -1201017.      -1200857.      -1200707.      -1200607.      -1200505.
      -1200346.      -1200205.      -1200161.      -1200210.      -1200321.
      -1200415.      -1200535.      -1200733.      -1200984.      -1201253.
      -1201457.      -1201600.      -1201668.      -1201626.      -1201521.
      -1201411.      -1201361.      -1201325.      -1201176.      -1200937.
      -1200723.      -1200617.      -1200641.      -1200663.      -1200623.
      -1200667.      -1200771.      -1200840.      -1200893.      -1200905.
      -1200918.      -1200962.      -1200992.      -1200999.      -1200979.
      -1200971.      -1200952.      -1200831.      -1200610.      -1200383.
      -1200219.      -1200106.      -1199972.      -1199758.      -1199513.
      -1199294.      -1199155.      -1199090.      -1198990.      -1198866.
      -1198730.      -1198523.      -1198298.      -1198063.      -1197773.
      -1197507.      -1197244.      -1196984.      -1196812.      -1196656.
      -1196474.      -1196314.      -1196249.      -1196282.      -1196339.
      -1196420.      -1196532.      -1196756.      -1197094.      -1197399.
      -1197596.      -1197654.      -1197692.      -1197767.      -1197798.
      -1197857.      -1198021.      -1198298.      -1198649.      -1198995.
      -1199434.      -1200016.      -1200631.      -1201148.      -1201540.
      -1201940.      -1202287.      -1202516.      -1202655.      -1202761.
      -1202927.      -1203085.      -1203151.      -1203065.      -1202908.
      -1202777.      -1202637.      -1202446.      -1202159.      -1201855.
      -1201622.      -1201496.      -1201402.      -1201291.      -1201193.
      -1201064.      -1200933.      -1200814.      -1200699.      -1200568.
      -1200410.      -1200291.      -1200252.      -1200330.      -1200445.
      -1200499.      -1200509.      -1200486.      -1200447.      -1200365.
      -1200189.      -1199945.      -1199737.      -1199606.      -1199523.
      -1199430.      -1199315.      -1199273.      -1199293.      -1199280.
      -1199212.      -1199141.      -1199066.      -1198963.      -1198854.
      -1198724.      -1198604.      -1198505.      -1198364.      -1198161.
      -1197892.      -1197517.      -1197116.      -1196839.      -1196687.
      -1196602.      -1196560.      -1196579.      -1196654.      -1196781.
      -1197015.      -1197357.      -1197699.      -1197998.      -1198348.
      -1198846.      -1199481.      -1200124.      -1200633.      -1200971.
      -1201234.      -1201448.      -1201496.      -1201361.      -1201166.
      -1200975.      -1200709.      -1200337.      -1199965.      -1199630.
      -1199338.      -1199047.      -1198699.      -1198435.      -1198314.
      -1198154.      -1197836.      -1197535.      -1197376.      -1197319.
      -1197290.      -1197118.      -1196853.      -1196671.      -1196678.
      -1196825.      -1196952.      -1197076.      -1197217.      -1197386.
      -1197545.      -1197648.      -1197795.      -1198004.      -1198253.
      -1198524.      -1198805.      -1199126.      -1199460.      -1199785.
      -1200082.      -1200367.      -1200652.      -1200913.      -1201189.
      -1201510.      -1201870.      -1202229.      -1202488.      -1202712.
      -1202968.      -1203220.      -1203478.      -1203675.      -1203861.
      -1204105.      -1204383.      -1204627.      -1204725.      -1204676.
      -1204509.      -1204312.      -1204068.      -1203733.      -1203366.
      -1202976.      -1202590.      -1202233.      -1201907.      -1201543.
      -1201125.      -1200639.      -1200094.      -1199624.      -1199209.
      -1198776.      -1198297.      -1197869.      -1197598.      -1197353.
      -1197028.      -1196626.      -1196199.      -1195883.      -1195730.
      -1195607.      -1195480.      -1195466.      -1195641.      -1195937.
      -1196177.      -1196374.      -1196613.      -1196884.      -1197118.
      -1197258.      -1197337.      -1197447.      -1197642.      -1197837.
      -1198066.      -1198363.      -1198640.      -1198907.      -1199118.
      -1199293.      -1199512.      -1199765.      -1199931.      -1199945.
      -1199955.      -1199988.      -1199941.      -1199735.      -1199400.
      -1199067.      -1198817.      -1198560.      -1198177.      -1197798.
      -1197536.      -1197422.      -1197405.      -1197344.      -1197244.
      -1197164.      -1197123.      -1197130.      -1197224.      -1197414.
      -1197662.      -1197932.      -1198245.      -1198629.      -1199025.
      -1199372.      -1199615.      -1199816.      -1200088.      -1200388.
      -1200646.      -1200883.      -1201077.      -1201263.      -1201511.
      -1201686.      -1201788.      -1201919.      -1202044.      -1202170.
      -1202205.      -1202186.      -1202225.      -1202231.      -1202097.
      -1201793.      -1201453.      -1201175.      -1200897.      -1200526.
      -1200085.      -1199656.      -1199273.      -1198935.      -1198646.
      -1198459.      -1198403.      -1198395.      -1198345.      -1198290.
      -1198326.      -1198462.      -1198639.      -1198805.      -1198980.
      -1199243.      -1199631.      -1200063.      -1200426.      -1200701.
      -1200944.      -1201197.      -1201425.      -1201530.      -1201549.
      -1201565.      -1201514.      -1201399.      -1201278.      -1201207.
      -1201216.      -1201217.      -1201162.      -1201029.      -1200883.
      -1200834.      -1200834.      -1200783.      -1200626.      -1200430.
      -1200258.      -1200026.      -1199683.      -1199290.      -1198992.
      -1198740.      -1198399.      -1198061.      -1197732.      -1197373.
      -1197013.      -1196704.      -1196458.      -1196267.      -1196167.
      -1196061.      -1195968.      -1195998.      -1196051.      -1196015.
      -1195910.      -1195860.      -1195895.      -1195958.      -1196002.
      -1195976.      -1196047.      -1196324.      -1196648.      -1196928.
      -1197143.      -1197406.      -1197815.      -1198254.      -1198627.
      -1198932.      -1199258.      -1199663.      -1200111.      -1200521.
      -1200801.      -1200991.      -1201176.      -1201372.      -1201568.
      -1201696.      -1201780.      -1201906.      -1202067.      -1202165.
      -1202152.      -1202193.      -1202342.      -1202442.      -1202476.
      -1202550.      -1202729.      -1202945.      -1203136.      -1203298.
      -1203365.      -1203360.      -1203324.      -1203229.      -1203112.
      -1202976.      -1202741.      -1202438.      -1202215.      -1202126.
      -1202054.      -1201926.      -1201762.      -1201581.      -1201420.
      -1201174.      -1200796.      -1200369.      -1199936.      -1199600.
      -1199337.      -1199050.      -1198695.      -1198269.      -1197850.
      -1197514.      -1197292.      -1197057.      -1196675.      -1196227.
      -1195867.      -1195602.      -1195314.      -1194951.      -1194581.
      -1194343.      -1194298.      -1194322.      -1194310.      -1194286.
      -1194316.      -1194455.      -1194666.      -1194900.      -1195167.
      -1195478.      -1195864.      -1196301.      -1196713.      -1197072.
      -1197469.      -1197972.      -1198473.      -1198936.      -1199435.
      -1200012.      -1200611.      -1201154.      -1201583.      -1201884.
      -1202133.      -1202370.      -1202495.      -1202498.      -1202530.
      -1202561.      -1202532.      -1202587.      -1202721.      -1202852.
      -1202955.      -1202983.      -1202972.      -1202931.      -1202896.
      -1202824.      -1202695.      -1202595.      -1202453.      -1202254.
      -1201973.      -1201634.      -1201303.      -1200982.      -1200635.
      -1200190.      -1199700.      -1199202.      -1198708.      -1198231.
      -1197768.      -1197417.      -1197160.      -1196883.      -1196582.
      -1196292.      -1196063.      -1195990.      -1196065.      -1196163.
      -1196220.      -1196307.      -1196443.      -1196593.      -1196821.
      -1197123.      -1197453.      -1197760.      -1197980.      -1198186.
      -1198381.      -1198584.      -1198817.      -1198984.      -1199149.
      -1199405.      -1199720.      -1199985.      -1200181.      -1200364.
      -1200626.      -1200954.      -1201170.      -1201220.      -1201205.
      -1201219.      -1201191.      -1201081.      -1200957.      -1200835.
      -1200624.      -1200315.      -1200072.      -1199885.      -1199764.
      -1199679.      -1199529.      -1199515.      -1199659.      -1199790.
      -1199927.      -1200025.      -1200093.      -1200188.      -1200270.
      -1200362.      -1200446.      -1200570.      -1200682.      -1200709.
      -1200721.      -1200745.      -1200827.      -1200826.      -1200738.
      -1200704.      -1200693.      -1200750.      -1200838.      -1200860.
      -1200917.      -1201116.      -1201340.      -1201458.      -1201553.
      -1201729.      -1201962.      -1202162.      -1202226.      -1202159.
      -1202059.      -1201974.      -1201865.      -1201674.      -1201357.
      -1200950.      -1200542.      -1200061.      -1199499.      -1198924.
      -1198311.      -1197733.      -1197245.      -1196902.      -1196740.
      -1196608.      -1196470.      -1196386.      -1196415.      -1196578.
      -1196704.      -1196755.      -1196818.      -1196888.      -1196947.
      -1196907.      -1196773.      -1196662.      -1196562.      -1196405.
      -1196198.      -1196018.      -1195916.      -1195925.      -1195985.
      -1196018.      -1196164.      -1196495.      -1196926.      -1197312.
      -1197530.      -1197715.      -1197906.      -1198013.      -1198013.
      -1197888.      -1197864.      -1197909.      -1197875.      -1197900.
      -1197920.      -1197951.      -1198004.      -1198014.      -1198085.
      -1198301.      -1198634.      -1198924.      -1199093.      -1199295.
      -1199640.      -1200053.      -1200455.      -1200778.      -1201059.
      -1201363.      -1201662.      -1201911.      -1202065.      -1202159.
      -1202276.      -1202391.      -1202435.      -1202442.      -1202422.
      -1202444.      -1202537.      -1202613.      -1202644.      -1202702.
      -1202773.      -1202775.      -1202828.      -1202996.      -1203239.
      -1203468.      -1203596.      -1203728.      -1203907.      -1204065.
      -1204180.      -1204244.      -1204291.      -1204295.      -1204230.
      -1204113.      -1203932.      -1203753.      -1203547.      -1203259.
      -1202939.      -1202603.      -1202343.      -1202178.      -1201981.
      -1201797.      -1201679.      -1201544.      -1201351.      -1201091.
      -1200771.      -1200463.      -1200150.      -1199662.      -1199117.
      -1198692.      -1198360.      -1198020.      -1197555.      -1197025.
      -1196536.      -1196168.      -1195836.      -1195381.      -1194957.
      -1194651.      -1194339.      -1194085.      -1193780.      -1193359.
      -1193013.      -1192667.      -1192293.      -1191989.      -1191837.
      -1191853.      -1191890.      -1191887.      -1191918.      -1192105.
      -1192404.      -1192710.      -1193033.      -1193397.      -1193826.
      -1194257.      -1194607.      -1194877.      -1195208.      -1195658.
      -1196102.      -1196510.      -1196942.      -1197466.      -1198026.
      -1198470.      -1198858.      -1199310.      -1199826.      -1200357.
      -1200828.      -1201224.      -1201598.      -1202003.      -1202384.
      -1202673.      -1202918.      -1203144.      -1203325.      -1203419.
      -1203411.      -1203350.      -1203304.      -1203213.      -1203003.
      -1202762.      -1202583.      -1202439.      -1202314.      -1202192.
      -1202080.      -1202086.      -1202135.      -1202090.      -1202000.
      -1202005.      -1202057.      -1202001.      -1201862.      -1201741.
      -1201759.      -1201862.      -1201853.      -1201781.      -1201848.
      -1202045.      -1202233.      -1202311.      -1202301.      -1202356.
      -1202493.      -1202648.      -1202779.      -1202836.      -1202843.
      -1202824.      -1202776.      -1202674.      -1202535.      -1202392.
      -1202196.      -1201937.      -1201640.      -1201332.      -1201014.
      -1200638.      -1200207.      -1199804.      -1199461.      -1199127.
      -1198746.      -1198374.      -1198108.      -1197905.      -1197685.
      -1197371.      -1197002.      -1196665.      -1196394.      -1196240.
      -1196161.      -1196086.      -1195960.      -1195832.      -1195763.
      -1195704.      -1195683.      -1195734.      -1195810.      -1195898.
      -1196086.      -1196386.      -1196655.      -1196809.      -1196931.
      -1197118.      -1197338.      -1197529.      -1197662.      -1197793.
      -1198021.      -1198298.      -1198518.      -1198672.      -1198817.
      -1198942.      -1198998.      -1199004.      -1199012.      -1199107.
      -1199290.      -1199459.      -1199573.      -1199654.      -1199693.
      -1199645.      -1199540.      -1199452.      -1199401.      -1199351.
      -1199248.      -1199128.      -1199084.      -1199126.      -1199178.
      -1199193.      -1199209.      -1199299.      -1199475.      -1199576.
      -1199508.      -1199408.      -1199346.      -1199286.      -1199214.
      -1199141.      -1199101.      -1199101.      -1199133.      -1199145.
      -1199159.      -1199231.      -1199294.      -1199315.      -1199316.
      -1199361.      -1199510.      -1199738.      -1200046.      -1200375.
      -1200670.      -1200961.      -1201303.      -1201677.      -1201982.
      -1202219.      -1202411.      -1202577.      -1202732.      -1202864.
      -1202989.      -1203065.      -1203092.      -1203093.      -1203147.
      -1203297.      -1203405.      -1203398.      -1203308.      -1203261.
      -1203337.      -1203460.      -1203540.      -1203504.      -1203400.
      -1203296.      -1203093.      -1202799.      -1202507.      -1202215.
      -1201894.      -1201516.      -1201115.      -1200699.      -1200344.
      -1200035.      -1199649.      -1199254.      -1198885.      -1198561.
      -1198289.      -1198046.      -1197819.      -1197565.      -1197300.
      -1197050.      -1196865.      -1196722.      -1196566.      -1196391.
      -1196192.      -1196044.      -1195917.      -1195718.      -1195481.
      -1195229.      -1195022.      -1194942.      -1194877.      -1194700.
      -1194496.      -1194339.      -1194224.      -1194168.      -1194159.
      -1194180.      -1194250.      -1194400.      -1194607.      -1194807.
      -1195028.      -1195275.      -1195490.      -1195727.      -1195990.
      -1196232.      -1196472.      -1196701.      -1196933.      -1197132.
      -1197314.      -1197543.      -1197777.      -1198053.      -1198355.
      -1198640.      -1198870.      -1199062.      -1199282.      -1199532.
      -1199816.      -1200039.      -1200232.      -1200457.      -1200671.
      -1200865.      -1201045.      -1201239.      -1201402.      -1201551.
      -1201715.      -1201880.      -1202045.      -1202255.      -1202537.
      -1202787.      -1203049.      -1203340.      -1203556.      -1203758.
      -1203974.      -1204226.      -1204500.      -1204668.      -1204713.
      -1204713.      -1204797.      -1204956.      -1205053.      -1205016.
      -1204859.      -1204649.      -1204424.      -1204176.      -1203836.
      -1203422.      -1203041.      -1202649.      -1202264.      -1201922.
      -1201487.      -1201022.      -1200588.      -1200142.      -1199736.
      -1199381.      -1199089.      -1198788.      -1198498.      -1198291.
      -1198124.      -1197951.      -1197725.      -1197453.      -1197126.
      -1196787.      -1196495.      -1196288.      -1196138.      -1195983.
      -1195847.      -1195693.      -1195506.      -1195307.      -1195069.
      -1194792.      -1194575.      -1194419.      -1194304.      -1194383.
      -1194568.      -1194763.      -1194998.      -1195241.      -1195521.
      -1195798.      -1196054.      -1196311.      -1196534.      -1196714.
      -1196904.      -1197103.      -1197256.      -1197355.      -1197392.
      -1197405.      -1197463.      -1197584.      -1197669.      -1197629.
      -1197575.      -1197658.      -1197870.      -1198098.      -1198321.
      -1198578.      -1198906.      -1199252.      -1199508.      -1199708.
      -1199877.      -1199968.      -1199927.      -1199809.      -1199746.
