     0.05000000      -12345.00      -12345.00   3.910050e+09      -12345.00
   0.0005380000       659.9506      -743.0195      -12345.00      -12345.00
      -12345.00      -12345.00      -12345.00      -12345.00      -12345.00
      -12345.00      -12345.00      -12345.00      -12345.00      -12345.00
      -12345.00      -12345.00      -12345.00      -12345.00      -12345.00
      -12345.00      -12345.00      -12345.00      -12345.00      -12345.00
      -12345.00     -0.6019000       30.73820       1390.000       100.0000
       9.831100       126.5297      -12345.00       24.71000      -12345.00
      -12345.00      -12345.00      -12345.00      -12345.00      -12345.00
      -12345.00      -12345.00      -12345.00      -12345.00      -12345.00
       10652.99       270.3936       80.24371       95.80891      -12345.00
      -12345.00      -12345.00       118.6000       90.00000      -12345.00
      -12345.00      -12345.00      -12345.00      -12345.00      -12345.00
      -12345.00      -12345.00      -12345.00      -12345.00      -12345.00
      2019        39        12         7        31
        19         6    -12345    -12345     13200
    -12345    -12345    -12345    -12345    -12345
         1    -12345    -12345    -12345    -12345
    -12345    -12345    -12345    -12345    -12345
    -12345    -12345    -12345    -12345    -12345
    -12345    -12345    -12345    -12345    -12345
         1    -12345    -12345    -12345    -12345
MBAR    Mindanao, Philip
00      -12345  -12345  
-12345  -12345  -12345  
-12345  -12345  -12345  
-12345  -12345  -12345  
-12345  -12345  -12345  
-12345  -12345  BH2     
II      -12345  Geotech 
[...]
      -413926.0      -413922.0      -413918.0      -413895.0      -413858.0
      -413815.0      -413780.0      -413752.0      -413711.0      -413663.0
      -413608.0      -413566.0      -413536.0      -413506.0      -413468.0
      -413405.0      -413353.0      -413334.0      -413328.0      -413319.0
      -413287.0      -413220.0      -413157.0      -413135.0      -413143.0
      -413145.0      -413131.0      -413137.0      -413146.0      -413154.0
      -413175.0      -413199.0      -413225.0      -413249.0      -413287.0
      -413341.0      -413390.0      -413416.0      -413427.0      -413434.0
      -413438.0      -413453.0      -413467.0      -413471.0      -413459.0
      -413426.0      -413387.0      -413346.0      -413306.0      -413260.0
      -413220.0      -413202.0      -413184.0      -413164.0      -413146.0
      -413128.0      -413105.0      -413074.0      -413059.0      -413049.0
      -413027.0      -412988.0      -412948.0      -412922.0      -412900.0
      -412895.0      -412890.0      -412876.0      -412871.0      -412872.0
      -412896.0      -412920.0      -412929.0      -412933.0      -412953.0
      -413000.0      -413027.0      -413036.0      -413054.0      -413072.0
      -413082.0      -413080.0      -413075.0      -413052.0      -413021.0
      -413027.0      -413051.0      -413058.0      -413044.0      -413010.0
      -412964.0      -412942.0      -412944.0      -412933.0      -412910.0
      -412875.0      -412861.0      -412873.0      -412878.0      -412873.0
      -412874.0      -412887.0      -412903.0      -412928.0      -412944.0
      -412940.0      -412942.0      -412941.0      -412954.0      -412994.0
      -413024.0      -413028.0      -413017.0      -413041.0      -413114.0
      -413192.0      -413254.0      -413314.0      -413383.0      -413447.0
      -413501.0      -413546.0      -413604.0      -413670.0      -413716.0
      -413748.0      -413776.0      -413808.0      -413820.0      -413821.0
      -413831.0      -413836.0      -413849.0      -413848.0      -413823.0
      -413795.0      -413778.0      -413760.0      -413741.0      -413735.0
      -413723.0      -413697.0      -413675.0      -413663.0      -413632.0
      -413593.0      -413553.0      -413506.0      -413455.0      -413395.0
      -413327.0      -413248.0      -413178.0      -413126.0      -413072.0
      -412997.0      -412923.0      -412846.0      -412774.0      -412734.0
      -412716.0      -412703.0      -412677.0      -412667.0      -412668.0
      -412661.0      -412651.0      -412654.0      -412680.0      -412698.0
      -412713.0      -412724.0      -412732.0      -412744.0      -412737.0
      -412727.0      -412720.0      -412700.0      -412673.0      -412655.0
      -412645.0      -412624.0      -412608.0      -412625.0      -412643.0
      -412652.0      -412679.0      -412710.0      -412718.0      -412730.0
      -412779.0      -412818.0      -412826.0      -412817.0      -412814.0
      -412836.0      -412860.0      -412868.0      -412861.0      -412856.0
      -412866.0      -412860.0      -412846.0      -412852.0      -412878.0
      -412922.0      -412957.0      -412974.0      -412983.0      -412991.0
      -413016.0      -413047.0      -413071.0      -413110.0      -413144.0
      -413154.0      -413174.0      -413196.0      -413228.0      -413268.0
      -413289.0      -413308.0      -413316.0      -413324.0      -413345.0
      -413370.0      -413391.0      -413416.0      -413462.0      -413498.0
      -413518.0      -413540.0      -413540.0      -413524.0      -413511.0
      -413491.0      -413473.0      -413454.0      -413407.0      -413334.0
      -413267.0      -413247.0      -413246.0      -413209.0      -413160.0
      -413132.0      -413161.0      -413195.0      -413170.0      -413118.0
      -413080.0      -413083.0      -413068.0      -413024.0      -413006.0
      -412992.0      -412966.0      -412939.0      -412924.0      -412908.0
      -412870.0      -412828.0      -412813.0      -412816.0      -412811.0
      -412783.0      -412736.0      -412705.0      -412708.0      -412710.0
      -412685.0      -412676.0      -412690.0      -412701.0      -412713.0
      -412707.0      -412671.0      -412633.0      -412620.0      -412619.0
      -412622.0      -412631.0      -412631.0      -412612.0      -412591.0
      -412607.0      -412645.0      -412663.0      -412673.0      -412711.0
      -412778.0      -412845.0      -412898.0      -412932.0      -412975.0
      -413042.0      -413128.0      -413190.0      -413214.0      -413253.0
      -413316.0      -413344.0      -413338.0      -413358.0      -413396.0
      -413424.0      -413421.0      -413416.0      -413433.0      -413441.0
      -413447.0      -413450.0      -413440.0      -413442.0      -413451.0
      -413436.0      -413411.0      -413405.0      -413387.0      -413327.0
      -413242.0      -413159.0      -413087.0      -413012.0      -412923.0
      -412823.0      -412735.0      -412667.0      -412610.0      -412549.0
      -412471.0      -412404.0      -412372.0      -412347.0      -412316.0
      -412285.0      -412286.0      -412306.0      -412304.0      -412295.0
      -412280.0      -412275.0      -412290.0      -412287.0      -412283.0
      -412269.0      -412230.0      -412201.0      -412193.0      -412181.0
      -412156.0      -412155.0      -412173.0      -412169.0      -412176.0
      -412207.0      -412227.0      -412240.0      -412290.0      -412376.0
      -412453.0      -412515.0      -412577.0      -412649.0      -412728.0
      -412773.0      -412797.0      -412833.0      -412878.0      -412908.0
      -412934.0      -412971.0      -412991.0      -413001.0      -413007.0
      -413020.0      -413040.0      -413053.0      -413092.0      -413148.0
      -413175.0      -413200.0      -413247.0      -413283.0      -413309.0
      -413349.0      -413395.0      -413418.0      -413418.0      -413413.0
      -413414.0      -413419.0      -413415.0      -413416.0      -413428.0
      -413425.0      -413398.0      -413408.0      -413453.0      -413465.0
      -413439.0      -413419.0      -413418.0      -413411.0      -413400.0
      -413377.0      -413319.0      -413260.0      -413218.0      -413174.0
      -413107.0      -413035.0      -412975.0      -412910.0      -412848.0
      -412793.0      -412726.0      -412641.0      -412571.0      -412535.0
      -412492.0      -412446.0      -412420.0      -412397.0      -412378.0
      -412352.0      -412330.0      -412354.0      -412370.0      -412352.0
      -412371.0      -412422.0      -412418.0      -412385.0      -412410.0
      -412445.0      -412462.0      -412469.0      -412476.0      -412496.0
      -412514.0      -412546.0      -412561.0      -412555.0      -412565.0
      -412581.0      -412593.0      -412605.0      -412640.0      -412655.0
      -412635.0      -412640.0      -412650.0      -412656.0      -412675.0
      -412683.0      -412657.0      -412619.0      -412622.0      -412621.0
      -412578.0      -412544.0      -412542.0      -412538.0      -412508.0
      -412497.0      -412516.0      -412526.0      -412515.0      -412489.0
      -412465.0      -412480.0      -412514.0      -412504.0      -412467.0
      -412440.0      -412426.0      -412409.0      -412393.0      -412402.0
      -412420.0      -412443.0      -412461.0      -412473.0      -412517.0
      -412602.0      -412675.0      -412726.0      -412807.0      -412905.0
      -412975.0      -413038.0      -413106.0      -413153.0      -413189.0
      -413228.0      -413249.0      -413272.0      -413318.0      -413344.0
      -413344.0      -413349.0      -413365.0      -413348.0      -413299.0
      -413263.0      -413238.0      -413204.0      -413137.0      -413071.0
      -413036.0      -412997.0      -412924.0      -412841.0      -412772.0
      -412701.0      -412623.0      -412546.0      -412467.0      -412385.0
      -412306.0      -412239.0      -412182.0      -412128.0      -412088.0
      -412067.0      -412062.0      -412070.0      -412089.0      -412114.0
      -412131.0      -412152.0      -412193.0      -412250.0      -412289.0
      -412310.0      -412349.0      -412394.0      -412419.0      -412439.0
      -412470.0      -412500.0      -412536.0      -412577.0      -412607.0
      -412644.0      -412693.0      -412740.0      -412776.0      -412805.0
      -412826.0      -412841.0      -412871.0      -412898.0      -412910.0
      -412898.0      -412864.0      -412828.0      -412782.0      -412736.0
      -412696.0      -412665.0      -412631.0      -412583.0      -412536.0
      -412495.0      -412453.0      -412396.0      -412333.0      -412289.0
      -412251.0      -412201.0      -412158.0      -412143.0      -412145.0
      -412135.0      -412118.0      -412120.0      -412145.0      -412174.0
      -412180.0      -412173.0      -412175.0      -412188.0      -412196.0
      -412193.0      -412207.0      -412233.0      -412246.0      -412252.0
      -412260.0      -412270.0      -412276.0      -412271.0      -412254.0
      -412239.0      -412237.0      -412226.0      -412189.0      -412148.0
      -412125.0      -412119.0      -412135.0      -412140.0      -412146.0
      -412180.0      -412218.0      -412228.0      -412225.0      -412255.0
      -412283.0      -412286.0      -412306.0      -412351.0      -412380.0
      -412398.0      -412432.0      -412464.0      -412495.0      -412533.0
      -412575.0      -412625.0      -412686.0      -412743.0      -412798.0
      -412856.0      -412913.0      -412988.0      -413059.0      -413131.0
      -413190.0      -413204.0      -413218.0      -413242.0      -413236.0
      -413186.0      -413144.0      -413122.0      -413093.0      -413057.0
      -413003.0      -412952.0      -412899.0      -412836.0      -412773.0
      -412709.0      -412684.0      -412675.0      -412644.0      -412614.0
      -412601.0      -412608.0      -412596.0      -412555.0      -412534.0
      -412546.0      -412559.0      -412561.0      -412570.0      -412599.0
      -412620.0      -412632.0      -412652.0      -412672.0      -412709.0
      -412760.0      -412805.0      -412852.0      -412895.0      -412944.0
      -412986.0      -413026.0      -413092.0      -413151.0      -413182.0
      -413192.0      -413207.0      -413224.0      -413231.0      -413264.0
      -413327.0      -413371.0      -413382.0      -413420.0      -413469.0
      -413488.0      -413515.0      -413556.0      -413599.0      -413654.0
      -413685.0      -413684.0      -413661.0      -413629.0      -413624.0
      -413616.0      -413575.0      -413519.0      -413463.0      -413404.0
      -413332.0      -413268.0      -413235.0      -413224.0      -413217.0
      -413207.0      -413210.0      -413212.0      -413211.0      -413225.0
      -413226.0      -413224.0      -413247.0      -413272.0      -413248.0
      -413208.0      -413205.0      -413205.0      -413186.0      -413161.0
      -413128.0      -413093.0      -413067.0      -413059.0      -413042.0
      -413009.0      -412980.0      -412966.0      -412958.0      -412951.0
      -412956.0      -412959.0      -412942.0      -412910.0      -412874.0
      -412848.0      -412814.0      -412762.0      -412715.0      -412681.0
      -412648.0      -412596.0      -412548.0      -412517.0      -412494.0
      -412475.0      -412463.0      -412459.0      -412444.0      -412411.0
      -412380.0      -412363.0      -412347.0      -412317.0      -412287.0
      -412278.0      -412257.0      -412222.0      -412196.0      -412173.0
      -412157.0      -412148.0      -412148.0      -412162.0      -412195.0
      -412233.0      -412268.0      -412324.0      -412404.0      -412483.0
      -412546.0      -412598.0      -412639.0      -412668.0      -412686.0
      -412688.0      -412673.0      -412672.0      -412687.0      -412677.0
      -412680.0      -412725.0      -412764.0      -412793.0      -412840.0
      -412887.0      -412907.0      -412935.0      -412997.0      -413073.0
      -413146.0      -413199.0      -413255.0      -413319.0      -413372.0
      -413414.0      -413460.0      -413508.0      -413520.0      -413517.0
      -413506.0      -413474.0      -413444.0      -413415.0      -413378.0
      -413344.0      -413318.0      -413292.0      -413262.0      -413237.0
      -413208.0      -413178.0      -413155.0      -413128.0      -413094.0
      -413062.0      -413013.0      -412931.0      -412858.0      -412826.0
      -412779.0      -412707.0      -412642.0      -412573.0      -412494.0
      -412409.0      -412318.0      -412211.0      -412111.0      -412045.0
      -411976.0      -411894.0      -411816.0      -411753.0      -411690.0
      -411624.0      -411596.0      -411586.0      -411571.0      -411541.0
      -411518.0      -411524.0      -411515.0      -411498.0      -411500.0
      -411508.0      -411516.0      -411518.0      -411532.0      -411566.0
      -411599.0      -411612.0      -411651.0      -411721.0      -411757.0
      -411782.0      -411837.0      -411890.0      -411918.0      -411950.0
      -411989.0      -412017.0      -412053.0      -412098.0      -412148.0
      -412202.0      -412251.0      -412285.0      -412325.0      -412380.0
      -412436.0      -412483.0      -412535.0      -412605.0      -412670.0
      -412717.0      -412744.0      -412755.0      -412777.0      -412817.0
      -412853.0      -412876.0      -412907.0      -412927.0      -412917.0
      -412906.0      -412916.0      -412939.0      -412953.0      -412945.0
      -412958.0      -412981.0      -412989.0      -413001.0      -413004.0
      -412996.0      -412980.0      -412955.0      -412922.0      -412873.0
      -412809.0      -412744.0      -412703.0      -412656.0      -412590.0
      -412520.0      -412465.0      -412430.0      -412387.0      -412346.0
      -412304.0      -412276.0      -412263.0      -412237.0      -412220.0
      -412205.0      -412186.0      -412175.0      -412173.0      -412176.0
      -412167.0      -412153.0      -412133.0      -412109.0      -412086.0
      -412078.0      -412093.0      -412111.0      -412122.0      -412135.0
      -412178.0      -412243.0      -412299.0      -412348.0      -412391.0
      -412433.0      -412480.0      -412523.0      -412564.0      -412606.0
      -412672.0      -412731.0      -412778.0      -412817.0      -412825.0
      -412852.0      -412891.0      -412909.0      -412932.0      -412969.0
      -412994.0      -412992.0      -412997.0      -413014.0      -413014.0
      -413010.0      -413005.0      -412969.0      -412918.0      -412862.0
      -412810.0      -412755.0      -412691.0      -412652.0      -412630.0
      -412600.0      -412556.0      -412537.0      -412551.0      -412560.0
      -412568.0      -412579.0      -412599.0      -412635.0      -412680.0
      -412719.0      -412751.0      -412784.0      -412820.0      -412848.0
      -412863.0      -412887.0      -412938.0      -412989.0      -413009.0
      -413016.0      -413034.0      -413059.0      -413082.0      -413103.0
      -413123.0      -413149.0      -413171.0      -413174.0      -413168.0
      -413148.0      -413132.0      -413133.0      -413148.0      -413146.0
      -413108.0      -413072.0      -413046.0      -413006.0      -412941.0
      -412890.0      -412885.0      -412882.0      -412845.0      -412800.0
      -412768.0      -412741.0      -412705.0      -412657.0      -412617.0
      -412591.0      -412574.0      -412544.0      -412513.0      -412489.0
      -412471.0      -412473.0      -412471.0      -412462.0      -412456.0
      -412470.0      -412497.0      -412511.0      -412518.0      -412509.0
      -412513.0      -412532.0      -412525.0      -412515.0      -412532.0
      -412553.0      -412563.0      -412576.0      -412598.0      -412599.0
      -412589.0      -412589.0      -412579.0      -412572.0      -412587.0
      -412607.0      -412622.0      -412610.0      -412582.0      -412567.0
      -412557.0      -412530.0      -412503.0      -412518.0      -412545.0
      -412562.0      -412586.0      -412606.0      -412612.0      -412608.0
      -412618.0      -412635.0      -412648.0      -412656.0      -412665.0
      -412669.0      -412662.0      -412656.0      -412649.0      -412642.0
      -412654.0      -412675.0      -412680.0      -412685.0      -412712.0
      -412735.0      -412742.0      -412756.0      -412779.0      -412815.0
      -412851.0      -412869.0      -412854.0      -412830.0      -412825.0
      -412810.0      -412788.0      -412784.0      -412775.0      -412738.0
      -412712.0      -412701.0      -412671.0      -412641.0      -412633.0
      -412650.0      -412663.0      -412663.0      -412662.0      -412643.0
      -412617.0      -412617.0      -412635.0      -412639.0      -412618.0
      -412597.0      -412586.0      -412547.0      -412495.0      -412480.0
      -412466.0      -412421.0      -412405.0      -412422.0      -412431.0
      -412423.0      -412417.0      -412442.0      -412472.0      -412497.0
      -412553.0      -412613.0      -412641.0      -412662.0      -412692.0
      -412712.0      -412733.0      -412761.0      -412785.0      -412810.0
      -412840.0      -412842.0      -412808.0      -412778.0      -412763.0
      -412736.0      -412702.0      -412706.0      -412700.0      -412637.0
      -412581.0      -412551.0      -412501.0      -412436.0      -412410.0
      -412395.0      -412361.0      -412337.0      -412302.0      -412256.0
      -412253.0      -412274.0      -412279.0      -412285.0      -412308.0
      -412337.0      -412369.0      -412416.0      -412470.0      -412525.0
      -412590.0      -412679.0      -412773.0      -412848.0      -412924.0
      -412977.0      -413012.0      -413086.0      -413179.0      -413255.0
      -413330.0      -413416.0      -413473.0      -413511.0      -413570.0
      -413616.0      -413664.0      -413722.0      -413764.0      -413795.0
      -413825.0      -413841.0      -413836.0      -413829.0      -413833.0
      -413829.0      -413790.0      -413750.0      -413729.0      -413706.0
      -413658.0      -413592.0      -413532.0      -413477.0      -413416.0
      -413357.0      -413306.0      -413244.0      -413193.0      -413158.0
      -413113.0      -413071.0      -413048.0      -413036.0      -413016.0
