     0.05000000      -12345.00      -12345.00   3.694870e+09      -12345.00
   0.0005380000       659.9506      -623.0195      -12345.00      -12345.00
      -12345.00      -12345.00      -12345.00      -12345.00      -12345.00
      -12345.00      -12345.00      -12345.00      -12345.00      -12345.00
      -12345.00      -12345.00      -12345.00      -12345.00      -12345.00
      -12345.00      -12345.00      -12345.00      -12345.00      -12345.00
      -12345.00      -4.673700       55.47920       475.0000       91.00000
       9.831100       126.5297      -12345.00       24.71000      -12345.00
      -12345.00      -12345.00      -12345.00      -12345.00      -12345.00
      -12345.00      -12345.00      -12345.00      -12345.00      -12345.00
       8030.909       261.8699       78.18497       72.22691      -12345.00
      -12345.00      -12345.00       333.8000       90.00000      -12345.00
      -12345.00      -12345.00      -12345.00      -12345.00      -12345.00
      -12345.00      -12345.00      -12345.00      -12345.00      -12345.00
      2019        39        12         5        31
        19         6    -12345    -12345     13200
    -12345    -12345    -12345    -12345    -12345
         1    -12345    -12345    -12345    -12345
    -12345    -12345    -12345    -12345    -12345
    -12345    -12345    -12345    -12345    -12345
    -12345    -12345    -12345    -12345    -12345
         1    -12345    -12345    -12345    -12345
MSEY    Mindanao, Philip
00      -12345  -12345  
-12345  -12345  -12345  
-12345  -12345  -12345  
-12345  -12345  -12345  
-12345  -12345  -12345  
-12345  -12345  BH2     
II      -12345  Geotech 
[...]
      -1133443.      -1133316.      -1133014.      -1132948.      -1132846.
      -1132654.      -1132587.      -1132514.      -1132469.      -1132447.
      -1132431.      -1132374.      -1132256.      -1132198.      -1132154.
      -1132097.      -1132078.      -1132094.      -1132130.      -1132163.
      -1132143.      -1132115.      -1132166.      -1132136.      -1131980.
      -1131863.      -1131711.      -1131566.      -1131482.      -1131284.
      -1131099.      -1130985.      -1130846.      -1130741.      -1130626.
      -1130467.      -1130346.      -1130367.      -1130415.      -1130417.
      -1130531.      -1130680.      -1130853.      -1131087.      -1131261.
      -1131445.      -1131709.      -1132003.      -1132342.      -1132680.
      -1132875.      -1133036.      -1133227.      -1133316.      -1133453.
      -1133584.      -1133611.      -1133692.      -1133758.      -1133817.
      -1133913.      -1133972.      -1134000.      -1134015.      -1133969.
      -1133892.      -1133821.      -1133793.      -1133852.      -1133831.
      -1133742.      -1133729.      -1133695.      -1133670.      -1133701.
      -1133672.      -1133655.      -1133655.      -1133648.      -1133718.
      -1133734.      -1133710.      -1133748.      -1133802.      -1133794.
      -1133754.      -1133766.      -1133849.      -1134016.      -1134180.
      -1134357.      -1134573.      -1134804.      -1135011.      -1135148.
      -1135286.      -1135429.      -1135604.      -1135754.      -1135813.
      -1135886.      -1136008.      -1136116.      -1136199.      -1136288.
      -1136357.      -1136358.      -1136277.      -1136236.      -1136219.
      -1136161.      -1136134.      -1136078.      -1135965.      -1135805.
      -1135641.      -1135436.      -1135154.      -1134868.      -1134618.
      -1134403.      -1134129.      -1133849.      -1133666.      -1133548.
      -1133378.      -1133166.      -1132969.      -1132779.      -1132636.
      -1132532.      -1132462.      -1132426.      -1132413.      -1132371.
      -1132275.      -1132170.      -1132073.      -1132007.      -1132033.
      -1132194.      -1132414.      -1132589.      -1132675.      -1132737.
      -1132831.      -1132878.      -1132854.      -1132809.      -1132777.
      -1132736.      -1132661.      -1132592.      -1132504.      -1132355.
      -1132217.      -1132130.      -1132051.      -1131921.      -1131797.
      -1131704.      -1131616.      -1131546.      -1131470.      -1131496.
      -1131621.      -1131755.      -1131904.      -1132034.      -1132208.
      -1132416.      -1132587.      -1132717.      -1132824.      -1132857.
      -1132805.      -1132702.      -1132574.      -1132488.      -1132453.
      -1132440.      -1132395.      -1132395.      -1132407.      -1132389.
      -1132469.      -1132573.      -1132717.      -1132891.      -1133071.
      -1133301.      -1133483.      -1133645.      -1133770.      -1133881.
      -1134028.      -1134151.      -1134303.      -1134417.      -1134456.
      -1134521.      -1134678.      -1134912.      -1135088.      -1135127.
      -1135092.      -1135085.      -1135142.      -1135210.      -1135233.
      -1135220.      -1135210.      -1135169.      -1135072.      -1134981.
      -1134927.      -1134929.      -1134930.      -1134882.      -1134849.
      -1134883.      -1134975.      -1135065.      -1135151.      -1135250.
      -1135411.      -1135576.      -1135649.      -1135693.      -1135717.
      -1135714.      -1135638.      -1135457.      -1135211.      -1134925.
      -1134656.      -1134344.      -1134003.      -1133676.      -1133372.
      -1133202.      -1133135.      -1133093.      -1133003.      -1132912.
      -1132891.      -1132904.      -1132955.      -1132987.      -1133024.
      -1133114.      -1133268.      -1133427.      -1133490.      -1133482.
      -1133467.      -1133507.      -1133600.      -1133672.      -1133714.
      -1133703.      -1133662.      -1133656.      -1133635.      -1133625.
      -1133671.      -1133707.      -1133692.      -1133623.      -1133556.
      -1133521.      -1133497.      -1133424.      -1133281.      -1133104.
      -1132973.      -1132886.      -1132728.      -1132542.      -1132321.
      -1132067.      -1131901.      -1131743.      -1131550.      -1131408.
      -1131271.      -1131183.      -1131190.      -1131238.      -1131305.
      -1131319.      -1131269.      -1131167.      -1131065.      -1131018.
      -1130943.      -1130798.      -1130659.      -1130575.      -1130494.
      -1130426.      -1130431.      -1130475.      -1130545.      -1130609.
      -1130671.      -1130824.      -1130988.      -1131138.      -1131339.
      -1131519.      -1131701.      -1131943.      -1132180.      -1132346.
      -1132458.      -1132590.      -1132808.      -1133048.      -1133205.
      -1133346.      -1133533.      -1133770.      -1134070.      -1134397.
      -1134671.      -1134844.      -1134983.      -1135156.      -1135385.
      -1135610.      -1135757.      -1135897.      -1135971.      -1136008.
      -1136133.      -1136296.      -1136452.      -1136548.      -1136656.
      -1136805.      -1136892.      -1136939.      -1136962.      -1136926.
      -1136859.      -1136855.      -1136851.      -1136793.      -1136772.
      -1136711.      -1136568.      -1136379.      -1136145.      -1135909.
      -1135651.      -1135391.      -1135106.      -1134785.      -1134540.
      -1134284.      -1133957.      -1133622.      -1133219.      -1132783.
      -1132414.      -1132056.      -1131707.      -1131410.      -1131134.
      -1130911.      -1130774.      -1130667.      -1130611.      -1130590.
      -1130575.      -1130605.      -1130630.      -1130704.      -1130882.
      -1131042.      -1131219.      -1131505.      -1131794.      -1132108.
      -1132477.      -1132768.      -1133017.      -1133323.      -1133610.
      -1133850.      -1134142.      -1134421.      -1134604.      -1134764.
      -1134905.      -1135020.      -1135125.      -1135174.      -1135147.
      -1135072.      -1134935.      -1134776.      -1134640.      -1134410.
      -1134088.      -1133796.      -1133525.      -1133237.      -1132936.
      -1132623.      -1132277.      -1131919.      -1131583.      -1131272.
      -1130970.      -1130647.      -1130334.      -1130096.      -1129889.
      -1129652.      -1129423.      -1129294.      -1129228.      -1129121.
      -1129039.      -1128974.      -1128904.      -1128858.      -1128798.
      -1128750.      -1128762.      -1128889.      -1129026.      -1129104.
      -1129226.      -1129364.      -1129600.      -1129937.      -1130227.
      -1130501.      -1130780.      -1131121.      -1131507.      -1131821.
      -1132149.      -1132525.      -1132900.      -1133281.      -1133610.
      -1133861.      -1134098.      -1134342.      -1134673.      -1135038.
      -1135273.      -1135501.      -1135751.      -1135967.      -1136195.
      -1136393.      -1136553.      -1136660.      -1136758.      -1136912.
      -1137066.      -1137197.      -1137319.      -1137362.      -1137330.
      -1137340.      -1137329.      -1137249.      -1137150.      -1137026.
      -1136896.      -1136743.      -1136562.      -1136348.      -1136159.
      -1136061.      -1135909.      -1135660.      -1135404.      -1135123.
      -1134874.      -1134652.      -1134423.      -1134255.      -1134118.
      -1134064.      -1134093.      -1134022.      -1133911.      -1133834.
      -1133681.      -1133471.      -1133246.      -1133023.      -1132855.
      -1132671.      -1132431.      -1132213.      -1131945.      -1131684.
      -1131517.      -1131389.      -1131358.      -1131368.      -1131405.
      -1131520.      -1131634.      -1131715.      -1131826.      -1131964.
      -1132060.      -1132106.      -1132148.      -1132302.      -1132504.
      -1132645.      -1132771.      -1132944.      -1133127.      -1133217.
      -1133300.      -1133437.      -1133602.      -1133743.      -1133815.
      -1133871.      -1133973.      -1134121.      -1134232.      -1134309.
      -1134412.      -1134533.      -1134641.      -1134792.      -1135005.
      -1135162.      -1135288.      -1135433.      -1135554.      -1135629.
      -1135668.      -1135712.      -1135722.      -1135660.      -1135621.
      -1135639.      -1135627.      -1135561.      -1135526.      -1135545.
      -1135589.      -1135608.      -1135547.      -1135444.      -1135334.
      -1135295.      -1135256.      -1135111.      -1134986.      -1134912.
      -1134851.      -1134696.      -1134454.      -1134251.      -1134067.
      -1133857.      -1133587.      -1133346.      -1133135.      -1132883.
      -1132613.      -1132405.      -1132302.      -1132221.      -1132130.
      -1132043.      -1131981.      -1132008.      -1132114.      -1132186.
      -1132194.      -1132195.      -1132268.      -1132445.      -1132612.
      -1132766.      -1132907.      -1133010.      -1133163.      -1133306.
      -1133421.      -1133559.      -1133752.      -1133986.      -1134164.
      -1134336.      -1134508.      -1134615.      -1134660.      -1134687.
      -1134716.      -1134737.      -1134785.      -1134831.      -1134825.
      -1134793.      -1134740.      -1134671.      -1134552.      -1134378.
      -1134247.      -1134090.      -1133860.      -1133650.      -1133425.
      -1133240.      -1133140.      -1133055.      -1133010.      -1133067.
      -1133175.      -1133252.      -1133380.      -1133571.      -1133786.
      -1134023.      -1134251.      -1134490.      -1134757.      -1135045.
      -1135323.      -1135579.      -1135833.      -1136127.      -1136429.
      -1136705.      -1136900.      -1137090.      -1137286.      -1137437.
      -1137651.      -1137734.      -1137684.      -1137666.      -1137640.
      -1137574.      -1137440.      -1137268.      -1137112.      -1137003.
      -1136864.      -1136674.      -1136446.      -1136201.      -1135934.
      -1135647.      -1135376.      -1135093.      -1134801.      -1134544.
      -1134351.      -1134162.      -1133997.      -1133871.      -1133790.
      -1133776.      -1133735.      -1133672.      -1133635.      -1133576.
      -1133462.      -1133346.      -1133249.      -1133222.      -1133239.
      -1133168.      -1133095.      -1133067.      -1133025.      -1133011.
      -1133047.      -1133121.      -1133200.      -1133369.      -1133630.
      -1133928.      -1134277.      -1134595.      -1134985.      -1135409.
      -1135710.      -1135980.      -1136288.      -1136592.      -1136857.
      -1137106.      -1137254.      -1137318.      -1137367.      -1137364.
      -1137322.      -1137211.      -1137029.      -1136844.      -1136712.
      -1136501.      -1136211.      -1135946.      -1135658.      -1135396.
      -1135119.      -1134806.      -1134526.      -1134299.      -1134125.
      -1133928.      -1133723.      -1133517.      -1133265.      -1133022.
      -1132779.      -1132491.      -1132215.      -1131932.      -1131622.
      -1131287.      -1130937.      -1130650.      -1130451.      -1130323.
      -1130216.      -1130102.      -1129949.      -1129760.      -1129648.
      -1129564.      -1129398.      -1129206.      -1129103.      -1129059.
      -1129067.      -1129165.      -1129302.      -1129483.      -1129726.
      -1130055.      -1130427.      -1130804.      -1131206.      -1131605.
      -1131951.      -1132209.      -1132500.      -1132786.      -1132950.
      -1133026.      -1133034.      -1133084.      -1133157.      -1133204.
      -1133217.      -1133127.      -1132998.      -1132880.      -1132778.
      -1132594.      -1132324.      -1132148.      -1132042.      -1131886.
      -1131668.      -1131510.      -1131375.      -1131176.      -1130981.
      -1130759.      -1130558.      -1130364.      -1130143.      -1130011.
      -1129941.      -1129853.      -1129798.      -1129817.      -1129857.
      -1129941.      -1130049.      -1130152.      -1130271.      -1130374.
      -1130438.      -1130393.      -1130258.      -1130105.      -1129978.
      -1129947.      -1129943.      -1129882.      -1129854.      -1129935.
      -1130051.      -1130097.      -1130142.      -1130265.      -1130360.
      -1130399.      -1130433.      -1130463.      -1130490.      -1130630.
      -1130887.      -1131126.      -1131352.      -1131617.      -1131945.
      -1132251.      -1132486.      -1132675.      -1132834.      -1133003.
      -1133166.      -1133345.      -1133511.      -1133661.      -1133804.
      -1133850.      -1133897.      -1134063.      -1134211.      -1134290.
      -1134439.      -1134706.      -1134931.      -1135136.      -1135399.
      -1135658.      -1136003.      -1136432.      -1136810.      -1137166.
      -1137591.      -1138022.      -1138387.      -1138664.      -1138883.
      -1139137.      -1139325.      -1139406.      -1139455.      -1139387.
      -1139299.      -1139251.      -1139083.      -1138873.      -1138661.
      -1138457.      -1138338.      -1138139.      -1137834.      -1137567.
      -1137299.      -1136934.      -1136528.      -1136176.      -1135869.
      -1135483.      -1134975.      -1134451.      -1133891.      -1133285.
      -1132693.      -1132053.      -1131418.      -1130842.      -1130316.
      -1129859.      -1129362.      -1128849.      -1128402.      -1127953.
      -1127565.      -1127250.      -1126968.      -1126811.      -1126708.
      -1126590.      -1126502.      -1126444.      -1126423.      -1126387.
      -1126329.      -1126322.      -1126404.      -1126583.      -1126810.
      -1127047.      -1127313.      -1127638.      -1127992.      -1128380.
      -1128794.      -1129193.      -1129642.      -1130088.      -1130516.
      -1131014.      -1131468.      -1131824.      -1132175.      -1132533.
      -1132927.      -1133290.      -1133546.      -1133818.      -1134080.
      -1134291.      -1134540.      -1134693.      -1134672.      -1134657.
      -1134724.      -1134803.      -1134790.      -1134756.      -1134812.
      -1134844.      -1134797.      -1134685.      -1134618.      -1134659.
      -1134675.      -1134654.      -1134603.      -1134540.      -1134485.
      -1134414.      -1134325.      -1134213.      -1134181.      -1134230.
      -1134352.      -1134546.      -1134696.      -1134880.      -1135095.
      -1135285.      -1135434.      -1135543.      -1135697.      -1135832.
      -1135938.      -1136042.      -1136261.      -1136564.      -1136661.
      -1136618.      -1136651.      -1136766.      -1136794.      -1136741.
      -1136744.      -1136724.      -1136586.      -1136434.      -1136388.
      -1136289.      -1136037.      -1135814.      -1135697.      -1135525.
      -1135238.      -1135051.      -1134976.      -1134868.      -1134710.
      -1134593.      -1134510.      -1134389.      -1134351.      -1134348.
      -1134334.      -1134312.      -1134220.      -1134152.      -1134123.
      -1134043.      -1133882.      -1133709.      -1133596.      -1133599.
      -1133648.      -1133574.      -1133378.      -1133204.      -1133186.
      -1133200.      -1133029.      -1132757.      -1132582.      -1132504.
      -1132408.      -1132248.      -1132026.      -1131803.      -1131652.
      -1131560.      -1131440.      -1131240.      -1131110.      -1131158.
      -1131242.      -1131219.      -1131121.      -1131084.      -1131103.
      -1131030.      -1130901.      -1130804.      -1130738.      -1130739.
      -1130768.      -1130753.      -1130739.      -1130787.      -1130973.
      -1131233.      -1131446.      -1131686.      -1132009.      -1132403.
      -1132730.      -1132938.      -1133168.      -1133409.      -1133626.
      -1133839.      -1133967.      -1133942.      -1133906.      -1133947.
      -1133954.      -1133906.      -1133874.      -1133917.      -1133979.
      -1134050.      -1134113.      -1134198.      -1134381.      -1134631.
      -1134881.      -1135006.      -1135167.      -1135503.      -1135927.
      -1136277.      -1136486.      -1136777.      -1137138.      -1137464.
      -1137737.      -1137966.      -1138184.      -1138378.      -1138548.
      -1138648.      -1138617.      -1138527.      -1138468.      -1138351.
      -1138174.      -1137909.      -1137562.      -1137208.      -1136812.
      -1136430.      -1136063.      -1135755.      -1135452.      -1135038.
      -1134625.      -1134225.      -1133798.      -1133374.      -1132930.
      -1132520.      -1132155.      -1131770.      -1131403.      -1131101.
      -1130811.      -1130513.      -1130264.      -1130017.      -1129740.
      -1129428.      -1129147.      -1129015.      -1128938.      -1128865.
      -1128840.      -1128802.      -1128801.      -1128897.      -1129001.
      -1129123.      -1129259.      -1129374.      -1129565.      -1129864.
      -1130152.      -1130409.      -1130655.      -1130865.      -1131110.
      -1131381.      -1131608.      -1131761.      -1131892.      -1132106.
      -1132309.      -1132405.      -1132506.      -1132663.      -1132779.
      -1132862.      -1132955.      -1133161.      -1133423.      -1133586.
      -1133850.      -1134167.      -1134369.      -1134550.      -1134722.
      -1134921.      -1135074.      -1135077.      -1135094.      -1135242.
      -1135406.      -1135451.      -1135401.      -1135422.      -1135542.
      -1135621.      -1135699.      -1135797.      -1135795.      -1135734.
      -1135716.      -1135788.      -1135927.      -1136016.      -1136018.
      -1135986.      -1135980.      -1135990.      -1135917.      -1135774.
      -1135666.      -1135635.      -1135629.      -1135602.      -1135535.
      -1135402.      -1135284.      -1135204.      -1135069.      -1134889.
      -1134662.      -1134376.      -1134066.      -1133758.      -1133473.
      -1133149.      -1132767.      -1132406.      -1132046.      -1131709.
      -1131449.      -1131157.      -1130857.      -1130598.      -1130357.
      -1130162.      -1130012.      -1129887.      -1129768.      -1129709.
      -1129650.      -1129558.      -1129500.      -1129449.      -1129411.
      -1129423.      -1129467.      -1129555.      -1129714.      -1129877.
