     0.05000000      -12345.00      -12345.00   3.766030e+09      -12345.00
   0.0005380000       659.9506      -435.0196      -12345.00      -12345.00
      -12345.00      -12345.00      -12345.00      -12345.00      -12345.00
      -12345.00      -12345.00      -12345.00      -12345.00      -12345.00
      -12345.00      -12345.00      -12345.00      -12345.00      -12345.00
      -12345.00      -12345.00      -12345.00      -12345.00      -12345.00
      -12345.00       7.272800       80.70220       460.0000       90.00000
       9.831100       126.5297      -12345.00       24.71000      -12345.00
      -12345.00      -12345.00      -12345.00      -12345.00      -12345.00
      -12345.00      -12345.00      -12345.00      -12345.00      -12345.00
       5043.999       270.5371       83.38878       45.36378      -12345.00
      -12345.00      -12345.00       358.2000       90.00000      -12345.00
      -12345.00      -12345.00      -12345.00      -12345.00      -12345.00
      -12345.00      -12345.00      -12345.00      -12345.00      -12345.00
      2019        39        12         2        23
        19         6    -12345    -12345     13200
    -12345    -12345    -12345    -12345    -12345
         1    -12345    -12345    -12345    -12345
    -12345    -12345    -12345    -12345    -12345
    -12345    -12345    -12345    -12345    -12345
    -12345    -12345    -12345    -12345    -12345
         1    -12345    -12345    -12345    -12345
PALK    Mindanao, Philip
00      -12345  -12345  
-12345  -12345  -12345  
-12345  -12345  -12345  
-12345  -12345  -12345  
-12345  -12345  -12345  
-12345  -12345  BH1     
II      -12345  Geotech 
[...]
      -968515.0      -968475.0      -968417.0      -968376.0      -968350.0
      -968316.0      -968283.0      -968239.0      -968169.0      -968089.0
      -967981.0      -967896.0      -967844.0      -967775.0      -967692.0
      -967617.0      -967573.0      -967560.0      -967580.0      -967611.0
      -967650.0      -967693.0      -967711.0      -967734.0      -967763.0
      -967815.0      -967889.0      -967947.0      -967984.0      -968012.0
      -968081.0      -968180.0      -968264.0      -968311.0      -968346.0
      -968367.0      -968351.0      -968395.0      -968439.0      -968405.0
      -968398.0      -968394.0      -968343.0      -968314.0      -968296.0
      -968292.0      -968316.0      -968308.0      -968270.0      -968227.0
      -968214.0      -968172.0      -968136.0      -968143.0      -968141.0
      -968208.0      -968275.0      -968342.0      -968447.0      -968526.0
      -968630.0      -968742.0      -968883.0      -969049.0      -969150.0
      -969256.0      -969389.0      -969532.0      -969710.0      -969868.0
      -969996.0      -970122.0      -970232.0      -970323.0      -970437.0
      -970535.0      -970573.0      -970617.0      -970647.0      -970610.0
      -970574.0      -970539.0      -970451.0      -970389.0      -970344.0
      -970272.0      -970208.0      -970161.0      -970130.0      -970084.0
      -970037.0      -970014.0      -969998.0      -969953.0      -969912.0
      -969896.0      -969857.0      -969849.0      -969873.0      -969831.0
      -969756.0      -969716.0      -969631.0      -969567.0      -969560.0
      -969516.0      -969485.0      -969505.0      -969549.0      -969553.0
      -969570.0      -969643.0      -969697.0      -969736.0      -969770.0
      -969824.0      -969896.0      -969960.0      -969985.0      -969990.0
      -970026.0      -970013.0      -969959.0      -969917.0      -969883.0
      -969859.0      -969828.0      -969811.0      -969812.0      -969804.0
      -969755.0      -969755.0      -969786.0      -969728.0      -969691.0
      -969683.0      -969657.0      -969632.0      -969590.0      -969556.0
      -969524.0      -969465.0      -969398.0      -969369.0      -969346.0
      -969262.0      -969159.0      -969086.0      -969001.0      -968945.0
      -968906.0      -968829.0      -968786.0      -968773.0      -968759.0
      -968733.0      -968724.0      -968788.0      -968828.0      -968855.0
      -968901.0      -968912.0      -968948.0      -968998.0      -969042.0
      -969106.0      -969162.0      -969176.0      -969170.0      -969188.0
      -969194.0      -969184.0      -969173.0      -969165.0      -969183.0
      -969166.0      -969149.0      -969157.0      -969125.0      -969095.0
      -969090.0      -969095.0      -969092.0      -969101.0      -969163.0
      -969207.0      -969249.0      -969307.0      -969324.0      -969352.0
      -969402.0      -969418.0      -969447.0      -969505.0      -969558.0
      -969595.0      -969605.0      -969571.0      -969543.0      -969549.0
      -969518.0      -969480.0      -969458.0      -969410.0      -969376.0
      -969332.0      -969279.0      -969263.0      -969216.0      -969125.0
      -969056.0      -969016.0      -968956.0      -968886.0      -968833.0
      -968763.0      -968705.0      -968667.0      -968628.0      -968591.0
      -968562.0      -968535.0      -968476.0      -968419.0      -968391.0
      -968366.0      -968335.0      -968296.0      -968242.0      -968182.0
      -968151.0      -968146.0      -968146.0      -968104.0      -968066.0
      -968090.0      -968118.0      -968144.0      -968155.0      -968141.0
      -968137.0      -968127.0      -968118.0      -968111.0      -968121.0
      -968136.0      -968101.0      -968096.0      -968139.0      -968176.0
      -968197.0      -968221.0      -968266.0      -968299.0      -968331.0
      -968378.0      -968417.0      -968443.0      -968484.0      -968514.0
      -968507.0      -968471.0      -968422.0      -968387.0      -968316.0
      -968248.0      -968214.0      -968133.0      -968050.0      -967997.0
      -967950.0      -967917.0      -967867.0      -967833.0      -967847.0
      -967906.0      -967966.0      -968015.0      -968083.0      -968137.0
      -968166.0      -968206.0      -968261.0      -968313.0      -968376.0
      -968379.0      -968370.0      -968431.0      -968479.0      -968495.0
      -968488.0      -968467.0      -968452.0      -968465.0      -968497.0
      -968498.0      -968482.0      -968495.0      -968486.0      -968481.0
      -968499.0      -968506.0      -968542.0      -968576.0      -968619.0
      -968653.0      -968678.0      -968710.0      -968710.0      -968741.0
      -968765.0      -968746.0      -968747.0      -968793.0      -968850.0
      -968885.0      -968887.0      -968913.0      -969002.0      -969068.0
      -969127.0      -969184.0      -969201.0      -969255.0      -969294.0
      -969315.0      -969361.0      -969374.0      -969377.0      -969374.0
      -969389.0      -969432.0      -969413.0      -969355.0      -969318.0
      -969284.0      -969282.0      -969281.0      -969211.0      -969164.0
      -969165.0      -969135.0      -969096.0      -969110.0      -969152.0
      -969174.0      -969218.0      -969290.0      -969351.0      -969418.0
      -969486.0      -969531.0      -969583.0      -969646.0      -969665.0
      -969671.0      -969683.0      -969642.0      -969571.0      -969450.0
      -969286.0      -969112.0      -968888.0      -968670.0      -968416.0
      -968140.0      -967879.0      -967591.0      -967350.0      -967066.0
      -966766.0      -966498.0      -966201.0      -965959.0      -965744.0
      -965486.0      -965229.0      -965001.0      -964770.0      -964580.0
      -964439.0      -964284.0      -964168.0      -964097.0      -964008.0
      -963947.0      -963958.0      -963996.0      -964051.0      -964118.0
      -964203.0      -964313.0      -964425.0      -964582.0      -964789.0
      -964997.0      -965188.0      -965377.0      -965575.0      -965780.0
      -965974.0      -966176.0      -966388.0      -966589.0      -966832.0
      -967106.0      -967397.0      -967690.0      -968015.0      -968378.0
      -968685.0      -968987.0      -969314.0      -969647.0      -969970.0
      -970282.0      -970606.0      -970910.0      -971205.0      -971508.0
      -971827.0      -972119.0      -972397.0      -972726.0      -973010.0
      -973269.0      -973564.0      -973774.0      -973982.0      -974216.0
      -974398.0      -974567.0      -974666.0      -974754.0      -974844.0
      -974872.0      -974902.0      -974893.0      -974786.0      -974623.0
      -974452.0      -974269.0      -974084.0      -973882.0      -973631.0
      -973394.0      -973164.0      -972888.0      -972589.0      -972290.0
      -971978.0      -971633.0      -971276.0      -970936.0      -970621.0
      -970304.0      -969969.0      -969625.0      -969313.0      -969066.0
      -968824.0      -968591.0      -968420.0      -968267.0      -968115.0
      -968006.0      -967932.0      -967873.0      -967844.0      -967856.0
      -967893.0      -967920.0      -967970.0      -968050.0      -968116.0
      -968210.0      -968344.0      -968492.0      -968644.0      -968801.0
      -968949.0      -969031.0      -969111.0      -969226.0      -969336.0
      -969458.0      -969557.0      -969614.0      -969659.0      -969734.0
      -969843.0      -969950.0      -970053.0      -970133.0      -970208.0
      -970276.0      -970350.0      -970449.0      -970547.0      -970641.0
      -970700.0      -970766.0      -970845.0      -970930.0      -971021.0
      -971081.0      -971162.0      -971240.0      -971304.0      -971392.0
      -971517.0      -971645.0      -971745.0      -971851.0      -971930.0
      -972008.0      -972140.0      -972253.0      -972361.0      -972478.0
      -972541.0      -972599.0      -972656.0      -972685.0      -972728.0
      -972768.0      -972774.0      -972759.0      -972744.0      -972727.0
      -972683.0      -972596.0      -972471.0      -972325.0      -972197.0
      -972089.0      -971936.0      -971751.0      -971564.0      -971384.0
      -971212.0      -971042.0      -970885.0      -970686.0      -970503.0
      -970328.0      -970127.0      -969925.0      -969707.0      -969562.0
      -969422.0      -969289.0      -969199.0      -969099.0      -969074.0
      -969080.0      -969061.0      -969065.0      -969103.0      -969142.0
      -969205.0      -969304.0      -969397.0      -969516.0      -969661.0
      -969820.0      -969966.0      -970094.0      -970233.0      -970367.0
      -970501.0      -970630.0      -970703.0      -970771.0      -970849.0
      -970944.0      -971089.0      -971201.0      -971272.0      -971346.0
      -971419.0      -971486.0      -971540.0      -971595.0      -971658.0
      -971732.0      -971812.0      -971860.0      -971869.0      -971892.0
      -971918.0      -971907.0      -971892.0      -971880.0      -971848.0
      -971784.0      -971674.0      -971565.0      -971446.0      -971265.0
      -971086.0      -970909.0      -970656.0      -970398.0      -970185.0
      -969958.0      -969749.0      -969548.0      -969311.0      -969100.0
      -968944.0      -968830.0      -968746.0      -968672.0      -968611.0
      -968608.0      -968624.0      -968615.0      -968660.0      -968728.0
      -968799.0      -968891.0      -968960.0      -969039.0      -969117.0
      -969178.0      -969260.0      -969351.0      -969460.0      -969530.0
      -969539.0      -969557.0      -969576.0      -969594.0      -969597.0
      -969580.0      -969553.0      -969527.0      -969526.0      -969533.0
      -969524.0      -969493.0      -969441.0      -969397.0      -969364.0
      -969287.0      -969184.0      -969048.0      -968873.0      -968704.0
      -968516.0      -968300.0      -968078.0      -967886.0      -967707.0
      -967510.0      -967326.0      -967186.0      -967032.0      -966854.0
      -966694.0      -966534.0      -966414.0      -966270.0      -966084.0
      -965930.0      -965782.0      -965671.0      -965570.0      -965440.0
      -965295.0      -965152.0      -965078.0      -965035.0      -964966.0
      -964906.0      -964818.0      -964737.0      -964737.0      -964764.0
      -964825.0      -964847.0      -964850.0      -964937.0      -964977.0
      -965027.0      -965147.0      -965230.0      -965331.0      -965434.0
      -965496.0      -965598.0      -965720.0      -965848.0      -965966.0
      -966076.0      -966254.0      -966424.0      -966590.0      -966754.0
      -966905.0      -967076.0      -967246.0      -967397.0      -967519.0
      -967654.0      -967779.0      -967880.0      -967908.0      -967893.0
      -967912.0      -967878.0      -967811.0      -967736.0      -967613.0
      -967504.0      -967435.0      -967352.0      -967249.0      -967150.0
      -967072.0      -967005.0      -966931.0      -966833.0      -966708.0
      -966639.0      -966616.0      -966557.0      -966497.0      -966435.0
      -966385.0      -966363.0      -966368.0      -966413.0      -966482.0
      -966573.0      -966645.0      -966652.0      -966649.0      -966707.0
      -966783.0      -966863.0      -966966.0      -967033.0      -967089.0
      -967185.0      -967254.0      -967298.0      -967371.0      -967445.0
      -967534.0      -967600.0      -967641.0      -967695.0      -967758.0
      -967818.0      -967859.0      -967930.0      -967993.0      -968066.0
      -968149.0      -968216.0      -968288.0      -968356.0      -968442.0
      -968531.0      -968610.0      -968689.0      -968755.0      -968804.0
      -968862.0      -968907.0      -968916.0      -968917.0      -968907.0
      -968881.0      -968861.0      -968805.0      -968719.0      -968658.0
      -968568.0      -968452.0      -968339.0      -968180.0      -968045.0
      -968001.0      -967929.0      -967777.0      -967630.0      -967500.0
      -967386.0      -967309.0      -967247.0      -967198.0      -967133.0
      -967079.0      -967082.0      -967076.0      -967055.0      -967058.0
      -967146.0      -967296.0      -967333.0      -967374.0      -967531.0
      -967692.0      -967866.0      -968021.0      -968155.0      -968340.0
      -968584.0      -968836.0      -969062.0      -969319.0      -969609.0
      -969924.0      -970272.0      -970635.0      -971020.0      -971423.0
      -971807.0      -972177.0      -972545.0      -972906.0      -973266.0
      -973591.0      -973890.0      -974166.0      -974396.0      -974614.0
      -974811.0      -974985.0      -975143.0      -975264.0      -975377.0
      -975462.0      -975512.0      -975553.0      -975600.0      -975641.0
      -975685.0      -975712.0      -975665.0      -975583.0      -975490.0
      -975410.0      -975262.0      -975044.0      -974812.0      -974560.0
      -974316.0      -973989.0      -973622.0      -973264.0      -972856.0
      -972464.0      -972069.0      -971626.0      -971177.0      -970752.0
      -970323.0      -969896.0      -969481.0      -969037.0      -968638.0
      -968265.0      -967862.0      -967504.0      -967188.0      -966877.0
      -966562.0      -966248.0      -965956.0      -965692.0      -965474.0
      -965284.0      -965086.0      -964923.0      -964815.0      -964693.0
      -964563.0      -964485.0      -964425.0      -964369.0      -964344.0
      -964352.0      -964388.0      -964433.0      -964481.0      -964541.0
      -964646.0      -964761.0      -964884.0      -965033.0      -965173.0
      -965293.0      -965380.0      -965533.0      -965728.0      -965884.0
      -966066.0      -966254.0      -966491.0      -966783.0      -967072.0
      -967366.0      -967647.0      -967946.0      -968242.0      -968517.0
      -968793.0      -969116.0      -969443.0      -969696.0      -969923.0
      -970145.0      -970377.0      -970592.0      -970801.0      -971031.0
      -971204.0      -971325.0      -971413.0      -971470.0      -971520.0
      -971524.0      -971494.0      -971504.0      -971571.0      -971578.0
      -971534.0      -971523.0      -971521.0      -971531.0      -971525.0
      -971490.0      -971427.0      -971328.0      -971237.0      -971164.0
      -971061.0      -970915.0      -970753.0      -970577.0      -970376.0
      -970188.0      -969994.0      -969762.0      -969554.0      -969331.0
      -969084.0      -968837.0      -968605.0      -968371.0      -968126.0
      -967901.0      -967653.0      -967414.0      -967171.0      -966947.0
      -966745.0      -966510.0      -966326.0      -966175.0      -965982.0
      -965804.0      -965713.0      -965611.0      -965501.0      -965436.0
      -965360.0      -965333.0      -965324.0      -965317.0      -965359.0
      -965426.0      -965510.0      -965603.0      -965738.0      -965868.0
      -965955.0      -966072.0      -966210.0      -966333.0      -966441.0
      -966575.0      -966681.0      -966733.0      -966820.0      -966927.0
      -967044.0      -967169.0      -967287.0      -967414.0      -967580.0
      -967729.0      -967860.0      -968032.0      -968126.0      -968187.0
      -968322.0      -968432.0      -968476.0      -968494.0      -968491.0
      -968515.0      -968540.0      -968511.0      -968502.0      -968488.0
      -968471.0      -968489.0      -968491.0      -968510.0      -968540.0
      -968581.0      -968630.0      -968660.0      -968703.0      -968749.0
      -968800.0      -968876.0      -968919.0      -968902.0      -968906.0
      -968928.0      -968926.0      -968913.0      -968895.0      -968851.0
      -968799.0      -968764.0      -968695.0      -968600.0      -968520.0
      -968486.0      -968438.0      -968329.0      -968249.0      -968214.0
      -968128.0      -968046.0      -968046.0      -968028.0      -968014.0
      -968036.0      -968059.0      -968104.0      -968166.0      -968241.0
      -968328.0      -968409.0      -968466.0      -968547.0      -968603.0
      -968609.0      -968642.0      -968645.0      -968590.0      -968543.0
      -968532.0      -968536.0      -968509.0      -968424.0      -968341.0
      -968289.0      -968222.0      -968139.0      -968065.0      -967987.0
      -967875.0      -967770.0      -967688.0      -967567.0      -967403.0
      -967284.0      -967177.0      -967048.0      -966968.0      -966891.0
      -966811.0      -966764.0      -966742.0      -966720.0      -966701.0
      -966690.0      -966675.0      -966706.0      -966754.0      -966819.0
      -966910.0      -966976.0      -967048.0      -967169.0      -967322.0
      -967442.0      -967542.0      -967689.0      -967844.0      -967997.0
      -968189.0      -968389.0      -968585.0      -968805.0      -969048.0
      -969285.0      -969513.0      -969730.0      -969951.0      -970181.0
      -970390.0      -970605.0      -970842.0      -971057.0      -971229.0
      -971395.0      -971530.0      -971599.0      -971676.0      -971765.0
      -971850.0      -971925.0      -971941.0      -971930.0      -971923.0
      -971908.0      -971882.0      -971847.0      -971802.0      -971727.0
      -971654.0      -971575.0      -971450.0      -971333.0      -971212.0
      -971092.0      -970982.0      -970844.0      -970701.0      -970549.0
      -970370.0      -970189.0      -970036.0      -969883.0      -969712.0
      -969526.0      -969363.0      -969211.0      -969012.0      -968843.0
      -968736.0      -968624.0      -968518.0      -968413.0      -968341.0
      -968312.0      -968244.0      -968192.0      -968188.0      -968173.0
      -968159.0      -968183.0      -968201.0      -968222.0      -968319.0
      -968437.0      -968554.0      -968698.0      -968891.0      -969094.0
      -969275.0      -969518.0      -969755.0      -969966.0      -970178.0
      -970341.0      -970502.0      -970675.0      -970822.0      -970939.0
      -971042.0      -971128.0      -971180.0      -971226.0      -971256.0
      -971240.0      -971252.0      -971263.0      -971253.0      -971289.0
      -971274.0      -971239.0      -971248.0      -971240.0      -971224.0
      -971212.0      -971189.0      -971120.0      -971017.0      -970890.0
      -970770.0      -970703.0      -970641.0      -970543.0      -970428.0
