     0.05000000      -12345.00      -12345.00   3.710180e+09      -12345.00
   0.0005380000       659.9506      -435.0196      -12345.00      -12345.00
      -12345.00      -12345.00      -12345.00      -12345.00      -12345.00
      -12345.00      -12345.00      -12345.00      -12345.00      -12345.00
      -12345.00      -12345.00      -12345.00      -12345.00      -12345.00
      -12345.00      -12345.00      -12345.00      -12345.00      -12345.00
      -12345.00       7.272800       80.70220       460.0000       90.00000
       9.831100       126.5297      -12345.00       24.71000      -12345.00
      -12345.00      -12345.00      -12345.00      -12345.00      -12345.00
      -12345.00      -12345.00      -12345.00      -12345.00      -12345.00
       5043.999       270.5371       83.38878       45.36378      -12345.00
      -12345.00      -12345.00       88.60000       90.00000      -12345.00
      -12345.00      -12345.00      -12345.00      -12345.00      -12345.00
      -12345.00      -12345.00      -12345.00      -12345.00      -12345.00
      2019        39        12         2        23
        19         6    -12345    -12345     13200
    -12345    -12345    -12345    -12345    -12345
         1    -12345    -12345    -12345    -12345
    -12345    -12345    -12345    -12345    -12345
    -12345    -12345    -12345    -12345    -12345
    -12345    -12345    -12345    -12345    -12345
         1    -12345    -12345    -12345    -12345
PALK    Mindanao, Philip
00      -12345  -12345  
-12345  -12345  -12345  
-12345  -12345  -12345  
-12345  -12345  -12345  
-12345  -12345  -12345  
-12345  -12345  BH2     
II      -12345  Geotech 
[...]
      -1430109.      -1430177.      -1430200.      -1430260.      -1430339.
      -1430369.      -1430430.      -1430465.      -1430485.      -1430545.
      -1430551.      -1430527.      -1430503.      -1430435.      -1430382.
      -1430341.      -1430273.      -1430226.      -1430178.      -1430128.
      -1430063.      -1429975.      -1429947.      -1429904.      -1429857.
      -1429835.      -1429760.      -1429713.      -1429647.      -1429592.
      -1429613.      -1429582.      -1429581.      -1429626.      -1429640.
      -1429671.      -1429690.      -1429678.      -1429674.      -1429652.
      -1429621.      -1429645.      -1429636.      -1429601.      -1429616.
      -1429628.      -1429631.      -1429617.      -1429605.      -1429643.
      -1429672.      -1429682.      -1429729.      -1429759.      -1429796.
      -1429849.      -1429889.      -1429963.      -1430010.      -1430062.
      -1430133.      -1430174.      -1430246.      -1430296.      -1430325.
      -1430358.      -1430324.      -1430297.      -1430275.      -1430204.
      -1430147.      -1430084.      -1430024.      -1430024.      -1430006.
      -1429939.      -1429904.      -1429894.      -1429879.      -1429902.
      -1429956.      -1430003.      -1430047.      -1430085.      -1430118.
      -1430172.      -1430209.      -1430234.      -1430305.      -1430367.
      -1430359.      -1430337.      -1430349.      -1430345.      -1430330.
      -1430306.      -1430239.      -1430201.      -1430170.      -1430095.
      -1430039.      -1429981.      -1429913.      -1429870.      -1429787.
      -1429702.      -1429646.      -1429567.      -1429503.      -1429483.
      -1429482.      -1429480.      -1429497.      -1429521.      -1429536.
      -1429542.      -1429552.      -1429592.      -1429645.      -1429663.
      -1429644.      -1429667.      -1429672.      -1429645.      -1429671.
      -1429699.      -1429703.      -1429716.      -1429747.      -1429775.
      -1429793.      -1429797.      -1429811.      -1429839.      -1429863.
      -1429889.      -1429890.      -1429919.      -1429987.      -1430007.
      -1430046.      -1430110.      -1430098.      -1430096.      -1430133.
      -1430126.      -1430112.      -1430123.      -1430131.      -1430124.
      -1430131.      -1430125.      -1430078.      -1430082.      -1430113.
      -1430103.      -1430140.      -1430165.      -1430160.      -1430227.
      -1430244.      -1430217.      -1430246.      -1430273.      -1430295.
      -1430321.      -1430312.      -1430318.      -1430317.      -1430292.
      -1430272.      -1430207.      -1430153.      -1430125.      -1430076.
      -1430012.      -1429953.      -1429905.      -1429828.      -1429780.
      -1429786.      -1429785.      -1429780.      -1429766.      -1429720.
      -1429718.      -1429756.      -1429742.      -1429758.      -1429846.
      -1429908.      -1429927.      -1429940.      -1429994.      -1430064.
      -1430059.      -1430047.      -1430058.      -1430034.      -1429998.
      -1429945.      -1429911.      -1429924.      -1429940.      -1429925.
      -1429914.      -1429928.      -1429942.      -1429969.      -1429992.
      -1429988.      -1429959.      -1429949.      -1429956.      -1429958.
      -1429960.      -1429925.      -1429913.      -1429891.      -1429833.
      -1429811.      -1429751.      -1429669.      -1429634.      -1429593.
      -1429515.      -1429460.      -1429450.      -1429471.      -1429493.
      -1429477.      -1429485.      -1429538.      -1429587.      -1429648.
      -1429696.      -1429691.      -1429705.      -1429766.      -1429773.
      -1429755.      -1429791.      -1429797.      -1429779.      -1429840.
      -1429857.      -1429818.      -1429849.      -1429863.      -1429870.
      -1429932.      -1429972.      -1429993.      -1430050.      -1430107.
      -1430172.      -1430245.      -1430255.      -1430265.      -1430281.
      -1430260.      -1430263.      -1430256.      -1430273.      -1430330.
      -1430320.      -1430272.      -1430270.      -1430288.      -1430269.
      -1430271.      -1430312.      -1430301.      -1430286.      -1430283.
      -1430243.      -1430254.      -1430264.      -1430217.      -1430218.
      -1430213.      -1430186.      -1430185.      -1430157.      -1430124.
      -1430080.      -1429989.      -1429935.      -1429947.      -1429908.
      -1429836.      -1429820.      -1429793.      -1429775.      -1429777.
      -1429772.      -1429789.      -1429797.      -1429797.      -1429810.
      -1429842.      -1429870.      -1429876.      -1429893.      -1429897.
      -1429875.      -1429908.      -1429910.      -1429876.      -1429900.
      -1429889.      -1429908.      -1429937.      -1429933.      -1429996.
      -1430036.      -1430060.      -1430120.      -1430131.      -1430129.
      -1430166.      -1430186.      -1430186.      -1430185.      -1430146.
      -1430097.      -1430057.      -1430017.      -1429985.      -1429950.
      -1429944.      -1429937.      -1429923.      -1429923.      -1429893.
      -1429905.      -1429898.      -1429845.      -1429880.      -1429878.
      -1429827.      -1429841.      -1429808.      -1429769.      -1429769.
      -1429731.      -1429737.      -1429765.      -1429764.      -1429788.
      -1429767.      -1429736.      -1429776.      -1429815.      -1429824.
      -1429805.      -1429771.      -1429773.      -1429776.      -1429748.
      -1429712.      -1429674.      -1429666.      -1429678.      -1429687.
      -1429715.      -1429709.      -1429713.      -1429759.      -1429785.
      -1429819.      -1429834.      -1429865.      -1429925.      -1429940.
      -1429976.      -1430030.      -1430036.      -1430060.      -1430114.
      -1430155.      -1430187.      -1430193.      -1430205.      -1430263.
      -1430292.      -1430285.      -1430285.      -1430279.      -1430281.
      -1430285.      -1430301.      -1430290.      -1430243.      -1430228.
      -1430204.      -1430175.      -1430152.      -1430093.      -1430031.
      -1430006.      -1429991.      -1429997.      -1430025.      -1430019.
      -1430028.      -1430043.      -1430044.      -1430097.      -1430137.
      -1430148.      -1430175.      -1430197.      -1430230.      -1430248.
      -1430233.      -1430205.      -1430202.      -1430200.      -1430149.
      -1430103.      -1430084.      -1430047.      -1429999.      -1429972.
      -1429951.      -1429936.      -1429911.      -1429863.      -1429832.
      -1429775.      -1429711.      -1429698.      -1429670.      -1429641.
      -1429631.      -1429612.      -1429619.      -1429607.      -1429585.
      -1429620.      -1429644.      -1429638.      -1429651.      -1429675.
      -1429697.      -1429714.      -1429725.      -1429752.      -1429797.
      -1429822.      -1429827.      -1429844.      -1429866.      -1429881.
      -1429890.      -1429901.      -1429880.      -1429883.      -1429922.
      -1429878.      -1429850.      -1429863.      -1429833.      -1429842.
      -1429853.      -1429847.      -1429871.      -1429865.      -1429874.
      -1429903.      -1429914.      -1429934.      -1429930.      -1429924.
      -1429914.      -1429901.      -1429918.      -1429920.      -1429913.
      -1429919.      -1429919.      -1429929.      -1429958.      -1429974.
      -1429994.      -1430001.      -1429996.      -1430018.      -1430019.
      -1430026.      -1430041.      -1430017.      -1430039.      -1430055.
      -1430031.      -1430058.      -1430070.      -1430043.      -1430022.
      -1430008.      -1430022.      -1430023.      -1430006.      -1430019.
      -1430024.      -1430016.      -1430015.      -1430046.      -1430116.
      -1430163.      -1430201.      -1430279.      -1430338.      -1430359.
      -1430387.      -1430430.      -1430474.      -1430489.      -1430496.
      -1430513.      -1430497.      -1430466.      -1430433.      -1430373.
      -1430323.      -1430278.      -1430199.      -1430126.      -1430061.
      -1429968.      -1429874.      -1429803.      -1429716.      -1429640.
      -1429596.      -1429566.      -1429577.      -1429581.      -1429562.
      -1429537.      -1429526.      -1429557.      -1429544.      -1429538.
      -1429574.      -1429580.      -1429588.      -1429597.      -1429611.
      -1429606.      -1429586.      -1429606.      -1429603.      -1429601.
      -1429643.      -1429646.      -1429652.      -1429680.      -1429683.
      -1429743.      -1429839.      -1429902.      -1429967.      -1430039.
      -1430135.      -1430207.      -1430248.      -1430303.      -1430331.
      -1430359.      -1430369.      -1430347.      -1430333.      -1430298.
      -1430249.      -1430213.      -1430168.      -1430108.      -1430060.
      -1430001.      -1429959.      -1429934.      -1429881.      -1429875.
      -1429903.      -1429905.      -1429918.      -1429917.      -1429894.
      -1429921.      -1429963.      -1429971.      -1429968.      -1429948.
      -1429955.      -1429978.      -1429960.      -1429947.      -1429944.
      -1429923.      -1429861.      -1429819.      -1429824.      -1429798.
      -1429780.      -1429775.      -1429780.      -1429784.      -1429777.
      -1429822.      -1429855.      -1429853.      -1429901.      -1429965.
      -1429985.      -1430016.      -1430058.      -1430068.      -1430089.
      -1430108.      -1430100.      -1430109.      -1430142.      -1430149.
      -1430140.      -1430147.      -1430133.      -1430115.      -1430106.
      -1430090.      -1430069.      -1430046.      -1430051.      -1430077.
      -1430115.      -1430139.      -1430167.      -1430207.      -1430211.
      -1430226.      -1430253.      -1430257.      -1430253.      -1430225.
      -1430173.      -1430126.      -1430086.      -1430040.      -1429994.
      -1429946.      -1429907.      -1429879.      -1429852.      -1429862.
      -1429878.      -1429859.      -1429864.      -1429904.      -1429915.
      -1429939.      -1430017.      -1430053.      -1430072.      -1430125.
      -1430143.      -1430140.      -1430163.      -1430153.      -1430099.
      -1430086.      -1430076.      -1430044.      -1430018.      -1429971.
      -1429953.      -1429935.      -1429879.      -1429867.      -1429823.
      -1429751.      -1429736.      -1429712.      -1429683.      -1429655.
      -1429606.      -1429535.      -1429468.      -1429425.      -1429392.
      -1429382.      -1429365.      -1429332.      -1429337.      -1429347.
      -1429335.      -1429356.      -1429382.      -1429400.      -1429443.
      -1429503.      -1429553.      -1429615.      -1429677.      -1429726.
      -1429809.      -1429879.      -1429977.      -1430088.      -1430160.
      -1430257.      -1430348.      -1430432.      -1430521.      -1430567.
      -1430594.      -1430642.      -1430689.      -1430721.      -1430713.
      -1430684.      -1430672.      -1430643.      -1430624.      -1430619.
      -1430610.      -1430591.      -1430554.      -1430545.      -1430549.
      -1430523.      -1430494.      -1430455.      -1430393.      -1430360.
      -1430314.      -1430229.      -1430183.      -1430116.      -1430051.
      -1430024.      -1429965.      -1429951.      -1429958.      -1429926.
      -1429927.      -1429905.      -1429822.      -1429738.      -1429661.
      -1429606.      -1429537.      -1429448.      -1429388.      -1429351.
      -1429324.      -1429312.      -1429314.      -1429318.      -1429309.
      -1429279.      -1429175.      -1428927.      -1428579.      -1428172.
      -1427715.      -1427316.      -1427005.      -1426812.      -1426762.
      -1426788.      -1426882.      -1427004.      -1427136.      -1427264.
      -1427340.      -1427406.      -1427522.      -1427650.      -1427753.
      -1427858.      -1427951.      -1428021.      -1428075.      -1428138.
      -1428228.      -1428344.      -1428521.      -1428719.      -1428882.
      -1429015.      -1429078.      -1429114.      -1429180.      -1429263.
      -1429419.      -1429602.      -1429749.      -1429903.      -1430002.
      -1430014.      -1429931.      -1429695.      -1429329.      -1428880.
      -1428347.      -1427730.      -1427085.      -1426452.      -1425840.
      -1425298.      -1424932.      -1424757.      -1424677.      -1424656.
      -1424642.      -1424622.      -1424670.      -1424794.      -1425013.
      -1425356.      -1425820.      -1426445.      -1427250.      -1428223.
      -1429328.      -1430453.      -1431516.      -1432467.      -1433253.
      -1433904.      -1434476.      -1435007.      -1435557.      -1436116.
      -1436707.      -1437369.      -1438031.      -1438649.      -1439134.
      -1439393.      -1439430.      -1439252.      -1438960.      -1438623.
      -1438290.      -1437976.      -1437663.      -1437401.      -1437092.
      -1436639.      -1436095.      -1435421.      -1434566.      -1433636.
      -1432626.      -1431545.      -1430509.      -1429483.      -1428485.
      -1427597.      -1426822.      -1426243.      -1425893.      -1425718.
      -1425682.      -1425699.      -1425774.      -1425977.      -1426300.
      -1426757.      -1427318.      -1427914.      -1428505.      -1429091.
      -1429725.      -1430411.      -1431110.      -1431780.      -1432327.
      -1432731.      -1433076.      -1433401.      -1433755.      -1434148.
      -1434441.      -1434569.      -1434479.      -1434171.      -1433734.
      -1433140.      -1432494.      -1431940.      -1431434.      -1431029.
      -1430745.      -1430492.      -1430249.      -1429969.      -1429665.
      -1429405.      -1429217.      -1429109.      -1429053.      -1429049.
      -1429107.      -1429207.      -1429362.      -1429601.      -1429867.
      -1430148.      -1430447.      -1430778.      -1431157.      -1431510.
      -1431864.      -1432304.      -1432844.      -1433508.      -1434263.
      -1435061.      -1435887.      -1436658.      -1437281.      -1437723.
      -1437965.      -1438082.      -1438163.      -1438176.      -1438162.
      -1438174.      -1438139.      -1437980.      -1437659.      -1437170.
      -1436538.      -1435799.      -1434965.      -1434027.      -1433052.
      -1432106.      -1431200.      -1430415.      -1429699.      -1428989.
      -1428291.      -1427532.      -1426742.      -1426038.      -1425438.
      -1424938.      -1424553.      -1424223.      -1423998.      -1423846.
      -1423664.      -1423522.      -1423410.      -1423329.      -1423276.
      -1423234.      -1423284.      -1423472.      -1423818.      -1424292.
      -1424841.      -1425463.      -1426091.      -1426624.      -1427114.
      -1427565.      -1428010.      -1428550.      -1429135.      -1429799.
      -1430502.      -1431198.      -1431975.      -1432713.      -1433300.
      -1433725.      -1433947.      -1434015.      -1433974.      -1433800.
      -1433512.      -1433163.      -1432739.      -1432235.      -1431685.
      -1431090.      -1430475.      -1429882.      -1429293.      -1428711.
      -1428169.      -1427695.      -1427300.      -1427028.      -1426899.
      -1426864.      -1426937.      -1427056.      -1427138.      -1427186.
      -1427177.      -1427180.      -1427237.      -1427326.      -1427516.
      -1427793.      -1428049.      -1428291.      -1428507.      -1428741.
      -1429085.      -1429481.      -1429920.      -1430348.      -1430759.
      -1431219.      -1431733.      -1432332.      -1432944.      -1433522.
      -1434061.      -1434514.      -1434821.      -1434924.      -1434860.
      -1434716.      -1434463.      -1434050.      -1433569.      -1433010.
      -1432361.      -1431732.      -1431159.      -1430688.      -1430368.
      -1430123.      -1429881.      -1429674.      -1429490.      -1429366.
      -1429290.      -1429076.      -1428691.      -1428174.      -1427560.
      -1426941.      -1426395.      -1425938.      -1425538.      -1425206.
      -1424970.      -1424846.      -1424828.      -1424884.      -1424940.
      -1424956.      -1424917.      -1424808.      -1424750.      -1424791.
      -1424905.      -1425017.      -1425075.      -1425185.      -1425240.
      -1425155.      -1425011.      -1424744.      -1424416.      -1424161.
      -1423990.      -1424000.      -1424220.      -1424540.      -1424888.
      -1425208.      -1425497.      -1425769.      -1426002.      -1426162.
      -1426145.      -1425969.      -1425752.      -1425498.      -1425242.
      -1424991.      -1424764.      -1424646.      -1424708.      -1424983.
      -1425419.      -1425928.      -1426407.      -1426888.      -1427356.
      -1427662.      -1427738.      -1427672.      -1427722.      -1427988.
      -1428532.      -1429384.      -1430328.      -1431287.      -1432257.
      -1433151.      -1433965.      -1434678.      -1435103.      -1435127.
      -1434878.      -1434497.      -1434103.      -1433818.      -1433660.
      -1433592.      -1433599.      -1433612.      -1433514.      -1433236.
      -1432767.      -1432121.      -1431460.      -1430945.      -1430601.
      -1430362.      -1430144.      -1430026.      -1430038.      -1430087.
      -1430147.      -1430160.      -1430000.      -1429676.      -1429237.
      -1428743.      -1428333.      -1427971.      -1427665.      -1427470.
      -1427379.      -1427396.      -1427433.      -1427506.      -1427595.
      -1427693.      -1427880.      -1428076.      -1428292.      -1428546.
      -1428777.      -1428987.      -1429147.      -1429303.      -1429534.
      -1429836.      -1430225.      -1430714.      -1431237.      -1431684.
      -1432007.      -1432166.      -1432198.      -1432137.      -1431949.
      -1431698.      -1431455.      -1431253.      -1431140.      -1431170.
      -1431368.      -1431697.      -1432152.      -1432684.      -1433153.
      -1433503.      -1433685.      -1433696.      -1433681.      -1433684.
      -1433762.      -1433977.      -1434233.      -1434519.      -1434885.
      -1435321.      -1435774.      -1436147.      -1436407.      -1436585.
      -1436622.      -1436494.      -1436239.      -1435822.      -1435312.
      -1434824.      -1434327.      -1433805.      -1433297.      -1432829.
