     0.05000000      -12345.00      -12345.00   3.910700e+09      -12345.00
   0.0005380000       659.9506      -909.0195      -12345.00      -12345.00
      -12345.00      -12345.00      -12345.00      -12345.00      -12345.00
      -12345.00      -12345.00      -12345.00      -12345.00      -12345.00
      -12345.00      -12345.00      -12345.00      -12345.00      -12345.00
      -12345.00      -12345.00      -12345.00      -12345.00      -12345.00
      -12345.00      -15.95940      -5.745500       537.0000       60.00000
       9.831100       126.5297      -12345.00       24.71000      -12345.00
      -12345.00      -12345.00      -12345.00      -12345.00      -12345.00
      -12345.00      -12345.00      -12345.00      -12345.00      -12345.00
       14806.30       257.3673       91.41192       133.1622      -12345.00
      -12345.00      -12345.00       35.00000       90.00000      -12345.00
      -12345.00      -12345.00      -12345.00      -12345.00      -12345.00
      -12345.00      -12345.00      -12345.00      -12345.00      -12345.00
      2019        39        12        10        17
        19         6    -12345    -12345     13200
    -12345    -12345    -12345    -12345    -12345
         1    -12345    -12345    -12345    -12345
    -12345    -12345    -12345    -12345    -12345
    -12345    -12345    -12345    -12345    -12345
    -12345    -12345    -12345    -12345    -12345
         1    -12345    -12345    -12345    -12345
SHEL    Mindanao, Philip
00      -12345  -12345  
-12345  -12345  -12345  
-12345  -12345  -12345  
-12345  -12345  -12345  
-12345  -12345  -12345  
-12345  -12345  BH1     
II      -12345  Geotech 
[...]
      -1370255.      -1370177.      -1370033.      -1369776.      -1369473.
      -1369196.      -1369077.      -1369058.      -1369033.      -1368901.
      -1368572.      -1368148.      -1367702.      -1367334.      -1366918.
      -1366457.      -1366008.      -1365469.      -1364958.      -1364561.
      -1364304.      -1364074.      -1363783.      -1363563.      -1363460.
      -1363395.      -1363362.      -1363357.      -1363305.      -1363261.
      -1363228.      -1363079.      -1362888.      -1362691.      -1362416.
      -1362132.      -1361888.      -1361671.      -1361496.      -1361360.
      -1361283.      -1361384.      -1361622.      -1361930.      -1362201.
      -1362449.      -1362819.      -1363183.      -1363553.      -1363876.
      -1364134.      -1364387.      -1364546.      -1364678.      -1364853.
      -1364976.      -1364943.      -1364889.      -1364901.      -1365003.
      -1365062.      -1364968.      -1364934.      -1365034.      -1365120.
      -1365131.      -1365220.      -1365474.      -1365821.      -1366106.
      -1366299.      -1366601.      -1366987.      -1367264.      -1367481.
      -1367762.      -1368144.      -1368537.      -1368850.      -1369132.
      -1369265.      -1369083.      -1368691.      -1368219.      -1367604.
      -1366913.      -1366421.      -1366125.      -1365892.      -1365729.
      -1365556.      -1365537.      -1365759.      -1365789.      -1365674.
      -1365558.      -1365320.      -1364995.      -1364599.      -1364410.
      -1364381.      -1364278.      -1364125.      -1364129.      -1364447.
      -1364718.      -1364839.      -1365046.      -1365341.      -1365513.
      -1365499.      -1365363.      -1365331.      -1365538.      -1365590.
      -1365584.      -1365855.      -1366293.      -1366735.      -1367163.
      -1367613.      -1368067.      -1368668.      -1369305.      -1369809.
      -1370213.      -1370440.      -1370480.      -1370316.      -1370047.
      -1369683.      -1369280.      -1368971.      -1368632.      -1368393.
      -1368292.      -1368180.      -1368061.      -1367914.      -1367686.
      -1367406.      -1367140.      -1366824.      -1366579.      -1366372.
      -1366080.      -1365749.      -1365286.      -1364759.      -1364157.
      -1363544.      -1362983.      -1362436.      -1361990.      -1361501.
      -1361098.      -1360957.      -1361143.      -1361551.      -1361940.
      -1362335.      -1362660.      -1363151.      -1363734.      -1364098.
      -1364296.      -1364295.      -1364204.      -1364114.      -1364122.
      -1364041.      -1363789.      -1363682.      -1363678.      -1363766.
      -1363839.      -1363840.      -1363892.      -1363937.      -1364134.
      -1364427.      -1364698.      -1364993.      -1365168.      -1365247.
      -1365284.      -1365338.      -1365358.      -1365405.      -1365575.
      -1365726.      -1365933.      -1366074.      -1366223.      -1366484.
      -1366615.      -1366582.      -1366425.      -1366329.      -1366170.
      -1365846.      -1365452.      -1365087.      -1364841.      -1364644.
      -1364576.      -1364532.      -1364482.      -1364541.      -1364729.
      -1364916.      -1364968.      -1364949.      -1364866.      -1364922.
      -1365136.      -1365341.      -1365576.      -1365913.      -1366376.
      -1366992.      -1367729.      -1368487.      -1369351.      -1370210.
      -1370929.      -1371598.      -1372125.      -1372427.      -1372626.
      -1372676.      -1372479.      -1372068.      -1371534.      -1371004.
      -1370454.      -1369962.      -1369558.      -1369150.      -1368784.
      -1368523.      -1368287.      -1368013.      -1367831.      -1367712.
      -1367553.      -1367383.      -1367362.      -1367493.      -1367656.
      -1367754.      -1367603.      -1367313.      -1366987.      -1366727.
      -1366412.      -1365902.      -1365441.      -1365081.      -1364871.
      -1364646.      -1364370.      -1364093.      -1363702.      -1363344.
      -1363072.      -1362847.      -1362507.      -1362132.      -1361972.
      -1361952.      -1361953.      -1361957.      -1362126.      -1362359.
      -1362623.      -1363053.      -1363390.      -1363662.      -1363998.
      -1364239.      -1364509.      -1364982.      -1365339.      -1365393.
      -1365392.      -1365307.      -1365174.      -1365044.      -1364891.
      -1364814.      -1364605.      -1364365.      -1364254.      -1364036.
      -1363558.      -1362990.      -1362608.      -1362397.      -1362263.
      -1362302.      -1362511.      -1362571.      -1362666.      -1363040.
      -1363376.      -1363443.      -1363367.      -1363488.      -1363716.
      -1363978.      -1364189.      -1364286.      -1364388.      -1364369.
      -1364237.      -1363996.      -1363661.      -1363278.      -1363144.
      -1363323.      -1363592.      -1364035.      -1364477.      -1364920.
      -1365367.      -1365637.      -1365712.      -1365822.      -1366061.
      -1366139.      -1366158.      -1366220.      -1366307.      -1366429.
      -1366542.      -1366697.      -1366907.      -1367138.      -1367449.
      -1367962.      -1368472.      -1368941.      -1369384.      -1369835.
      -1370341.      -1370767.      -1371308.      -1371800.      -1372195.
      -1372621.      -1372795.      -1372764.      -1372542.      -1372187.
      -1372019.      -1371804.      -1371345.      -1371042.      -1371077.
      -1371237.      -1371283.      -1371321.      -1371399.      -1371445.
      -1371429.      -1371196.      -1370799.      -1370355.      -1369817.
      -1369097.      -1368306.      -1367464.      -1366540.      -1365713.
      -1365091.      -1364700.      -1364436.      -1364137.      -1363900.
      -1363812.      -1363670.      -1363441.      -1363119.      -1362711.
      -1362278.      -1361686.      -1360979.      -1360280.      -1359560.
      -1358879.      -1358263.      -1357780.      -1357530.      -1357344.
      -1357344.      -1357637.      -1358016.      -1358604.      -1359409.
      -1360213.      -1361084.      -1362030.      -1362853.      -1363670.
      -1364373.      -1364769.      -1364965.      -1364918.      -1364806.
      -1364776.      -1364812.      -1364915.      -1364871.      -1364718.
      -1364668.      -1364654.      -1364505.      -1364230.      -1364059.
      -1364056.      -1364090.      -1364276.      -1364561.      -1364780.
      -1365126.      -1365572.      -1365979.      -1366417.      -1366939.
      -1367444.      -1367831.      -1368203.      -1368575.      -1368913.
      -1369129.      -1369231.      -1369437.      -1369669.      -1369848.
      -1370175.      -1370578.      -1370962.      -1371282.      -1371544.
      -1371650.      -1371419.      -1371189.      -1370825.      -1370217.
      -1369583.      -1368871.      -1367954.      -1366923.      -1366087.
      -1365211.      -1364377.      -1363729.      -1363273.      -1363062.
      -1362956.      -1363058.      -1363201.      -1363415.      -1363805.
      -1363973.      -1364058.      -1364178.      -1364093.      -1364004.
      -1363777.      -1363560.      -1363579.      -1363605.      -1363475.
      -1363407.      -1363731.      -1363694.      -1363509.      -1363754.
      -1364059.      -1364252.      -1364302.      -1364496.      -1364673.
      -1364742.      -1364641.      -1364473.      -1364456.      -1364206.
      -1363836.      -1363716.      -1363796.      -1363732.      -1363831.
      -1364446.      -1365254.      -1366121.      -1366739.      -1367160.
      -1367672.      -1367734.      -1367233.      -1366596.      -1365934.
      -1365215.      -1364500.      -1364044.      -1363887.      -1363926.
      -1364018.      -1364229.      -1364738.      -1365312.      -1365774.
      -1366184.      -1366636.      -1367038.      -1367437.      -1367832.
      -1367987.      -1368014.      -1367903.      -1367791.      -1367758.
      -1367599.      -1367450.      -1367305.      -1367120.      -1367037.
      -1367165.      -1367294.      -1367427.      -1367748.      -1368059.
      -1368541.      -1369213.      -1369595.      -1369603.      -1369600.
      -1369644.      -1369591.      -1369608.      -1369525.      -1369242.
      -1369002.      -1368763.      -1368386.      -1367925.      -1367440.
      -1366680.      -1365774.      -1364913.      -1363973.      -1363133.
      -1362583.      -1362404.      -1362422.      -1362642.      -1363082.
      -1363405.      -1363672.      -1364109.      -1364697.      -1365345.
      -1365954.      -1366415.      -1366907.      -1367447.      -1367724.
      -1367908.      -1368029.      -1367828.      -1367507.      -1367312.
      -1367148.      -1367020.      -1367103.      -1367269.      -1367447.
      -1367791.      -1368119.      -1368355.      -1368706.      -1368969.
      -1368844.      -1368459.      -1368216.      -1368089.      -1367762.
      -1367556.      -1367591.      -1367675.      -1367816.      -1367917.
      -1367980.      -1367952.      -1367755.      -1367406.      -1366948.
      -1366545.      -1366240.      -1365932.      -1365490.      -1365002.
      -1364632.      -1364094.      -1363414.      -1362910.      -1362290.
      -1361546.      -1360998.      -1360573.      -1360138.      -1359617.
      -1359176.      -1358944.      -1358731.      -1358471.      -1358340.
      -1358522.      -1358955.      -1359407.      -1359956.      -1360796.
      -1361662.      -1362547.      -1363551.      -1364423.      -1365150.
      -1365668.      -1365966.      -1366037.      -1366095.      -1366280.
      -1365994.      -1365656.      -1365664.      -1365492.      -1365363.
      -1365397.      -1365222.      -1364990.      -1364986.      -1364746.
      -1364435.      -1364329.      -1364022.      -1363736.      -1363469.
      -1363277.      -1363148.      -1362995.      -1363174.      -1363412.
      -1363630.      -1364008.      -1364459.      -1364971.      -1365426.
      -1365836.      -1366104.      -1366214.      -1366371.      -1366554.
      -1366739.      -1366884.      -1367123.      -1367420.      -1367688.
      -1368104.      -1368342.      -1368546.      -1368831.      -1368848.
      -1368914.      -1369035.      -1369098.      -1369212.      -1369500.
      -1369805.      -1369847.      -1369813.      -1369900.      -1369910.
      -1369686.      -1369520.      -1369170.      -1368751.      -1368366.
      -1368058.      -1368159.      -1368209.      -1368290.      -1368530.
      -1368777.      -1368877.      -1369003.      -1369014.      -1368715.
      -1368400.      -1367790.      -1367111.      -1366323.      -1365550.
      -1364869.      -1364238.      -1363831.      -1363385.      -1363121.
      -1362955.      -1362844.      -1362613.      -1362530.      -1362448.
      -1362022.      -1361974.      -1362025.      -1361874.      -1361779.
      -1361974.      -1362044.      -1362008.      -1362257.      -1362285.
      -1362155.      -1362404.      -1362782.      -1362819.      -1363150.
      -1363765.      -1364150.      -1364706.      -1365600.      -1366311.
      -1366689.      -1367372.      -1367941.      -1368156.      -1368668.
      -1369096.      -1368923.      -1368829.      -1369169.      -1369144.
      -1369174.      -1369564.      -1369697.      -1370040.      -1370761.
      -1371299.      -1371788.      -1372484.      -1373002.      -1373279.
      -1373512.      -1373769.      -1373508.      -1372817.      -1372200.
      -1371100.      -1369963.      -1368808.      -1367246.      -1365908.
      -1364839.      -1363610.      -1362554.      -1362015.      -1361391.
      -1360799.      -1360531.      -1360463.      -1360544.      -1360803.
      -1361313.      -1361723.      -1362169.      -1363023.      -1363644.
      -1364001.      -1364674.      -1365099.      -1365270.      -1365651.
      -1365891.      -1365778.      -1365756.      -1365744.      -1365334.
      -1364897.      -1364563.      -1364101.      -1363545.      -1363207.
      -1362898.      -1362419.      -1362001.      -1361600.      -1361086.
      -1360374.      -1359689.      -1359065.      -1358539.      -1358223.
      -1358036.      -1358088.      -1358345.      -1358461.      -1358559.
      -1358857.      -1358934.      -1359065.      -1359272.      -1359249.
      -1359401.      -1359719.      -1360142.      -1360594.      -1361207.
      -1361946.      -1362473.      -1363248.      -1364184.      -1365003.
      -1365862.      -1366684.      -1367512.      -1368184.      -1369024.
      -1369877.      -1370513.      -1371594.      -1372567.      -1373443.
      -1374523.      -1375524.      -1376423.      -1377061.      -1377540.
      -1377578.      -1377586.      -1377634.      -1377491.      -1377532.
      -1377440.      -1377279.      -1377073.      -1376736.      -1376376.
      -1376024.      -1375492.      -1374884.      -1374599.      -1374331.
      -1374188.      -1374036.      -1373715.      -1373331.      -1372634.
      -1371928.      -1371073.      -1370150.      -1369084.      -1367812.
      -1366775.      -1365516.      -1364345.      -1363415.      -1362453.
      -1361760.      -1361209.      -1360800.      -1360523.      -1360197.
      -1360011.      -1360030.      -1360032.      -1360029.      -1360027.
      -1360044.      -1360048.      -1359989.      -1360059.      -1360134.
      -1360100.      -1360128.      -1360163.      -1360229.      -1360388.
      -1360693.      -1361081.      -1361496.      -1362169.      -1362707.
      -1363135.      -1363526.      -1363547.      -1363629.      -1363719.
      -1363804.      -1364084.      -1364341.      -1364808.      -1365461.
      -1365931.      -1366534.      -1367177.      -1367656.      -1368110.
      -1368653.      -1369430.      -1369836.      -1370306.      -1370898.
      -1370922.      -1370962.      -1370791.      -1370545.      -1370251.
      -1369772.      -1369533.      -1368982.      -1368431.      -1367929.
      -1367457.      -1367300.      -1367042.      -1367016.      -1367091.
      -1367017.      -1366956.      -1366917.      -1366850.      -1366496.
      -1366045.      -1365660.      -1365183.      -1364647.      -1364185.
      -1363719.      -1363341.      -1363366.      -1363596.      -1363939.
      -1364571.      -1365207.      -1365779.      -1366347.      -1366753.
      -1366834.      -1366591.      -1366321.      -1365804.      -1365191.
      -1364827.      -1364194.      -1363608.      -1363340.      -1363115.
      -1363201.      -1363423.      -1363610.      -1363819.      -1364053.
      -1364435.      -1364568.      -1364403.      -1364228.      -1363871.
      -1363655.      -1363574.      -1363408.      -1363332.      -1363222.
      -1363199.      -1363177.      -1363246.      -1363362.      -1363222.
      -1363299.      -1363413.      -1363534.      -1363780.      -1363811.
      -1363945.      -1363972.      -1363991.      -1364092.      -1364049.
      -1364123.      -1363965.      -1363777.      -1363597.      -1363298.
      -1363148.      -1362940.      -1362972.      -1363165.      -1363583.
      -1364181.      -1364536.      -1364971.      -1365039.      -1365051.
      -1365244.      -1365098.      -1364932.      -1364705.      -1364509.
      -1364319.      -1364436.      -1364694.      -1364952.      -1365691.
      -1366473.      -1367225.      -1367961.      -1368657.      -1369143.
      -1369595.      -1369892.      -1369923.      -1369998.      -1369637.
      -1369382.      -1369079.      -1368743.      -1368667.      -1368345.
      -1368209.      -1368014.      -1368082.      -1368352.      -1368322.
      -1368702.      -1368957.      -1369098.      -1369464.      -1369602.
      -1369910.      -1370065.      -1370038.      -1370169.      -1370069.
      -1370105.      -1370116.      -1369982.      -1369950.      -1369663.
      -1369416.      -1368927.      -1368249.      -1367671.      -1366805.
      -1366217.      -1365653.      -1365029.      -1364587.      -1364055.
      -1363729.      -1363385.      -1363047.      -1362796.      -1362541.
      -1362522.      -1362506.      -1362623.      -1362860.      -1363012.
      -1363196.      -1363134.      -1363110.      -1363089.      -1362798.
      -1362609.      -1362469.      -1362325.      -1362372.      -1362537.
      -1362694.      -1362826.      -1362958.      -1363090.      -1363042.
      -1363166.      -1363271.      -1363249.      -1363398.      -1363324.
      -1363313.      -1363220.      -1362992.      -1362638.      -1362110.
      -1361751.      -1361308.      -1360952.      -1360726.      -1360535.
      -1360579.      -1360804.      -1361063.      -1361501.      -1362003.
      -1362430.      -1362926.      -1363393.      -1363912.      -1364662.
      -1365234.      -1365763.      -1366418.      -1366738.      -1367022.
      -1367223.      -1367494.      -1367714.      -1367877.      -1368219.
      -1368233.      -1368388.      -1368535.      -1368529.      -1368749.
      -1368975.      -1369287.      -1369519.      -1369760.      -1370202.
      -1370400.      -1370608.      -1370768.      -1370553.      -1370604.
      -1370584.      -1370549.      -1370752.      -1370839.      -1371127.
      -1371273.      -1371356.      -1371485.      -1371532.      -1371504.
      -1371260.      -1370952.      -1370704.      -1370587.      -1370360.
      -1370308.      -1370128.      -1369708.      -1369432.      -1369017.
      -1368798.      -1368747.      -1368670.      -1368727.      -1368593.
      -1368312.      -1368063.      -1367733.      -1367465.      -1366969.
      -1366374.      -1365976.      -1365527.      -1365219.      -1365168.
      -1365237.      -1365451.      -1365734.      -1366027.      -1366302.
      -1366326.      -1366419.      -1366371.      -1365996.      -1365657.
      -1365244.      -1364812.      -1364206.      -1363632.      -1362917.
      -1362164.      -1361647.      -1361091.      -1360825.      -1360606.
      -1360516.      -1360521.      -1360478.      -1360600.      -1360869.
      -1361397.      -1361930.      -1362405.      -1362797.      -1363078.
      -1363175.      -1363035.      -1362829.      -1362517.      -1362066.
