     0.05000000      -12345.00      -12345.00   3.984360e+09      -12345.00
   0.0005380000       659.9506      -909.0195      -12345.00      -12345.00
      -12345.00      -12345.00      -12345.00      -12345.00      -12345.00
      -12345.00      -12345.00      -12345.00      -12345.00      -12345.00
      -12345.00      -12345.00      -12345.00      -12345.00      -12345.00
      -12345.00      -12345.00      -12345.00      -12345.00      -12345.00
      -12345.00      -15.95940      -5.745500       537.0000       60.00000
       9.831100       126.5297      -12345.00       24.71000      -12345.00
      -12345.00      -12345.00      -12345.00      -12345.00      -12345.00
      -12345.00      -12345.00      -12345.00      -12345.00      -12345.00
       14806.30       257.3673       91.41192       133.1622      -12345.00
      -12345.00      -12345.00       125.0000       90.00000      -12345.00
      -12345.00      -12345.00      -12345.00      -12345.00      -12345.00
      -12345.00      -12345.00      -12345.00      -12345.00      -12345.00
      2019        39        12        10        17
        19         6    -12345    -12345     13200
    -12345    -12345    -12345    -12345    -12345
         1    -12345    -12345    -12345    -12345
    -12345    -12345    -12345    -12345    -12345
    -12345    -12345    -12345    -12345    -12345
    -12345    -12345    -12345    -12345    -12345
         1    -12345    -12345    -12345    -12345
SHEL    Mindanao, Philip
00      -12345  -12345  
-12345  -12345  -12345  
-12345  -12345  -12345  
-12345  -12345  -12345  
-12345  -12345  -12345  
-12345  -12345  BH2     
II      -12345  Geotech 
[...]
      -1434046.      -1434278.      -1434396.      -1434299.      -1434142.
      -1434051.      -1433965.      -1433876.      -1433753.      -1433645.
      -1433616.      -1433386.      -1432888.      -1432441.      -1432153.
      -1431896.      -1431660.      -1431575.      -1431537.      -1431390.
      -1431242.      -1431230.      -1431342.      -1431473.      -1431583.
      -1431693.      -1431839.      -1432070.      -1432304.      -1432563.
      -1432989.      -1433442.      -1433855.      -1434363.      -1434927.
      -1435489.      -1436047.      -1436442.      -1436620.      -1436746.
      -1436794.      -1436686.      -1436547.      -1436420.      -1436245.
      -1436086.      -1435999.      -1435913.      -1435934.      -1436230.
      -1436599.      -1436849.      -1437126.      -1437472.      -1437779.
      -1438024.      -1438170.      -1438291.      -1438534.      -1438815.
      -1439026.      -1439203.      -1439290.      -1439036.      -1438370.
      -1437392.      -1436232.      -1435166.      -1434360.      -1433935.
      -1434001.      -1434474.      -1435180.      -1436055.      -1436961.
      -1437588.      -1437886.      -1437953.      -1437807.      -1437525.
      -1437159.      -1436639.      -1436032.      -1435569.      -1435262.
      -1434981.      -1434643.      -1434192.      -1433730.      -1433357.
      -1433071.      -1432904.      -1432843.      -1432816.      -1432673.
      -1432403.      -1432135.      -1431763.      -1431290.      -1430929.
      -1430660.      -1430485.      -1430499.      -1430655.      -1430925.
      -1431280.      -1431593.      -1431885.      -1432290.      -1432738.
      -1433111.      -1433470.      -1433917.      -1434394.      -1434809.
      -1435272.      -1435789.      -1436253.      -1436607.      -1436725.
      -1436673.      -1436646.      -1436588.      -1436452.      -1436298.
      -1436164.      -1436106.      -1436091.      -1436055.      -1435963.
      -1435915.      -1436127.      -1436505.      -1436824.      -1436972.
      -1436870.      -1436567.      -1436173.      -1435823.      -1435540.
      -1435294.      -1435094.      -1434906.      -1434794.      -1434734.
      -1434637.      -1434625.      -1434782.      -1435118.      -1435590.
      -1436077.      -1436502.      -1436848.      -1437144.      -1437322.
      -1437294.      -1437054.      -1436621.      -1436064.      -1435504.
      -1435058.      -1434718.      -1434458.      -1434215.      -1433985.
      -1433877.      -1433859.      -1433868.      -1433912.      -1434050.
      -1434217.      -1434340.      -1434525.      -1434856.      -1435410.
      -1436067.      -1436609.      -1436984.      -1437097.      -1436999.
      -1436903.      -1436893.      -1436902.      -1436868.      -1436767.
      -1436575.      -1436417.      -1436381.      -1436421.      -1436523.
      -1436565.      -1436507.      -1436359.      -1436054.      -1435653.
      -1435256.      -1434939.      -1434691.      -1434503.      -1434397.
      -1434420.      -1434488.      -1434478.      -1434475.      -1434429.
      -1434280.      -1434180.      -1434196.      -1434217.      -1434155.
      -1434044.      -1433922.      -1433795.      -1433748.      -1433781.
      -1433760.      -1433649.      -1433540.      -1433453.      -1433274.
      -1432991.      -1432651.      -1432243.      -1431800.      -1431485.
      -1431442.      -1431552.      -1431671.      -1431814.      -1431991.
      -1432176.      -1432314.      -1432425.      -1432620.      -1432915.
      -1433253.      -1433605.      -1433903.      -1434143.      -1434241.
      -1434066.      -1433791.      -1433485.      -1433090.      -1432746.
      -1432509.      -1432380.      -1432375.      -1432492.      -1432773.
      -1433258.      -1433918.      -1434674.      -1435542.      -1436512.
      -1437515.      -1438403.      -1439101.      -1439701.      -1440243.
      -1440750.      -1441169.      -1441509.      -1441832.      -1442069.
      -1442245.      -1442321.      -1442219.      -1441987.      -1441599.
      -1441096.      -1440618.      -1440230.      -1439974.      -1439747.
      -1439472.      -1439221.      -1439029.      -1438911.      -1438675.
      -1438227.      -1437762.      -1437391.      -1437136.      -1436959.
      -1436793.      -1436644.      -1436471.      -1436112.      -1435468.
      -1434622.      -1433869.      -1433284.      -1432672.      -1431967.
      -1431223.      -1430593.      -1430109.      -1429635.      -1429001.
      -1428312.      -1427857.      -1427572.      -1427238.      -1426951.
      -1426924.      -1427131.      -1427532.      -1427881.      -1428065.
      -1428570.      -1429504.      -1430513.      -1431470.      -1432494.
      -1433746.      -1435051.      -1436068.      -1436725.      -1437114.
      -1437319.      -1437359.      -1437292.      -1437239.      -1437106.
      -1436899.      -1436842.      -1436870.      -1436818.      -1436706.
      -1436725.      -1436963.      -1437228.      -1437384.      -1437465.
      -1437614.      -1437879.      -1438076.      -1438016.      -1437721.
      -1437359.      -1437006.      -1436635.      -1436213.      -1435787.
      -1435456.      -1435280.      -1435301.      -1435408.      -1435446.
      -1435492.      -1435589.      -1435620.      -1435603.      -1435458.
      -1435035.      -1434481.      -1433911.      -1433300.      -1432766.
      -1432454.      -1432175.      -1431888.      -1431871.      -1432123.
      -1432554.      -1433116.      -1433656.      -1433989.      -1433992.
      -1433748.      -1433511.      -1433438.      -1433409.      -1433237.
      -1433069.      -1433126.      -1433404.      -1433779.      -1434085.
      -1434344.      -1434647.      -1434956.      -1435232.      -1435570.
      -1436099.      -1436714.      -1437316.      -1438059.      -1438848.
      -1439467.      -1439887.      -1440142.      -1440347.      -1440365.
      -1440122.      -1439789.      -1439468.      -1439164.      -1438778.
      -1438345.      -1437950.      -1437599.      -1437269.      -1437006.
      -1436796.      -1436585.      -1436382.      -1436092.      -1435743.
      -1435429.      -1435102.      -1434665.      -1434154.      -1433628.
      -1433062.      -1432600.      -1432249.      -1431827.      -1431362.
      -1431007.      -1430783.      -1430613.      -1430473.      -1430313.
      -1430162.      -1430251.      -1430491.      -1430665.      -1430851.
      -1431127.      -1431606.      -1432244.      -1432931.      -1433691.
      -1434329.      -1434864.      -1435446.      -1435914.      -1436252.
      -1436462.      -1436581.      -1436803.      -1437084.      -1437285.
      -1437353.      -1437371.      -1437376.      -1437338.      -1437346.
      -1437370.      -1437274.      -1437047.      -1436687.      -1436276.
      -1435944.      -1435627.      -1435362.      -1435205.      -1435165.
      -1435311.      -1435576.      -1435849.      -1436040.      -1436222.
      -1436512.      -1436875.      -1437187.      -1437326.      -1437356.
      -1437321.      -1437192.      -1436964.      -1436609.      -1436158.
      -1435599.      -1434951.      -1434269.      -1433668.      -1433317.
      -1433098.      -1432925.      -1432842.      -1432884.      -1433162.
      -1433641.      -1434187.      -1434634.      -1434899.      -1435006.
      -1434925.      -1434650.      -1434253.      -1433809.      -1433349.
      -1432984.      -1432806.      -1432754.      -1432859.      -1433100.
      -1433349.      -1433557.      -1433678.      -1433727.      -1433743.
      -1433760.      -1433749.      -1433734.      -1433854.      -1434136.
      -1434506.      -1434780.      -1434933.      -1435064.      -1435143.
      -1435092.      -1434898.      -1434727.      -1434685.      -1434729.
      -1434738.      -1434688.      -1434777.      -1435026.      -1435251.
      -1435451.      -1435700.      -1435979.      -1436293.      -1436575.
      -1436800.      -1437090.      -1437492.      -1438092.      -1438850.
      -1439575.      -1440227.      -1440678.      -1440899.      -1440957.
      -1440858.      -1440703.      -1440401.      -1439891.      -1439242.
      -1438570.      -1438020.      -1437550.      -1437188.      -1436963.
      -1436854.      -1436819.      -1436702.      -1436468.      -1436186.
      -1435890.      -1435542.      -1435115.      -1434653.      -1434180.
      -1433682.      -1433188.      -1432657.      -1432156.      -1431863.
      -1431633.      -1431395.      -1431249.      -1431192.      -1431290.
      -1431625.      -1432131.      -1432621.      -1433035.      -1433451.
      -1433875.      -1434256.      -1434490.      -1434500.      -1434318.
      -1434079.      -1433920.      -1433832.      -1433776.      -1433837.
      -1434081.      -1434327.      -1434405.      -1434451.      -1434596.
      -1434751.      -1434803.      -1434761.      -1434638.      -1434507.
      -1434411.      -1434324.      -1434252.      -1434118.      -1433928.
      -1433752.      -1433512.      -1433166.      -1432835.      -1432696.
      -1432798.      -1432924.      -1433044.      -1433374.      -1433878.
      -1434460.      -1435138.      -1435838.      -1436425.      -1436925.
      -1437353.      -1437608.      -1437667.      -1437532.      -1437185.
      -1436656.      -1436051.      -1435427.      -1434761.      -1434084.
      -1433481.      -1433031.      -1432779.      -1432713.      -1432828.
      -1433150.      -1433672.      -1434257.      -1434692.      -1434957.
      -1435178.      -1435355.      -1435465.      -1435509.      -1435402.
      -1435191.      -1435055.      -1435035.      -1435051.      -1435010.
      -1434849.      -1434560.      -1434230.      -1433992.      -1433956.
      -1434107.      -1434417.      -1434906.      -1435541.      -1436230.
      -1436919.      -1437593.      -1438091.      -1438300.      -1438244.
      -1438027.      -1437757.      -1437580.      -1437547.      -1437538.
      -1437532.      -1437565.      -1437734.      -1438032.      -1438273.
      -1438290.      -1438123.      -1437886.      -1437577.      -1437164.
      -1436658.      -1436227.      -1435864.      -1435413.      -1434915.
      -1434495.      -1434163.      -1433824.      -1433551.      -1433456.
      -1433554.      -1433662.      -1433565.      -1433394.      -1433316.
      -1433319.      -1433383.      -1433596.      -1433945.      -1434284.
      -1434530.      -1434708.      -1434980.      -1435250.      -1435416.
      -1435483.      -1435451.      -1435496.      -1435679.      -1435959.
      -1436174.      -1436192.      -1435996.      -1435715.      -1435529.
      -1435297.      -1434995.      -1434696.      -1434380.      -1434226.
      -1434424.      -1434919.      -1435477.      -1435965.      -1436441.
      -1436829.      -1437026.      -1437076.      -1437116.      -1437062.
      -1436574.      -1435841.      -1435179.      -1434595.      -1434144.
      -1433746.      -1433261.      -1432742.      -1432240.      -1431781.
      -1431489.      -1431254.      -1431009.      -1430760.      -1430392.
      -1430058.      -1429808.      -1429591.      -1429528.      -1429589.
      -1429728.      -1430056.      -1430643.      -1431331.      -1432026.
      -1432720.      -1433277.      -1433734.      -1434153.      -1434659.
      -1435199.      -1435498.      -1435670.      -1435851.      -1436085.
      -1436317.      -1436474.      -1436657.      -1436889.      -1437144.
      -1437377.      -1437614.      -1437884.      -1438049.      -1438009.
      -1437801.      -1437472.      -1437051.      -1436592.      -1436163.
      -1435803.      -1435589.      -1435591.      -1435683.      -1435792.
      -1435969.      -1436196.      -1436514.      -1436869.      -1437253.
      -1437740.      -1438144.      -1438395.      -1438531.      -1438516.
      -1438440.      -1438416.      -1438483.      -1438610.      -1438817.
      -1439151.      -1439556.      -1440019.      -1440542.      -1441081.
      -1441591.      -1441948.      -1442116.      -1442213.      -1442353.
      -1442639.      -1442979.      -1443210.      -1443310.      -1443274.
      -1443075.      -1442666.      -1442004.      -1441130.      -1440159.
      -1439164.      -1438197.      -1437314.      -1436556.      -1435920.
      -1435326.      -1434727.      -1434156.      -1433660.      -1433145.
      -1432510.      -1431767.      -1430965.      -1430158.      -1429363.
      -1428583.      -1427837.      -1427102.      -1426349.      -1425645.
      -1425002.      -1424408.      -1423950.      -1423595.      -1423240.
      -1422874.      -1422510.      -1422224.      -1422109.      -1422165.
      -1422422.      -1422886.      -1423519.      -1424275.      -1425052.
      -1425837.      -1426701.      -1427633.      -1428574.      -1429492.
      -1430338.      -1431124.      -1431859.      -1432529.      -1433193.
      -1433791.      -1434334.      -1434942.      -1435570.      -1436175.
      -1436875.      -1437699.      -1438539.      -1439388.      -1440238.
      -1441041.      -1441713.      -1442252.      -1442735.      -1443084.
      -1443214.      -1443119.      -1442905.      -1442699.      -1442509.
      -1442322.      -1442162.      -1442033.      -1441910.      -1441908.
      -1442061.      -1442216.      -1442342.      -1442538.      -1442802.
      -1443002.      -1443126.      -1443205.      -1443141.      -1442818.
      -1442340.      -1441825.      -1441203.      -1440461.      -1439681.
      -1438977.      -1438430.      -1438061.      -1437793.      -1437535.
      -1437270.      -1436978.      -1436626.      -1436249.      -1435831.
      -1435307.      -1434712.      -1434014.      -1433335.      -1432759.
      -1432268.      -1431972.      -1431728.      -1431518.      -1431447.
      -1431339.      -1431099.      -1430768.      -1430395.      -1430018.
      -1429632.      -1429299.      -1428942.      -1428563.      -1428311.
      -1428123.      -1428073.      -1428128.      -1428235.      -1428368.
      -1428231.      -1428094.      -1428413.      -1428959.      -1429562.
      -1430317.      -1431065.      -1431721.      -1432218.      -1432426.
      -1432507.      -1432473.      -1432330.      -1432206.      -1432012.
      -1431914.      -1432036.      -1432246.      -1432507.      -1432685.
      -1432773.      -1432931.      -1433166.      -1433505.      -1434048.
      -1434704.      -1435379.      -1436079.      -1436877.      -1437760.
      -1438586.      -1439309.      -1439825.      -1440287.      -1440752.
      -1440995.      -1441053.      -1441026.      -1441051.      -1441125.
      -1441245.      -1441491.      -1441736.      -1441910.      -1441992.
      -1441916.      -1441705.      -1441375.      -1440916.      -1440422.
      -1439944.      -1439427.      -1438875.      -1438334.      -1437865.
      -1437522.      -1437187.      -1436790.      -1436442.      -1436111.
      -1435736.      -1435242.      -1434666.      -1434087.      -1433425.
      -1432832.      -1432388.      -1432099.      -1432047.      -1432033.
      -1431791.      -1431398.      -1431123.      -1431028.      -1430947.
      -1430746.      -1430543.      -1430576.      -1430972.      -1431669.
      -1432544.      -1433455.      -1434286.      -1435154.      -1436046.
      -1436775.      -1437290.      -1437560.      -1437642.      -1437635.
      -1437637.      -1437705.      -1437724.      -1437699.      -1437812.
      -1438087.      -1438332.      -1438440.      -1438487.      -1438565.
      -1438607.      -1438461.      -1438137.      -1437697.      -1437108.
      -1436388.      -1435623.      -1434829.      -1434128.      -1433641.
      -1433316.      -1433108.      -1432925.      -1432677.      -1432411.
      -1432135.      -1431775.      -1431365.      -1430951.      -1430604.
      -1430429.      -1430508.      -1430810.      -1431117.      -1431333.
      -1431570.      -1431855.      -1432130.      -1432390.      -1432553.
      -1432645.      -1432654.      -1432446.      -1432139.      -1431806.
      -1431544.      -1431460.      -1431541.      -1431809.      -1432092.
      -1432402.      -1432789.      -1433161.      -1433541.      -1433857.
      -1434023.      -1434138.      -1434330.      -1434575.      -1434884.
      -1435189.      -1435424.      -1435656.      -1435889.      -1436145.
      -1436429.      -1436715.      -1436958.      -1437258.      -1437742.
      -1438292.      -1438734.      -1439003.      -1439074.      -1438996.
      -1438887.      -1438788.      -1438692.      -1438536.      -1438300.
      -1438143.      -1438193.      -1438374.      -1438552.      -1438732.
      -1439065.      -1439548.      -1440029.      -1440461.      -1440791.
      -1440984.      -1441016.      -1440901.      -1440671.      -1440286.
      -1439770.      -1439120.      -1438405.      -1437675.      -1437008.
      -1436536.      -1436199.      -1436036.      -1436022.      -1436066.
      -1436105.      -1436048.      -1435966.      -1435835.      -1435663.
      -1435505.      -1435338.      -1435157.      -1434916.      -1434659.
      -1434362.      -1433981.      -1433652.      -1433383.      -1433112.
      -1432831.      -1432449.      -1431939.      -1431343.      -1430703.
      -1430047.      -1429380.      -1428808.      -1428447.      -1428344.
      -1428558.      -1429006.      -1429439.      -1429792.      -1430126.
      -1430457.      -1430879.      -1431313.      -1431674.      -1432049.
      -1432441.      -1432834.      -1433322.      -1433925.      -1434566.
      -1435157.      -1435620.      -1436029.      -1436382.      -1436670.
      -1436945.      -1437214.      -1437628.      -1438158.      -1438635.
      -1439089.      -1439560.      -1439942.      -1440145.      -1440170.
      -1440040.      -1439869.      -1439704.      -1439484.      -1439137.
      -1438704.      -1438265.      -1437771.      -1437264.      -1436783.
      -1436278.      -1435778.      -1435442.      -1435313.      -1435286.
      -1435225.      -1435015.      -1434752.      -1434497.      -1434312.
