     0.02500000      -12345.00      -12345.00   3.294500e+10      -12345.00
   0.0005380000       659.9755      -924.0195      -12345.00      -12345.00
      -12345.00      -12345.00      -12345.00      -12345.00      -12345.00
      -12345.00      -12345.00      -12345.00      -12345.00      -12345.00
      -12345.00      -12345.00      -12345.00      -12345.00      -12345.00
      -12345.00      -12345.00      -12345.00      -12345.00      -12345.00
      -12345.00       32.37130      -64.69630       30.00000       0.000000
       9.831100       126.5297      -12345.00       24.71000      -12345.00
      -12345.00      -12345.00      -12345.00      -12345.00      -12345.00
      -12345.00      -12345.00      -12345.00      -12345.00      -12345.00
       15198.14       13.89537       343.7589       136.6862      -12345.00
      -12345.00      -12345.00       1.000000       90.00000      -12345.00
      -12345.00      -12345.00      -12345.00      -12345.00      -12345.00
      -12345.00      -12345.00      -12345.00      -12345.00      -12345.00
      2019        39        12        10        32
        19         6    -12345    -12345     26400
    -12345    -12345    -12345    -12345    -12345
         1    -12345    -12345    -12345    -12345
    -12345    -12345    -12345    -12345    -12345
    -12345    -12345    -12345    -12345    -12345
    -12345    -12345    -12345    -12345    -12345
         1    -12345    -12345    -12345    -12345
BBSR    Mindanao, Philip
10      -12345  -12345  
-12345  -12345  -12345  
-12345  -12345  -12345  
-12345  -12345  -12345  
-12345  -12345  -12345  
-12345  -12345  BH1     
IU      -12345  Streckei
[...]
      -44523.00      -39408.00      -41626.00      -38993.00      -29111.00
      -38349.00      -41803.00      -38211.00      -39508.00      -38018.00
      -39590.00      -42268.00      -37533.00      -42545.00      -48308.00
      -42419.00      -41634.00      -43045.00      -46350.00      -45462.00
      -38919.00      -36423.00      -38089.00      -43899.00      -41433.00
      -29515.00      -31575.00      -48743.00      -44532.00      -33083.00
      -39436.00      -40632.00      -38745.00      -35002.00      -34950.00
      -42390.00      -39002.00      -33263.00      -34786.00      -36885.00
      -32130.00      -28439.00      -34560.00      -30226.00      -23950.00
      -29040.00      -28713.00      -25679.00      -26856.00      -29933.00
      -25699.00      -19460.00      -18144.00      -22098.00      -25119.00
      -20845.00      -19563.00      -14407.00      -16622.00      -22383.00
      -16825.00      -17043.00      -16594.00      -14905.00      -15471.00
      -15692.00      -21115.00      -22416.00      -23731.00      -19512.00
      -9670.000      -18155.00      -22231.00      -18775.00      -20885.00
      -19630.00      -24859.00      -26349.00      -25618.00      -32207.00
      -29757.00      -22395.00      -26884.00      -35375.00      -35011.00
      -32688.00      -31333.00      -39831.00      -45891.00      -37876.00
      -40017.00      -42852.00      -45569.00      -49491.00      -45236.00
      -49820.00      -52896.00      -49210.00      -55611.00      -58676.00
      -53971.00      -57521.00      -57740.00      -61115.00      -64730.00
      -57285.00      -63585.00      -65837.00      -64296.00      -69913.00
      -67233.00      -65913.00      -66883.00      -71835.00      -68010.00
      -65136.00      -70917.00      -65207.00      -68156.00      -68453.00
      -65657.00      -67422.00      -63750.00      -66384.00      -63001.00
      -65275.00      -66769.00      -59905.00      -67474.00      -66572.00
      -59944.00      -61413.00      -61315.00      -61996.00      -57286.00
      -57039.00      -58528.00      -56082.00      -56265.00      -52262.00
      -51824.00      -48789.00      -48894.00      -51916.00      -47120.00
      -47173.00      -46572.00      -42327.00      -43636.00      -45832.00
      -38200.00      -36016.00      -42095.00      -39242.00      -38008.00
      -40833.00      -33957.00      -33198.00      -40855.00      -35812.00
      -36293.00      -38790.00      -33106.00      -35458.00      -34564.00
      -34365.00      -37908.00      -38459.00      -34515.00      -29909.00
      -37413.00      -37783.00      -32777.00      -36012.00      -33724.00
      -31734.00      -33214.00      -32008.00      -35087.00      -33225.00
      -32179.00      -38288.00      -34070.00      -32088.00      -35212.00
      -35220.00      -32687.00      -30770.00      -32021.00      -31301.00
      -27245.00      -27726.00      -32426.00      -27218.00      -25102.00
      -25842.00      -23204.00      -25292.00      -24151.00      -21672.00
      -19613.00      -18186.00      -18446.00      -15813.00      -17455.00
      -17657.00      -11917.00      -14997.00      -14480.00      -11513.00
      -17151.00      -15442.00      -11735.00      -9770.000      -10285.00
      -14875.00      -14246.00      -13345.00      -12904.00      -16430.00
      -13464.00      -10143.00      -18687.00      -15493.00      -14402.00
      -18056.00      -18111.00      -19474.00      -20047.00      -22795.00
      -20851.00      -22464.00      -24407.00      -24233.00      -27184.00
      -24286.00      -24053.00      -29803.00      -28358.00      -24755.00
      -30929.00      -33576.00      -29483.00      -31316.00      -34176.00
      -32402.00      -29128.00      -29186.00      -31932.00      -32921.00
      -30851.00      -31977.00      -30669.00      -27216.00      -32497.00
      -31178.00      -25843.00      -26604.00      -26263.00      -25086.00
      -30781.00      -34354.00      -26845.00      -24768.00      -24363.00
      -23642.00      -26965.00      -25258.00      -22529.00      -24747.00
      -27541.00      -23725.00      -21797.00      -23141.00      -24524.00
      -26530.00      -18307.00      -20093.00      -28063.00      -20664.00
      -23187.00      -28966.00      -22209.00      -23031.00      -25085.00
      -20511.00      -27134.00      -27861.00      -22549.00      -25698.00
      -25604.00      -25905.00      -22309.00      -24903.00      -29151.00
      -24098.00      -27008.00      -27100.00      -23700.00      -24918.00
      -26799.00      -29039.00      -25961.00      -24723.00      -28819.00
      -27042.00      -23640.00      -27980.00      -27377.00      -24915.00
      -27706.00      -25068.00      -27826.00      -26165.00      -22836.00
      -30050.00      -24555.00      -19931.00      -24549.00      -25315.00
      -31679.00      -28628.00      -20420.00      -28169.00      -29659.00
      -25700.00      -26895.00      -30839.00      -29306.00      -23134.00
      -28997.00      -29035.00      -20625.00      -25626.00      -31413.00
      -26566.00      -24848.00      -29348.00      -31866.00      -26196.00
      -23521.00      -30028.00      -29321.00      -23252.00      -26837.00
      -31294.00      -26508.00      -25989.00      -28742.00      -24018.00
      -23477.00      -29961.00      -27941.00      -24197.00      -21875.00
      -21291.00      -27077.00      -25960.00      -21922.00      -22893.00
      -21175.00      -19676.00      -26186.00      -23813.00      -16590.00
      -20496.00      -17554.00      -13382.00      -20068.00      -18540.00
      -12195.00      -16589.00      -15426.00      -12022.00      -13533.00
      -11895.00      -11763.00      -7783.000      -12539.00      -13454.00
      -4415.000      -9800.000      -9825.000      -8797.000      -11336.00
      -10472.00      -10732.00      -9355.000      -12488.00      -15371.00
      -14387.00      -11075.00      -11984.00      -14353.00      -12097.00
      -13072.00      -12798.00      -13772.00      -17430.00      -16402.00
      -19209.00      -16472.00      -14529.00      -24240.00      -23484.00
      -18394.00      -18113.00      -21744.00      -25098.00      -21968.00
      -22240.00      -24945.00      -25890.00      -22412.00      -20448.00
      -27341.00      -26721.00      -21907.00      -23893.00      -26469.00
      -25698.00      -24242.00      -26989.00      -29171.00      -26554.00
      -21046.00      -24549.00      -27778.00      -22728.00      -24044.00
      -26192.00      -26209.00      -22331.00      -19314.00      -26798.00
      -27928.00      -18281.00      -20434.00      -26581.00      -17297.00
      -14769.00      -23028.00      -21938.00      -16468.00      -16587.00
      -19917.00      -21345.00      -18341.00      -13297.00      -20027.00
      -20426.00      -9346.000      -16635.00      -21363.00      -13491.00
      -11905.00      -15012.00      -13979.00      -9264.000      -8799.000
      -12050.00      -14516.00      -9898.000      -5959.000      -12101.00
      -14056.00      -4552.000      -5810.000      -13973.00      -9265.000
      -4316.000      -7640.000      -10725.00      -8094.000      -7992.000
      -8035.000      -5515.000      -8358.000      -5386.000      -4629.000
      -9705.000      -5527.000      -5615.000      -7452.000      -7769.000
      -10047.00      -8784.000      -7126.000      -11033.00      -14103.00
      -9055.000      -15217.00      -14968.00      -11085.00      -18195.00
      -13593.00      -15555.00      -17670.00      -17966.00      -20708.00
      -14312.00      -21580.00      -20393.00      -13501.00      -22645.00
      -22750.00      -20639.00      -20085.00      -20511.00      -22634.00
      -23223.00      -22276.00      -19149.00      -24459.00      -23652.00
      -20246.00      -23336.00      -20502.00      -23796.00      -25507.00
      -19340.00      -20730.00      -26903.00      -29224.00      -23904.00
      -24991.00      -30208.00      -25925.00      -25749.00      -28189.00
      -28110.00      -28694.00      -23949.00      -25763.00      -32079.00
      -27103.00      -23989.00      -25493.00      -26354.00      -29217.00
      -25424.00      -22346.00      -29064.00      -28492.00      -26639.00
      -27771.00      -24863.00      -27368.00      -25423.00      -24671.00
      -32389.00      -27447.00      -17653.00      -16657.00      -16383.00
      -26676.00      -26054.00      -21833.00      -28095.00      -21102.00
      -23313.00      -15228.00      -12926.00      -21170.00      -21414.00
      -24946.00      -15878.00      -18897.00      -14520.00      -12143.00
      -16938.00      -13260.00      -20632.00      -10888.00      -8604.000
      -14436.00      -6878.000      -5279.000      -9548.000      -14969.00
      -5295.000      -7664.000      -16964.00      -1968.000      -172.0000
      -4738.000      -806.0000      -8857.000      -7936.000      -2146.000
      -7098.000      -5655.000      -7201.000      -1243.000      -3780.000
      -20521.00      -1684.000       5830.000      -16989.00      -9196.000
       1453.000      -12580.00      -9682.000       1901.000      -6817.000
      -10224.00      -1022.000      -6878.000      -13164.00      -6569.000
      -3855.000      -4339.000      -7798.000      -7025.000      -4593.000
      -7656.000      -4976.000      -2458.000      -5608.000      -7185.000
      -3414.000      -3144.000      -7908.000      -7334.000      -4992.000
      -6803.000      -7800.000      -6847.000      -9053.000      -8747.000
      -12036.00      -8754.000      -2949.000      -12294.00      -8234.000
      -10412.00      -16204.00      -2927.000      -10179.00      -14339.00
      -7079.000      -17578.00      -15451.00      -7518.000      -10604.00
      -16173.00      -18496.00      -16719.00      -18091.00      -14613.00
      -22014.00      -25765.00      -15594.00      -17569.00      -24386.00
      -28743.00      -24856.00      -22499.00      -21808.00      -21989.00
      -29095.00      -27481.00      -23292.00      -26030.00      -32478.00
      -32456.00      -26575.00      -29801.00      -28762.00      -26544.00
      -33591.00      -30939.00      -27404.00      -29036.00      -30469.00
      -32266.00      -32782.00      -29815.00      -22880.00      -28273.00
      -34622.00      -26418.00      -23477.00      -28600.00      -23553.00
      -16472.00      -23516.00      -27793.00      -21440.00      -20144.00
      -19120.00      -17689.00      -20710.00      -15675.00      -13155.00
      -14653.00      -8777.000      -9395.000      -14109.00      -11248.00
      -4112.000      -7517.000      -15401.00      -8219.000      -5575.000
      -7525.000      -2754.000      -4926.000      -1098.000       4499.000
      -4902.000      -11454.00      -6824.000       1905.000       3216.000
      -3983.000      -2478.000       383.0000      -1402.000       2341.000
       3589.000      -824.0000      -411.0000       7819.000       6012.000
       187.0000       5166.000       3156.000       5367.000       8275.000
       4644.000       1496.000       1119.000       14543.00       8786.000
       2315.000       9674.000       6245.000       8921.000       6084.000
       5206.000       13942.00       12935.00       5956.000       972.0000
       6316.000       14856.00       11471.00       6656.000       10627.00
       6444.000      -200.0000       2717.000       7241.000       7985.000
      -3380.000      -3317.000       10490.00      -1924.000      -14032.00
      -551.0000       1666.000      -7566.000      -11695.00      -6353.000
      -3005.000      -10815.00      -10903.00      -10651.00      -7630.000
      -9689.000      -22846.00      -22997.00      -15280.00      -15382.00
      -23259.00      -15757.00      -15611.00      -30856.00      -23359.00
      -15671.00      -23944.00      -31180.00      -26602.00      -19801.00
      -23820.00      -26341.00      -30298.00      -28404.00      -22506.00
      -26558.00      -28330.00      -33954.00      -30018.00      -20459.00
      -26743.00      -31516.00      -28927.00      -26427.00      -25631.00
      -22664.00      -27271.00      -30198.00      -17808.00      -17360.00
      -30002.00      -22057.00      -11901.00      -18935.00      -19151.00
      -12574.00      -13147.00      -24543.00      -18441.00      -7593.000
      -13802.00      -11515.00      -9323.000      -9155.000      -8000.000
      -2602.000      -3348.000      -12510.00      -932.0000       4597.000
      -4840.000      -24.00000       10512.00       1451.000      -2449.000
       15626.00       5797.000      -5734.000       11412.00       14412.00
       5359.000       6934.000       13408.00       13005.00       8916.000
       10934.00       14943.00       10820.00       11415.00       18091.00
       16806.00       13948.00       13215.00       14664.00       14152.00
       9916.000       4541.000       6576.000       11325.00       7831.000
       10684.00       8254.000       1292.000       6263.000       6106.000
       6206.000       8154.000       4925.000       3678.000      -77.00000
       6162.000       6160.000      -5153.000       4187.000       6640.000
      -8568.000      -11659.00      -1108.000      -3673.000      -7240.000
       3121.000      -3212.000      -7998.000      -4511.000      -7656.000
      -7501.000      -7570.000      -5298.000      -11171.00      -16072.00
      -18.00000      -5215.000      -16427.00      -9811.000      -15851.00
      -12221.00      -15712.00      -22403.00      -11304.00      -12883.00
      -15209.00      -13887.00      -14501.00      -15948.00      -14552.00
      -11028.00      -15421.00      -16861.00      -17096.00      -14085.00
      -9609.000      -21222.00      -18527.00      -8860.000      -19194.00
      -24872.00      -22252.00      -15045.00      -18767.00      -18956.00
      -12237.00      -25410.00      -21987.00      -12546.00      -18832.00
      -13551.00      -20070.00      -21744.00      -14974.00      -28087.00
      -17603.00      -12943.00      -19558.00      -15022.00      -20551.00
      -19428.00      -23887.00      -19948.00      -11468.00      -16923.00
      -17924.00      -17176.00      -15136.00      -13269.00      -14070.00
      -15044.00      -10383.00      -10684.00      -13398.00      -5698.000
      -7875.000      -14759.00      -6293.000      -2256.000      -10006.00
      -12394.00      -7250.000      -4784.000      -6098.000      -2166.000
       167.0000      -3027.000      -2703.000      -989.0000      -2041.000
       590.0000       1435.000      -3476.000      -49.00000       4756.000
       865.0000      -157.0000       4388.000       1932.000      -3014.000
      -150.0000      -766.0000      -3089.000       3320.000       5864.000
      -154.0000       3170.000       6101.000       2513.000       6320.000
       3781.000       1692.000       10848.00       4273.000      -124.0000
       13903.00       6833.000       3627.000       8833.000       1462.000
       6385.000       6372.000       3837.000       4590.000       2116.000
       8897.000       8828.000       1796.000       2700.000       2654.000
       2386.000      -848.0000      -3295.000       2954.000       966.0000
      -2950.000      -4175.000      -4604.000      -4149.000      -5789.000
      -2591.000      -6065.000      -9654.000      -7002.000      -8675.000
      -7117.000      -8942.000      -12453.00      -10424.00      -14662.00
      -15608.00      -13654.00      -18300.00      -16159.00      -16505.00
      -23360.00      -21438.00      -20241.00      -21281.00      -21579.00
      -24815.00      -22755.00      -21017.00      -24595.00      -24154.00
      -22894.00      -25102.00      -25895.00      -29164.00      -31166.00
      -26574.00      -29453.00      -32470.00      -26035.00      -26738.00
      -29962.00      -31063.00      -31380.00      -23411.00      -23739.00
      -31683.00      -32706.00      -29611.00      -24135.00      -26119.00
      -29258.00      -24783.00      -26977.00      -30452.00      -27042.00
      -24367.00      -21732.00      -23960.00      -33431.00      -31557.00
      -22065.00      -24210.00      -25067.00      -22149.00      -23442.00
      -26248.00      -30521.00      -25438.00      -20304.00      -23922.00
      -23520.00      -21438.00      -16819.00      -18717.00      -26653.00
      -23146.00      -19895.00      -19470.00      -18499.00      -17096.00
      -15800.00      -16085.00      -15875.00      -15764.00      -12734.00
      -10825.00      -11777.00      -14478.00      -7828.000      -2661.000
      -7343.000      -6493.000      -8767.000      -6922.000      -2466.000
      -4175.000      -4432.000      -10993.00      -8678.000       427.0000
       792.0000       1187.000      -4695.000      -6703.000      -2703.000
      -3479.000      -1820.000      -1421.000      -3321.000      -4538.000
      -5254.000      -1656.000      -976.0000      -3898.000      -2063.000
      -1239.000      -1347.000      -1427.000      -2813.000      -4144.000
      -4661.000      -1752.000      -4525.000      -3016.000       5152.000
      -429.0000      -3537.000      -470.0000       1656.000       3070.000
       1091.000       4133.000       564.0000      -4265.000      -2966.000
      -647.0000       3457.000       3298.000      -292.0000      -2297.000
       806.0000       785.0000       1463.000       3530.000       3092.000
      -3025.000      -6266.000       4028.000       1241.000       210.0000
       1216.000      -6567.000      -430.0000      -620.0000      -1769.000
       14.00000      -6349.000      -6473.000      -8339.000      -9565.000
      -2836.000      -1320.000      -8110.000      -10522.00      -4157.000
      -5664.000      -15103.00      -11931.00      -8969.000      -12469.00
      -13093.00      -16758.00      -15092.00      -14324.00      -18091.00
      -17364.00      -16278.00      -16396.00      -19466.00      -21569.00
      -20089.00      -20821.00      -22292.00      -24623.00      -24607.00
      -20083.00      -23387.00      -27741.00      -24558.00      -21481.00
      -24919.00      -29793.00      -26650.00      -26359.00      -27440.00
      -22897.00      -26092.00      -26190.00      -24598.00      -29282.00
