     0.02500000      -12345.00      -12345.00   1.996490e+09      -12345.00
   0.0005380000       659.9755      -924.0195      -12345.00      -12345.00
      -12345.00      -12345.00      -12345.00      -12345.00      -12345.00
      -12345.00      -12345.00      -12345.00      -12345.00      -12345.00
      -12345.00      -12345.00      -12345.00      -12345.00      -12345.00
      -12345.00      -12345.00      -12345.00      -12345.00      -12345.00
      -12345.00       32.37130      -64.69630      -1.000000       31.00000
       9.831100       126.5297      -12345.00       24.71000      -12345.00
      -12345.00      -12345.00      -12345.00      -12345.00      -12345.00
      -12345.00      -12345.00      -12345.00      -12345.00      -12345.00
       15198.14       13.89537       343.7589       136.6862      -12345.00
      -12345.00      -12345.00       17.00000       90.00000      -12345.00
      -12345.00      -12345.00      -12345.00      -12345.00      -12345.00
      -12345.00      -12345.00      -12345.00      -12345.00      -12345.00
      2019        39        12        10        32
        19         6    -12345    -12345     26400
    -12345    -12345    -12345    -12345    -12345
         1    -12345    -12345    -12345    -12345
    -12345    -12345    -12345    -12345    -12345
    -12345    -12345    -12345    -12345    -12345
    -12345    -12345    -12345    -12345    -12345
         1    -12345    -12345    -12345    -12345
BBSR    Mindanao, Philip
00      -12345  -12345  
-12345  -12345  -12345  
-12345  -12345  -12345  
-12345  -12345  -12345  
-12345  -12345  -12345  
-12345  -12345  BH2     
IU      -12345  Streckei
[...]
       3342.000       3317.000       3242.000       3380.000       3381.000
       3230.000       3277.000       3318.000       3305.000       3389.000
       3377.000       3314.000       3300.000       3311.000       3266.000
       3239.000       3350.000       3395.000       3360.000       3349.000
       3293.000       3316.000       3411.000       3360.000       3376.000
       3484.000       3499.000       3537.000       3490.000       3418.000
       3520.000       3532.000       3446.000       3470.000       3543.000
       3635.000       3672.000       3739.000       3842.000       3800.000
       3756.000       3772.000       3766.000       3710.000       3717.000
       3828.000       3871.000       3875.000       3883.000       3845.000
       3811.000       3844.000       3834.000       3764.000       3794.000
       3820.000       3774.000       3838.000       3954.000       3936.000
       3910.000       3908.000       3864.000       3893.000       3942.000
       4002.000       4060.000       4085.000       4120.000       4020.000
       3978.000       4007.000       3926.000       4074.000       4179.000
       4069.000       4110.000       4050.000       4023.000       4087.000
       3880.000       3861.000       3960.000       3899.000       3898.000
       3748.000       3675.000       3676.000       3512.000       3404.000
       3369.000       3323.000       3212.000       3215.000       3109.000
       3038.000       3037.000       2747.000       2791.000       2685.000
       2508.000       2693.000       2488.000       2442.000       2450.000
       2301.000       2347.000       2257.000       2205.000       2133.000
       2135.000       2198.000       2117.000       2128.000       2091.000
       2100.000       2085.000       2057.000       2140.000       2137.000
       2208.000       2210.000       2203.000       2315.000       2244.000
       2235.000       2349.000       2398.000       2550.000       2588.000
       2600.000       2716.000       2670.000       2727.000       2786.000
       2843.000       2885.000       2851.000       3016.000       3005.000
       3073.000       3215.000       3101.000       3223.000       3315.000
       3267.000       3305.000       3362.000       3455.000       3398.000
       3443.000       3527.000       3434.000       3515.000       3485.000
       3455.000       3537.000       3404.000       3435.000       3498.000
       3487.000       3512.000       3450.000       3522.000       3479.000
       3419.000       3506.000       3335.000       3332.000       3422.000
       3288.000       3388.000       3413.000       3301.000       3310.000
       3273.000       3294.000       3251.000       3205.000       3236.000
       3156.000       3128.000       3084.000       3019.000       3074.000
       3025.000       3031.000       3066.000       2950.000       2978.000
       2998.000       3020.000       3073.000       3073.000       3092.000
       3014.000       3035.000       2985.000       2965.000       3190.000
       3233.000       3239.000       3326.000       3331.000       3334.000
       3453.000       3630.000       3646.000       3690.000       3810.000
       3766.000       3817.000       4020.000       4116.000       4201.000
       4314.000       4408.000       4559.000       4599.000       4628.000
       4758.000       4782.000       4856.000       4989.000       5107.000
       5238.000       5293.000       5290.000       5327.000       5448.000
       5480.000       5484.000       5545.000       5551.000       5544.000
       5565.000       5613.000       5637.000       5642.000       5613.000
       5550.000       5472.000       5407.000       5383.000       5327.000
       5321.000       5296.000       5215.000       5196.000       5128.000
       5056.000       5027.000       4895.000       4763.000       4762.000
       4686.000       4565.000       4584.000       4563.000       4427.000
       4371.000       4410.000       4348.000       4217.000       4168.000
       4111.000       4003.000       3936.000       3906.000       3867.000
       3829.000       3726.000       3639.000       3581.000       3455.000
       3489.000       3565.000       3445.000       3358.000       3359.000
       3235.000       3107.000       3185.000       3179.000       3083.000
       3079.000       3014.000       2927.000       2921.000       2925.000
       2899.000       2887.000       2829.000       2806.000       2776.000
       2657.000       2687.000       2754.000       2760.000       2763.000
       2789.000       2754.000       2635.000       2757.000       2830.000
       2803.000       2891.000       2846.000       2868.000       2917.000
       2986.000       3049.000       2990.000       3144.000       3210.000
       3185.000       3253.000       3251.000       3338.000       3369.000
       3436.000       3565.000       3585.000       3559.000       3487.000
       3555.000       3555.000       3548.000       3734.000       3719.000
       3732.000       3832.000       3698.000       3702.000       3819.000
       3805.000       3811.000       3791.000       3802.000       3834.000
       3870.000       3920.000       3858.000       3946.000       4028.000
       3940.000       3986.000       4036.000       4018.000       3984.000
       3978.000       3947.000       3877.000       3918.000       3934.000
       4009.000       4025.000       3907.000       3913.000       3822.000
       3712.000       3735.000       3740.000       3798.000       3879.000
       3855.000       3713.000       3664.000       3698.000       3586.000
       3575.000       3616.000       3522.000       3577.000       3647.000
       3638.000       3643.000       3646.000       3733.000       3712.000
       3657.000       3688.000       3643.000       3651.000       3616.000
       3643.000       3738.000       3663.000       3726.000       3714.000
       3634.000       3722.000       3713.000       3784.000       3847.000
       3830.000       3921.000       3910.000       3910.000       3989.000
       3974.000       3986.000       3995.000       3953.000       4001.000
       4008.000       4060.000       4190.000       4220.000       4255.000
       4249.000       4367.000       4469.000       4389.000       4441.000
       4495.000       4494.000       4543.000       4619.000       4585.000
       4611.000       4736.000       4677.000       4717.000       4745.000
       4659.000       4761.000       4854.000       4829.000       4824.000
       4845.000       4770.000       4764.000       4792.000       4687.000
       4682.000       4671.000       4614.000       4629.000       4537.000
       4490.000       4487.000       4341.000       4333.000       4334.000
       4241.000       4225.000       4141.000       4097.000       4057.000
       3978.000       3968.000       3891.000       3774.000       3723.000
       3666.000       3544.000       3481.000       3437.000       3350.000
       3299.000       3251.000       3227.000       3206.000       3141.000
       3080.000       3040.000       2975.000       2880.000       2826.000
       2805.000       2768.000       2740.000       2760.000       2716.000
       2721.000       2783.000       2690.000       2756.000       2755.000
       2619.000       2755.000       2721.000       2675.000       2831.000
       2734.000       2680.000       2802.000       2640.000       2660.000
       2853.000       2731.000       2840.000       2879.000       2746.000
       2851.000       2795.000       2763.000       2850.000       2858.000
       2921.000       2922.000       2907.000       2987.000       2967.000
       2929.000       3000.000       3010.000       3070.000       3171.000
       3152.000       3232.000       3270.000       3232.000       3280.000
       3328.000       3380.000       3320.000       3380.000       3475.000
       3391.000       3458.000       3497.000       3434.000       3447.000
       3502.000       3514.000       3518.000       3596.000       3593.000
       3605.000       3661.000       3666.000       3717.000       3747.000
       3742.000       3789.000       3843.000       3821.000       3837.000
       3882.000       3876.000       3960.000       4003.000       3968.000
       4014.000       4101.000       4141.000       4144.000       4145.000
       4157.000       4195.000       4179.000       4158.000       4159.000
       4173.000       4194.000       4170.000       4222.000       4285.000
       4227.000       4239.000       4268.000       4203.000       4239.000
       4216.000       4123.000       4162.000       4107.000       4040.000
       4107.000       4078.000       3986.000       3933.000       3805.000
       3708.000       3710.000       3645.000       3568.000       3486.000
       3373.000       3304.000       3251.000       3164.000       3031.000
       2990.000       2980.000       2897.000       2825.000       2745.000
       2695.000       2648.000       2600.000       2552.000       2467.000
       2453.000       2382.000       2167.000       2125.000       2183.000
       2145.000       2129.000       2032.000       1961.000       1986.000
       1907.000       1827.000       1816.000       1814.000       1732.000
       1662.000       1650.000       1562.000       1553.000       1609.000
       1613.000       1566.000       1519.000       1513.000       1488.000
       1585.000       1628.000       1707.000       1878.000       1849.000
       1904.000       1933.000       1976.000       2132.000       2211.000
       2300.000       2295.000       2338.000       2372.000       2333.000
       2408.000       2484.000       2527.000       2652.000       2820.000
       2846.000       2917.000       2978.000       2907.000       3022.000
       3171.000       3201.000       3241.000       3190.000       3157.000
       3287.000       3319.000       3265.000       3232.000       3253.000
       3353.000       3351.000       3352.000       3343.000       3335.000
       3420.000       3444.000       3432.000       3411.000       3440.000
       3447.000       3427.000       3457.000       3422.000       3436.000
       3436.000       3429.000       3480.000       3459.000       3493.000
       3529.000       3562.000       3572.000       3584.000       3677.000
       3625.000       3663.000       3745.000       3672.000       3744.000
       3805.000       3774.000       3841.000       3813.000       3749.000
       3799.000       3784.000       3825.000       3876.000       3822.000
       3924.000       3955.000       3889.000       3953.000       3972.000
       4020.000       4039.000       4033.000       4134.000       4117.000
       4106.000       4161.000       4154.000       4166.000       4188.000
       4223.000       4206.000       4202.000       4211.000       4164.000
       4221.000       4206.000       4131.000       4169.000       4124.000
       4083.000       4089.000       4014.000       3958.000       3877.000
       3843.000       3803.000       3717.000       3739.000       3638.000
       3587.000       3602.000       3516.000       3521.000       3470.000
       3401.000       3353.000       3286.000       3246.000       3173.000
       3147.000       3128.000       3088.000       3060.000       3036.000
       2962.000       2879.000       2858.000       2825.000       2814.000
       2793.000       2766.000       2767.000       2702.000       2618.000
       2557.000       2529.000       2520.000       2447.000       2402.000
       2437.000       2443.000       2372.000       2345.000       2425.000
       2418.000       2387.000       2419.000       2430.000       2466.000
       2423.000       2361.000       2375.000       2339.000       2358.000
       2416.000       2413.000       2449.000       2462.000       2475.000
       2548.000       2574.000       2618.000       2626.000       2627.000
       2783.000       2856.000       2830.000       2903.000       3000.000
       3035.000       3073.000       3182.000       3237.000       3287.000
       3401.000       3434.000       3525.000       3664.000       3715.000
       3798.000       3901.000       3956.000       3992.000       4080.000
       4165.000       4231.000       4362.000       4380.000       4389.000
       4578.000       4653.000       4625.000       4713.000       4756.000
       4877.000       5077.000       5046.000       5064.000       5165.000
       5173.000       5222.000       5222.000       5293.000       5388.000
       5329.000       5417.000       5468.000       5399.000       5436.000
       5415.000       5468.000       5568.000       5552.000       5510.000
       5535.000       5586.000       5537.000       5575.000       5623.000
       5606.000       5693.000       5627.000       5523.000       5582.000
       5560.000       5582.000       5604.000       5555.000       5598.000
       5529.000       5450.000       5448.000       5353.000       5385.000
       5387.000       5294.000       5308.000       5273.000       5234.000
       5145.000       5119.000       5181.000       5054.000       4960.000
       4981.000       4948.000       4828.000       4755.000       4803.000
       4802.000       4722.000       4656.000       4669.000       4704.000
       4614.000       4470.000       4470.000       4539.000       4506.000
       4439.000       4425.000       4416.000       4440.000       4450.000
       4347.000       4314.000       4338.000       4272.000       4226.000
       4201.000       4233.000       4234.000       4198.000       4221.000
       4139.000       4094.000       4083.000       4031.000       4006.000
       3934.000       3985.000       3979.000       3846.000       3875.000
       3826.000       3785.000       3858.000       3827.000       3755.000
       3649.000       3625.000       3642.000       3522.000       3442.000
       3422.000       3368.000       3356.000       3344.000       3284.000
       3199.000       3187.000       3215.000       3087.000       3025.000
       3047.000       3030.000       3034.000       2938.000       2909.000
       2986.000       2949.000       2877.000       2895.000       2875.000
       2862.000       2933.000       2903.000       2935.000       2960.000
       2860.000       2927.000       3000.000       2951.000       3020.000
       3110.000       3049.000       3139.000       3254.000       3203.000
       3252.000       3304.000       3329.000       3398.000       3507.000
       3558.000       3535.000       3615.000       3691.000       3689.000
       3736.000       3809.000       3808.000       3866.000       3944.000
       3990.000       4016.000       3985.000       4071.000       4134.000
       4145.000       4167.000       4180.000       4242.000       4179.000
       4213.000       4310.000       4239.000       4247.000       4283.000
       4253.000       4234.000       4301.000       4305.000       4235.000
       4261.000       4202.000       4180.000       4200.000       4071.000
       4045.000       4056.000       3979.000       3911.000       3866.000
       3801.000       3677.000       3699.000       3716.000       3558.000
       3537.000       3515.000       3385.000       3331.000       3280.000
       3225.000       3195.000       3138.000       3072.000       3058.000
       3004.000       2977.000       3009.000       2930.000       2940.000
       2988.000       2925.000       2940.000       2987.000       2949.000
       2893.000       2957.000       2975.000       2917.000       2952.000
       2937.000       2938.000       2976.000       2961.000       3011.000
       3065.000       3120.000       3191.000       3148.000       3152.000
       3255.000       3258.000       3313.000       3396.000       3432.000
       3547.000       3564.000       3596.000       3769.000       3820.000
       3805.000       3851.000       3854.000       3887.000       4014.000
       4072.000       4090.000       4125.000       4145.000       4206.000
       4253.000       4229.000       4216.000       4212.000       4176.000
       4162.000       4173.000       4202.000       4188.000       4122.000
       4130.000       4111.000       4049.000       4025.000       3951.000
       3919.000       3941.000       3909.000       3832.000       3771.000
       3825.000       3731.000       3616.000       3746.000       3648.000
       3558.000       3640.000       3521.000       3522.000       3532.000
       3432.000       3494.000       3434.000       3373.000       3457.000
       3365.000       3334.000       3295.000       3185.000       3271.000
       3211.000       3224.000       3238.000       3099.000       3250.000
       3132.000       3048.000       3290.000       3146.000       3126.000
       3211.000       3066.000       3152.000       3195.000       3122.000
       3222.000       3222.000       3157.000       3179.000       3144.000
       3165.000       3248.000       3254.000       3205.000       3211.000
       3237.000       3120.000       3170.000       3347.000       3282.000
       3314.000       3382.000       3311.000       3365.000       3382.000
       3349.000       3378.000       3432.000       3431.000       3382.000
       3429.000       3443.000       3459.000       3484.000       3459.000
       3511.000       3547.000       3592.000       3622.000       3595.000
       3683.000       3713.000       3682.000       3733.000       3743.000
       3784.000       3814.000       3810.000       3874.000       3872.000
       3798.000       3784.000       3806.000       3824.000       3878.000
       3842.000       3787.000       3850.000       3842.000       3806.000
       3846.000       3808.000       3740.000       3778.000       3715.000
       3656.000       3691.000       3611.000       3580.000       3562.000
       3541.000       3499.000       3459.000       3507.000       3432.000
       3378.000       3324.000       3274.000       3298.000       3251.000
       3203.000       3169.000       3167.000       3111.000       3069.000
       3095.000       2997.000       2926.000       2910.000       2864.000
       2783.000       2721.000       2745.000       2688.000       2631.000
       2653.000       2650.000       2611.000       2578.000       2594.000
