     0.02500000      -12345.00      -12345.00   3.294500e+10      -12345.00
   0.0005380000       659.9755      -924.0195      -12345.00      -12345.00
      -12345.00      -12345.00      -12345.00      -12345.00      -12345.00
      -12345.00      -12345.00      -12345.00      -12345.00      -12345.00
      -12345.00      -12345.00      -12345.00      -12345.00      -12345.00
      -12345.00      -12345.00      -12345.00      -12345.00      -12345.00
      -12345.00       32.37130      -64.69630       30.00000       0.000000
       9.831100       126.5297      -12345.00       24.71000      -12345.00
      -12345.00      -12345.00      -12345.00      -12345.00      -12345.00
      -12345.00      -12345.00      -12345.00      -12345.00      -12345.00
       15198.14       13.89537       343.7589       136.6862      -12345.00
      -12345.00      -12345.00       91.00000       90.00000      -12345.00
      -12345.00      -12345.00      -12345.00      -12345.00      -12345.00
      -12345.00      -12345.00      -12345.00      -12345.00      -12345.00
      2019        39        12        10        32
        19         6    -12345    -12345     26400
    -12345    -12345    -12345    -12345    -12345
         1    -12345    -12345    -12345    -12345
    -12345    -12345    -12345    -12345    -12345
    -12345    -12345    -12345    -12345    -12345
    -12345    -12345    -12345    -12345    -12345
         1    -12345    -12345    -12345    -12345
BBSR    Mindanao, Philip
10      -12345  -12345  
-12345  -12345  -12345  
-12345  -12345  -12345  
-12345  -12345  -12345  
-12345  -12345  -12345  
-12345  -12345  BH2     
IU      -12345  Streckei
[...]
       377.0000      -901.0000       454.0000      -1793.000      -1270.000
       2538.000      -1042.000      -123.0000      -650.0000      -4912.000
       1102.000       990.0000      -8076.000      -4104.000      -192.0000
      -5611.000      -7485.000      -5050.000      -4402.000      -7577.000
      -8579.000      -2748.000      -3137.000      -10327.00      -5644.000
      -4495.000      -10668.00      -6054.000      -5783.000      -10499.00
      -9131.000      -8799.000      -8352.000      -12096.00      -12447.00
      -4198.000      -9271.000      -15482.00      -10243.00      -13176.00
      -15664.00      -10605.00      -17298.00      -17749.00      -9561.000
      -17929.00      -22592.00      -15628.00      -14614.00      -18846.00
      -18619.00      -17915.00      -19421.00      -17119.00      -17877.00
      -19337.00      -16553.00      -17163.00      -19025.00      -16684.00
      -15162.00      -17099.00      -16255.00      -13441.00      -16645.00
      -16216.00      -8816.000      -14758.00      -17635.00      -8070.000
      -11938.00      -15187.00      -11229.00      -11628.00      -11484.00
      -9656.000      -9389.000      -10287.00      -6214.000      -6849.000
      -9195.000      -5270.000      -6451.000      -7966.000      -6896.000
      -6522.000      -6911.000      -6381.000      -3589.000      -5061.000
      -2923.000      -1580.000      -6715.000      -3781.000      -1707.000
      -3231.000      -994.0000       33.00000      -1823.000      -4591.000
      -3155.000      -1692.000      -1437.000      -1536.000      -2463.000
       3627.000       1714.000      -1122.000       4438.000      -1555.000
       2896.000       6805.000      -3734.000       2725.000       5071.000
      -3324.000       512.0000       1832.000      -253.0000       3393.000
      -11.00000      -2568.000       2577.000      -72.00000      -1419.000
       2967.000      -1594.000      -2846.000      -166.0000      -3905.000
      -1988.000      -1541.000      -4075.000      -1042.000      -4231.000
      -6107.000      -1983.000      -3145.000      -3890.000      -2204.000
      -4250.000      -4748.000      -563.0000      -5189.000      -8125.000
      -3662.000      -3798.000      -3797.000      -5783.000      -2900.000
      -3078.000      -4308.000      -1338.000      -7678.000      -4352.000
      -2392.000      -5716.000      -1440.000      -5459.000      -7414.000
      -5959.000      -4849.000      -3063.000      -5329.000      -4023.000
      -3085.000      -4910.000      -5982.000      -3491.000      -4230.000
      -5748.000      -890.0000      -4711.000      -5378.000       1195.000
      -1858.000      -2723.000      -1054.000      -1603.000       860.0000
      -15.00000      -2658.000      -1524.000       1385.000       514.0000
      -698.0000       704.0000      -2995.000      -3111.000       3237.000
       1579.000      -2881.000       1207.000       2858.000       176.0000
       2975.000       163.0000      -3772.000       662.0000      -79.00000
       791.0000       400.0000      -5258.000       800.0000       1162.000
      -2902.000       1766.000       799.0000       915.0000      -1554.000
      -4885.000      -70.00000      -5353.000      -6943.000      -1138.000
      -4000.000      -4796.000      -4143.000      -3968.000      -5126.000
      -4765.000      -4002.000      -5348.000      -2203.000      -3239.000
      -6576.000      -6285.000      -4745.000      -3914.000      -6919.000
      -6530.000      -5263.000      -3745.000      -3859.000      -7738.000
      -4756.000      -7360.000      -3969.000      -296.0000      -10014.00
      -3058.000       177.0000      -3513.000      -1331.000      -4196.000
      -857.0000      -3605.000      -4785.000       877.0000      -2150.000
      -4102.000      -5440.000      -644.0000       385.0000      -4642.000
      -3556.000      -3925.000      -597.0000      -899.0000      -2455.000
      -2226.000      -4525.000      -2472.000      -4265.000      -535.0000
      -1237.000      -7247.000      -2245.000      -5900.000      -5980.000
      -5725.000      -12867.00      -9079.000      -10219.00      -13082.00
      -10136.00      -11369.00      -12823.00      -10782.00      -9218.000
      -16425.00      -15612.00      -9213.000      -15981.00      -16769.00
      -14497.00      -17026.00      -21334.00      -15581.00      -9215.000
      -21703.00      -19561.00      -11908.00      -14694.00      -17502.00
      -22186.00      -19967.00      -16098.00      -17791.00      -19889.00
      -19349.00      -23609.00      -21487.00      -17196.00      -23206.00
      -14915.00      -13100.00      -24618.00      -22682.00      -17903.00
      -17856.00      -26118.00      -23175.00      -13897.00      -18059.00
      -19064.00      -15708.00      -18056.00      -16102.00      -10811.00
      -10679.00      -5160.000      -12969.00      -19015.00      -10401.00
      -7578.000      -9201.000      -11152.00      -4208.000      -11901.00
      -18127.00      -3406.000      -1357.000      -6659.000      -3499.000
      -3759.000      -3701.000       4361.000       1727.000      -3755.000
      -776.0000      -3632.000      -1605.000       9604.000      -2534.000
      -9351.000       8914.000       12390.00       10794.00       4365.000
       4395.000       11940.00       9227.000       15472.00       9353.000
       5665.000       13929.00       7142.000       15604.00       18539.00
       8040.000       15998.00       16168.00       15605.00       18996.00
       12729.00       15037.00       16519.00       17766.00       20351.00
       19365.00       15776.00       14915.00       21181.00       13072.00
       22595.00       29047.00       10975.00       18264.00       19781.00
       15000.00       17205.00       15484.00       19129.00       12900.00
       18681.00       24991.00       14551.00       21943.00       19941.00
       14883.00       22344.00       14756.00       15418.00       18958.00
       10309.00       12001.00       15629.00       10720.00       12855.00
       16352.00       11510.00       10421.00       10457.00       9384.000
       8026.000       5105.000       9110.000       6751.000      -308.0000
       2527.000       1897.000       918.0000       3525.000       1758.000
       1068.000       399.0000      -1893.000      -863.0000      -1630.000
      -2355.000      -1462.000      -6350.000      -7940.000      -2832.000
      -1488.000      -2635.000      -4422.000      -6434.000      -2276.000
      -668.0000      -6155.000      -4115.000      -3726.000      -8655.000
      -3626.000      -4444.000      -6467.000      -327.0000      -4749.000
      -6241.000      -2505.000      -1224.000       140.0000      -5446.000
      -3397.000      -1656.000      -6969.000      -944.0000       913.0000
      -4239.000      -1545.000       1868.000      -2320.000      -4057.000
      -662.0000       683.0000       2161.000       470.0000      -1350.000
       2439.000       1951.000      -2334.000       2497.000       4931.000
       1884.000       1353.000       1721.000       6783.000       2816.000
      -1283.000       7668.000       5758.000       1582.000       4462.000
       2122.000       2623.000       4755.000       4672.000       2428.000
       5222.000       9430.000       3378.000       2535.000       4941.000
       2759.000       2479.000       3664.000       2686.000       2847.000
       4084.000       2218.000       4118.000       6208.000       1365.000
      -1042.000       2049.000       3549.000       1130.000       584.0000
       2019.000      -1126.000       1090.000       3235.000      -527.0000
      -1377.000      -3124.000      -580.0000      -933.0000      -3063.000
       407.0000      -3916.000       233.0000       7022.000      -759.0000
      -538.0000      -532.0000      -1245.000       3726.000       1278.000
       1688.000      -1556.000      -2766.000       6286.000       5448.000
       1633.000       2538.000       5716.000       4870.000       1242.000
       3115.000       5197.000       4893.000       2965.000       9257.000
       7791.000      -1099.000       5796.000       7141.000       6686.000
       7582.000       3588.000       7288.000       5056.000       4315.000
       9027.000       8518.000       11105.00       10704.00       5374.000
       4409.000       7253.000       7393.000       9606.000       10699.00
       4860.000       4852.000       9477.000       8860.000       4157.000
       4248.000       5985.000       5489.000       7267.000       7992.000
       6938.000       3841.000       6369.000       10811.00       7706.000
       7002.000       3950.000       5582.000       11009.00       335.0000
       2110.000       11984.00       3376.000       3404.000       10104.00
       10740.00       8697.000       4509.000       9175.000       11206.00
       3491.000       3029.000       9057.000       6222.000       4927.000
       12287.00       11397.00       6529.000       7391.000       10643.00
       8808.000       6347.000       8261.000       14274.00       11232.00
       2390.000       11406.00       10930.00       8892.000       12662.00
       7010.000       13691.00       11936.00       10330.00       17098.00
       9067.000       10022.00       12526.00       7568.000       12673.00
       13283.00       13289.00       11362.00       6703.000       18426.00
       12895.00       7356.000       16149.00       4684.000       8325.000
       11147.00       8133.000       15358.00       10040.00       12833.00
       10079.00       9883.000       14010.00       6729.000       10154.00
       9379.000       8047.000       8912.000       6656.000       9972.000
       11846.00       11287.00       7987.000       9446.000       14350.00
       12791.00       11711.00       11500.00       13908.00       15218.00
       10216.00       11333.00       11928.00       9410.000       15529.00
       16279.00       16741.00       21290.00       16139.00       21036.00
       23877.00       19455.00       22138.00       19896.00       23588.00
       22423.00       16646.00       27439.00       30665.00       21913.00
       24618.00       31098.00       32441.00       28433.00       27098.00
       36070.00       32680.00       26606.00       30104.00       31645.00
       35239.00       28082.00       30529.00       39960.00       31103.00
       29483.00       31569.00       36741.00       34157.00       27097.00
       35080.00       34904.00       31062.00       24943.00       30297.00
       38415.00       23825.00       28334.00       33802.00       25172.00
       27585.00       26864.00       30767.00       29261.00       27063.00
       27172.00       22033.00       25703.00       21355.00       28849.00
       32114.00       14525.00       21299.00       28711.00       21225.00
       17848.00       21002.00       24109.00       18089.00       17436.00
       18488.00       14401.00       16046.00       14633.00       14609.00
       21448.00       17621.00       8999.000       8633.000       16789.00
       15045.00       5228.000       13758.00       11782.00       4264.000
       12480.00       6521.000       5420.000       10543.00       3566.000
       3877.000       6441.000       6651.000       6904.000       3912.000
       3068.000       6195.000       4526.000       362.0000       2172.000
       1931.000       373.0000      -114.0000       105.0000       709.0000
       1256.000      -970.0000      -4734.000       1117.000      -1647.000
      -4798.000      -610.0000      -4126.000      -1107.000      -4576.000
      -5750.000       2129.000      -2437.000      -7066.000      -8556.000
       74.00000       2183.000      -7176.000      -178.0000      -1991.000
      -4672.000       836.0000      -2529.000       597.0000       4961.000
       40.00000      -1023.000       4624.000       3138.000       4342.000
       2122.000       1690.000       7941.000      -656.0000      -1113.000
       7865.000       11010.00       8449.000       2860.000       8998.000
       11787.00       5883.000       8376.000       12553.00       12499.00
       10058.00       13203.00       14624.00       19592.00       25562.00
       17433.00       20978.00       20718.00       20314.00       29389.00
       17117.00       23263.00       38828.00       19008.00       18379.00
       30137.00       32664.00       44813.00       36798.00       31435.00
       38195.00       33127.00       31258.00       37519.00       43223.00
       44786.00       42399.00       35732.00       39754.00       46528.00
       38745.00       39470.00       45675.00       45278.00       37083.00
       43613.00       51771.00       34530.00       49242.00       44946.00
       34742.00       59033.00       44386.00       43782.00       50662.00
       43485.00       48848.00       44521.00       44651.00       43564.00
       40278.00       46558.00       48288.00       41910.00       37252.00
       44865.00       46880.00       35199.00       41270.00       48249.00
       38839.00       37502.00       41727.00       37161.00       34954.00
       43537.00       40762.00       33493.00       41038.00       41960.00
       30089.00       31294.00       42041.00       39516.00       32844.00
       35520.00       38030.00       36985.00       31082.00       28298.00
       34957.00       32012.00       30793.00       35594.00       27936.00
       24895.00       34463.00       35181.00       26878.00       26584.00
       31333.00       31355.00       23092.00       20884.00       29460.00
       31122.00       22799.00       19277.00       22648.00       22062.00
       27014.00       26071.00       20105.00       19050.00       16005.00
       23375.00       20830.00       14462.00       21077.00       15411.00
       14634.00       20592.00       14790.00       13054.00       12192.00
       10074.00       14492.00       15169.00       11475.00       11605.00
       10636.00       11387.00       11319.00       9718.000       14408.00
       14645.00       9319.000       5862.000       9693.000       13684.00
       14264.00       6398.000       900.0000       14416.00       14529.00
       8116.000       13039.00       13496.00       7236.000       2745.000
       16969.00       15940.00      -146.0000       14568.00       17833.00
       9213.000       17535.00       15088.00       12876.00       16642.00
       16464.00       16241.00       18893.00       17316.00       8369.000
       12942.00       17978.00       15601.00       16619.00       19111.00
       19529.00       12571.00       20709.00       21279.00       12587.00
       24875.00       18929.00       11231.00       24798.00       24111.00
       11697.00       14405.00       23617.00       21855.00       17681.00
       18174.00       19393.00       17733.00       19165.00       19880.00
       17302.00       21359.00       22365.00       17263.00       22408.00
       24238.00       18328.00       18899.00       22095.00       21254.00
       15436.00       17710.00       20421.00       17570.00       17213.00
       16418.00       21206.00       20455.00       19076.00       20710.00
       13260.00       19947.00       23417.00       18561.00       22911.00
       22081.00       17701.00       15008.00       22227.00       24201.00
       20374.00       19112.00       21653.00       21344.00       12673.00
       28540.00       30941.00       9884.000       14831.00       24365.00
       24200.00       18830.00       17217.00       25267.00       22188.00
       20778.00       21166.00       21408.00       30030.00       18595.00
       14241.00       25645.00       26685.00       18392.00       12167.00
       31880.00       26432.00       6592.000       23191.00       28860.00
       23610.00       15517.00       19224.00       27667.00       23354.00
       25604.00       15711.00       23347.00       25408.00       14408.00
       25637.00       20616.00       14467.00       20251.00       22255.00
       20228.00       20020.00       15201.00       14045.00       26846.00
       15263.00       9007.000       29293.00       17419.00       8369.000
       21776.00       18367.00       16535.00       15981.00       19878.00
       17728.00       12618.00       20171.00       10251.00       12066.00
       22726.00       12783.00       7584.000       14035.00       24483.00
       10941.00       562.0000       19478.00       16279.00       6497.000
       14472.00       22352.00       14352.00       7206.000       21190.00
       17853.00       13093.00       16019.00       10416.00       16241.00
       19452.00       14323.00       10162.00       12867.00       17876.00
       18366.00       16154.00       15357.00       18364.00       20150.00
       19147.00       14936.00       21737.00       21749.00       15501.00
       23445.00       22137.00       17563.00       21967.00       27087.00
       17938.00       13511.00       29023.00       28361.00       18429.00
       24994.00       32281.00       22856.00       24413.00       38076.00
       30312.00       26687.00       34201.00       30373.00       30175.00
       37178.00       30953.00       24682.00       39679.00       41282.00
       23053.00       24810.00       38077.00       33615.00       22682.00
       35578.00       46237.00       22944.00       27402.00       51274.00
       27668.00       24478.00       41027.00       27647.00       29530.00
       31062.00       29394.00       29814.00       24436.00       32431.00
       22993.00       19870.00       30508.00       22961.00       22639.00
       22235.00       22450.00       20640.00       22195.00       32678.00
       15798.00       18487.00       34734.00       15372.00       18220.00
       28142.00       16814.00       19629.00       23968.00       22008.00
       16902.00       17434.00       23460.00       16513.00       15924.00
       21237.00       20647.00       13359.00       14544.00       31059.00
       18134.00       10174.00       22697.00       16422.00       11943.00
       13284.00       17591.00       15486.00       15004.00       16998.00
       10353.00       13605.00       16427.00       12962.00       11594.00
       16352.00       13924.00       8472.000       17710.00       17241.00
