     0.02500000      -12345.00      -12345.00   1.983070e+09      -12345.00
   0.0005380000       659.9755       15.98046      -12345.00      -12345.00
      -12345.00      -12345.00      -12345.00      -12345.00      -12345.00
      -12345.00      -12345.00      -12345.00      -12345.00      -12345.00
      -12345.00      -12345.00      -12345.00      -12345.00      -12345.00
      -12345.00      -12345.00      -12345.00      -12345.00      -12345.00
      -12345.00       7.069700       125.5791       150.0000       1.000000
       9.831100       126.5297      -12345.00       24.71000      -12345.00
      -12345.00      -12345.00      -12345.00      -12345.00      -12345.00
      -12345.00      -12345.00      -12345.00      -12345.00      -12345.00
       322.4923       198.9908       18.85196       2.900372      -12345.00
      -12345.00      -12345.00       0.000000       90.00000      -12345.00
      -12345.00      -12345.00      -12345.00      -12345.00      -12345.00
      -12345.00      -12345.00      -12345.00      -12345.00      -12345.00
      2019        39        11        54        52
        19         6    -12345    -12345     26400
    -12345    -12345    -12345    -12345    -12345
         1    -12345    -12345    -12345    -12345
    -12345    -12345    -12345    -12345    -12345
    -12345    -12345    -12345    -12345    -12345
    -12345    -12345    -12345    -12345    -12345
         1    -12345    -12345    -12345    -12345
DAV     Mindanao, Philip
10      -12345  -12345  
-12345  -12345  -12345  
-12345  -12345  -12345  
-12345  -12345  -12345  
-12345  -12345  -12345  
-12345  -12345  BH1     
IU      -12345  Trillium
[...]
       872647.0       900776.0       928710.0       946788.0       939288.0
       900572.0       837809.0       745331.0       633403.0       509824.0
       371670.0       233338.0       96208.00      -39277.00      -168100.0
      -291643.0      -400685.0      -487066.0      -543822.0      -565515.0
      -558567.0      -525261.0      -472880.0      -410245.0      -334151.0
      -253931.0      -174794.0      -94519.00      -20606.00       57041.00
       152306.0       269001.0       411855.0       575665.0       754146.0
       938455.0       1117424.       1281819.       1420065.       1531726.
       1620700.       1692309.       1756791.       1821744.       1890649.
       1963848.       2039016.       2106431.       2153987.       2164417.
       2124135.       2035313.       1897653.       1726636.       1544222.
       1353371.       1167305.       990074.0       809577.0       620853.0
       421115.0       212550.0      -1570.000      -217524.0      -437075.0
      -660856.0      -879206.0      -1086783.      -1280971.      -1456829.
      -1615562.      -1757290.      -1869201.      -1947616.      -1998311.
      -2026306.      -2038171.      -2033458.      -2008842.      -1956480.
      -1868755.      -1736618.      -1555295.      -1328450.      -1056068.
      -753749.0      -436351.0      -116116.0       186881.0       473273.0
       751531.0       1037063.       1338827.       1653069.       1977607.
       2288165.       2564326.       2789724.       2946364.       3047212.
       3116172.       3171476.       3219862.       3259387.       3286582.
       3302887.       3317107.       3333354.       3364767.       3419588.
       3488431.       3562963.       3625157.       3661819.       3671779.
       3649694.       3589738.       3484985.       3342709.       3170512.
       2975340.       2778675.       2586147.       2400302.       2229173.
       2078871.       1954944.       1851541.       1765724.       1690112.
       1616750.       1548164.       1478855.       1402622.       1323012.
       1238842.       1132836.       1002198.       853500.0       676536.0
       466526.0       216322.0      -76753.00      -402813.0      -755159.0
      -1121746.      -1490667.      -1851393.      -2194943.      -2527771.
      -2863634.      -3201561.      -3533500.      -3847726.      -4124724.
      -4350051.      -4510896.      -4599116.      -4616333.      -4563158.
      -4441437.      -4260890.      -4026116.      -3739213.      -3406801.
      -3035613.      -2634175.      -2206421.      -1756484.      -1289812.
      -817258.0      -359433.0       68288.00       459574.0       820998.0
       1170653.       1518186.       1862072.       2197617.       2506109.
       2762746.       2951297.       3061540.       3085623.       3018500.
       2871094.       2659172.       2393151.       2088201.       1758417.
       1413595.       1065533.       736571.0       452873.0       231434.0
       74935.00      -27765.00      -97961.00      -161523.0      -231605.0
      -313765.0      -412569.0      -526451.0      -659451.0      -812698.0
      -977642.0      -1147899.      -1308784.      -1444075.      -1542779.
      -1589405.      -1584808.      -1535130.      -1448198.      -1354840.
      -1282322.      -1252671.      -1286600.      -1387014.      -1542948.
      -1735876.      -1947127.      -2155374.      -2343571.      -2495063.
      -2596634.      -2651902.      -2659909.      -2630689.      -2588987.
      -2544596.      -2506584.      -2479645.      -2449661.      -2406220.
      -2343623.      -2257878.      -2155037.      -2040188.      -1920758.
      -1809070.      -1705481.      -1607773.      -1517461.      -1426239.
      -1329017.      -1226568.      -1119549.      -1019474.      -944019.0
      -906064.0      -911679.0      -950781.0      -1000340.      -1035804.
      -1032014.      -982749.0      -897947.0      -789531.0      -676542.0
      -572230.0      -474703.0      -373615.0      -264836.0      -153000.0
      -42313.00       51122.00       110618.0       136203.0       124365.0
       83115.00       37875.00       1941.000      -15903.00      -10288.00
       10570.00       37266.00       64767.00       90317.00       111749.0
       132009.0       155609.0       178595.0       199199.0       220715.0
       252068.0       305655.0       386827.0       501869.0       649684.0
       815741.0       987765.0       1153048.       1308202.       1467647.
       1646895.       1857614.       2099304.       2359770.       2626100.
       2881028.       3109320.       3292758.       3413317.       3471237.
       3472988.       3436990.       3393808.       3359390.       3337844.
       3328949.       3320253.       3288960.       3217996.       3106190.
       2955198.       2768043.       2556218.       2326807.       2085832.
       1838787.       1596563.       1373229.       1168796.       981658.0
       799806.0       601810.0       376503.0       117820.0      -178065.0
      -505010.0      -848239.0      -1196685.      -1537385.      -1845768.
      -2099944.      -2289962.      -2408213.      -2451879.      -2422958.
      -2325216.      -2167223.      -1960900.      -1724384.      -1475762.
      -1235266.      -1024529.      -850057.0      -707214.0      -588643.0
      -487298.0      -389006.0      -280667.0      -158558.0      -11893.00
       159937.0       346732.0       537088.0       713813.0       861509.0
       961298.0       1008373.       1009272.       969038.0       900518.0
       812111.0       713849.0       611887.0       506907.0       404596.0
       304162.0       210943.0       127322.0       59567.00       22186.00
       15921.00       48689.00       104934.0       159608.0       211060.0
       245935.0       267972.0       283683.0       293018.0       304677.0
       308170.0       292507.0       241516.0       145602.0       7451.000
      -169574.0      -367081.0      -574695.0      -772790.0      -938209.0
      -1069143.      -1167747.      -1248360.      -1324632.      -1400119.
      -1465770.      -1496129.      -1472117.      -1376304.      -1206908.
      -980386.0      -707663.0      -412035.0      -112832.0       182793.0
       468081.0       748276.0       1020566.       1276875.       1516026.
       1737277.       1950561.       2171980.       2419419.       2696229.
       2989233.       3290005.       3581013.       3844862.       4069003.
       4239788.       4357114.       4422742.       4441176.       4419099.
       4357154.       4257926.       4116860.       3924299.       3678204.
       3375500.       3011595.       2580336.       2075090.       1501361.
       869934.0       191323.0      -511159.0      -1199405.      -1843130.
      -2421937.      -2919127.      -3333551.      -3669213.      -3935760.
      -4148083.      -4315728.      -4450757.      -4560559.      -4654450.
      -4743954.      -4835005.      -4929963.      -5019493.      -5100171.
      -5166398.      -5204705.      -5207619.      -5165644.      -5077363.
      -4949437.      -4790631.      -4609648.      -4418091.      -4222515.
      -4019658.      -3811841.      -3592245.      -3356340.      -3107891.
      -2843605.      -2564653.      -2270324.      -1957419.      -1632583.
      -1305595.      -980114.0      -660457.0      -345991.0      -32716.00
       278935.0       591980.0       904597.0       1211626.       1502367.
       1757676.       1961000.       2097768.       2162072.       2160414.
       2106528.       2012522.       1883811.       1720593.       1514127.
       1265018.       988716.0       697486.0       406640.0       134099.0
      -103819.0      -293614.0      -429707.0      -514200.0      -558364.0
      -575691.0      -576545.0      -566169.0      -544702.0      -509920.0
      -460795.0      -399741.0      -328988.0      -251082.0      -169727.0
      -85273.00       4985.000       103939.0       217808.0       355417.0
       523381.0       720226.0       938108.0       1167990.       1399441.
       1628141.       1851531.       2066135.       2278751.       2491392.
       2699962.       2893797.       3048449.       3146171.       3172808.
       3118774.       2984775.       2779968.       2523020.       2228078.
       1910768.       1595035.       1305214.       1063905.       881416.0
       753015.0       667880.0       607128.0       546980.0       465520.0
       347869.0       190666.0      -3652.000      -227585.0      -467936.0
      -714907.0      -964969.0      -1212213.      -1453528.      -1688324.
      -1911164.      -2125243.      -2336518.      -2547774.      -2765398.
      -2990063.      -3214682.      -3432834.      -3634443.      -3806444.
      -3942520.      -4037865.      -4092051.      -4111305.      -4107731.
      -4096305.      -4088091.      -4091326.      -4111210.      -4151302.
      -4211712.      -4288292.      -4372063.      -4451232.      -4507865.
      -4521955.      -4486986.      -4405056.      -4282525.      -4129052.
      -3953030.      -3766826.      -3580635.      -3393146.      -3203817.
      -3011545.      -2805878.      -2579831.      -2330615.      -2055064.
      -1749900.      -1415783.      -1060099.      -685947.0      -302028.0
       72362.00       430145.0       771047.0       1087811.       1387113.
       1681398.       1973666.       2274864.       2591836.       2923699.
       3275947.       3651740.       4048042.       4461277.       4886175.
       5313779.       5737573.       6149956.       6540841.       6903916.
       7231457.       7507413.       7711982.       7835664.       7871862.
       7815547.       7675557.       7461763.       7182819.       6854721.
       6491187.       6105808.       5724791.       5371399.       5058575.
       4795754.       4576774.       4383386.       4192183.       3972955.
       3704931.       3381884.       3002512.       2578532.       2129654.
       1665651.       1192361.       709339.0       211404.0      -308943.0
      -869066.0      -1472089.      -2110279.      -2779891.      -3467308.
      -4158605.      -4842050.      -5500726.      -6120568.      -6689985.
      -7196718.      -7631851.      -7994707.      -8284885.      -8494555.
      -8622514.      -8674702.      -8659748.      -8596962.      -8502566.
      -8374223.      -8208862.      -8001423.      -7738377.      -7417776.
      -7042667.      -6626437.      -6192489.      -5758463.      -5343735.
      -4968404.      -4646018.      -4381342.      -4176362.      -4028728.
      -3929846.      -3867768.      -3827611.      -3798813.      -3779571.
      -3771660.      -3772989.      -3780572.      -3785091.      -3767781.
      -3718237.      -3627527.      -3481720.      -3277163.      -3012380.
      -2684988.      -2298536.      -1854479.      -1357032.      -814992.0
      -237531.0       356673.0       949659.0       1536072.       2118798.
       2699217.       3276796.       3852812.       4418343.       4967511.
       5496966.       5999350.       6480007.       6943912.       7395374.
       7839889.       8277022.       8708282.       9130174.       9532336.
       9902057.   1.022456e+07   1.049655e+07   1.071953e+07   1.088743e+07
   1.100023e+07   1.106266e+07   1.107425e+07   1.103653e+07   1.095492e+07
   1.082312e+07   1.063090e+07   1.037399e+07   1.004385e+07       9638311.
       9163171.       8625491.       8037142.       7413103.       6771326.
       6125505.       5480614.       4842713.       4216153.       3602901.
       3011794.       2451385.       1933491.       1460117.       1023026.
       623533.0       252048.0      -105644.0      -459583.0      -820237.0
      -1195963.      -1592864.      -2006513.      -2435295.      -2877978.
      -3327623.      -3786145.      -4255293.      -4731367.      -5211832.
      -5695446.      -6175209.      -6636729.      -7071033.      -7470874.
      -7830801.      -8154194.      -8441420.      -8690598.      -8901283.
      -9068013.      -9189113.      -9266875.      -9299295.      -9285885.
      -9227913.      -9132375.      -9010401.      -8867547.      -8707136.
      -8531304.      -8343418.      -8139211.      -7913237.      -7667648.
      -7393284.      -7084812.      -6742159.      -6359845.      -5943563.
      -5503441.      -5048798.      -4588595.      -4132648.      -3690469.
      -3257464.      -2829335.      -2404996.      -1979127.      -1549359.
      -1107771.      -641132.0      -137070.0       413913.0       1016243.
       1663502.       2342197.       3045248.       3762672.       4476247.
       5179176.       5871818.       6547940.       7209663.       7857828.
       8487130.       9095669.       9672732.   1.020479e+07   1.067975e+07
   1.108585e+07   1.141096e+07   1.164684e+07   1.179024e+07   1.183572e+07
   1.178320e+07   1.163432e+07   1.139423e+07   1.106776e+07   1.066016e+07
   1.018528e+07       9651278.       9067475.       8446142.       7796921.
       7127596.       6440743.       5743796.       5040587.       4339031.
       3655561.       2992905.       2357818.       1758131.       1198901.
       688681.0       233088.0      -154297.0      -471518.0      -722367.0
      -902468.0      -1019578.      -1078553.      -1075550.      -1021573.
      -930717.0      -815768.0      -696932.0      -584531.0      -486593.0
      -409321.0      -351656.0      -310729.0      -275929.0      -239732.0
      -201576.0      -169623.0      -156566.0      -175018.0      -243385.0
      -369383.0      -549716.0      -775196.0      -1033444.      -1315685.
      -1605487.      -1886951.      -2150585.      -2386913.      -2585133.
      -2735542.      -2833826.      -2874907.      -2855143.      -2773562.
      -2638860.      -2467620.      -2272750.      -2075135.      -1896393.
      -1752960.      -1660694.      -1622852.      -1635798.      -1697126.
      -1789192.      -1890918.      -1994652.      -2091255.      -2178465.
      -2252983.      -2307069.      -2340337.      -2350971.      -2339133.
      -2308075.      -2267797.      -2225149.      -2187336.      -2168802.
      -2171915.      -2198506.      -2246525.      -2298787.      -2349076.
      -2394002.      -2415828.      -2403965.      -2355769.      -2265720.
      -2136569.      -1976145.      -1783657.      -1561245.      -1317804.
      -1060243.      -796410.0      -536780.0      -286351.0      -44560.00
       183916.0       402115.0       615849.0       823768.0       1034466.
       1252751.       1478443.       1715909.       1957400.       2194034.
       2422764.       2636319.       2827532.       2991655.       3124845.
       3225542.       3301126.       3359916.       3405220.       3439869.
       3462817.       3468441.       3446959.       3384114.       3274532.
       3123441.       2927776.       2692585.       2432289.       2152145.
       1859063.       1565997.       1284691.       1022176.       784449.0
       569978.0       374539.0       196353.0       31119.00      -125413.0
      -277195.0      -421660.0      -556634.0      -682013.0      -794901.0
      -895809.0      -986972.0      -1075530.      -1162871.      -1241062.
      -1308581.      -1363168.      -1400983.      -1423869.      -1437848.
      -1451860.      -1468036.      -1482033.      -1490380.      -1484329.
      -1455568.      -1396272.      -1296552.      -1161871.      -1001121.
      -815903.0      -621083.0      -435350.0      -265965.0      -120306.0
      -7727.000       72433.00       127385.0       160934.0       180753.0
       193876.0       201940.0       205236.0       209736.0       220352.0
       233901.0       258854.0       293936.0       330588.0       370357.0
       403971.0       430581.0       453787.0       472960.0       501047.0
       545849.0       610209.0       697568.0       804811.0       929214.0
       1067234.       1215335.       1367527.       1515426.       1652000.
       1773732.       1877942.       1966736.       2045749.       2114887.
       2178111.       2235764.       2286162.       2333283.       2380425.
       2427061.       2467174.       2501595.       2531135.       2552584.
       2572823.       2593923.       2616749.       2641269.       2660177.
       2669237.       2657518.       2626046.       2574381.       2498134.
       2408395.       2307854.       2196035.       2069777.       1934340.
       1792812.       1634865.       1463670.       1279551.       1077992.
       862142.0       639822.0       417040.0       193359.0      -24060.00
      -228961.0      -420392.0      -592263.0      -740642.0      -860890.0
      -948361.0      -1002011.      -1023315.      -1012328.      -969947.0
      -903207.0      -821513.0      -739533.0      -666288.0      -610561.0
      -587136.0      -603419.0      -665839.0      -779817.0      -948688.0
      -1173511.      -1451189.      -1775619.      -2138586.      -2533677.
      -2948143.      -3370449.      -3793252.      -4209998.      -4615366.
      -4991795.      -5327847.      -5619433.      -5856130.      -6032889.
      -6149560.      -6209121.      -6213697.      -6168248.      -6075669.
      -5938392.      -5763618.      -5549241.      -5298175.      -5021322.
      -4728686.      -4423927.      -4110001.      -3791654.      -3464515.
      -3132078.      -2801536.      -2477622.      -2168533.      -1886470.
      -1638242.      -1426618.      -1260463.      -1138883.      -1060298.
      -1024603.      -1025130.      -1056055.      -1110862.      -1177417.
      -1243192.      -1301493.      -1339836.      -1348327.      -1326302.
      -1273306.      -1193510.      -1089325.      -962797.0      -820533.0
      -662849.0      -490025.0      -304751.0      -108117.0       95100.00
       299862.0       497096.0       680670.0       852553.0       1009417.
       1147434.       1264926.       1358158.       1424938.       1467682.
       1488998.       1495991.       1499528.       1504263.       1519342.
       1546509.       1578059.       1612613.       1647431.       1679421.
       1698941.       1699355.       1677091.       1617164.       1509614.
       1349522.       1129155.       842427.0       496738.0       102128.0
      -337672.0      -815800.0      -1330602.      -1870184.      -2422209.
