     0.02500000      -12345.00      -12345.00   2.447790e+09      -12345.00
   0.0005380000       659.9755       15.98046      -12345.00      -12345.00
      -12345.00      -12345.00      -12345.00      -12345.00      -12345.00
      -12345.00      -12345.00      -12345.00      -12345.00      -12345.00
      -12345.00      -12345.00      -12345.00      -12345.00      -12345.00
      -12345.00      -12345.00      -12345.00      -12345.00      -12345.00
      -12345.00       7.069700       125.5791       150.0000       1.000000
       9.831100       126.5297      -12345.00       24.71000      -12345.00
      -12345.00      -12345.00      -12345.00      -12345.00      -12345.00
      -12345.00      -12345.00      -12345.00      -12345.00      -12345.00
       322.4923       198.9908       18.85196       2.900372      -12345.00
      -12345.00      -12345.00       90.00000       90.00000      -12345.00
      -12345.00      -12345.00      -12345.00      -12345.00      -12345.00
      -12345.00      -12345.00      -12345.00      -12345.00      -12345.00
      2019        39        11        54        52
        19         6    -12345    -12345     26400
    -12345    -12345    -12345    -12345    -12345
         1    -12345    -12345    -12345    -12345
    -12345    -12345    -12345    -12345    -12345
    -12345    -12345    -12345    -12345    -12345
    -12345    -12345    -12345    -12345    -12345
         1    -12345    -12345    -12345    -12345
DAV     Mindanao, Philip
00      -12345  -12345  
-12345  -12345  -12345  
-12345  -12345  -12345  
-12345  -12345  -12345  
-12345  -12345  -12345  
-12345  -12345  BH2     
IU      -12345  Streckei
[...]
       596986.0       508471.0       432031.0       362613.0       294604.0
       225840.0       161463.0       105590.0       73364.00       82434.00
       146839.0       277305.0       470971.0       720113.0       1003343.
       1296369.       1573435.       1808823.       1996206.       2126904.
       2198160.       2210582.       2153142.       2028058.       1840342.
       1597821.       1316742.       1010462.       698558.0       402756.0
       133193.0      -109761.0      -328327.0      -533898.0      -736794.0
      -935708.0      -1131684.      -1328552.      -1529191.      -1735100.
      -1936433.      -2120190.      -2283979.      -2430353.      -2566811.
      -2690537.      -2784468.      -2832865.      -2823535.      -2761733.
      -2667183.      -2572922.      -2517645.      -2524852.      -2611589.
      -2765314.      -2944645.      -3114072.      -3247716.      -3338462.
      -3380033.      -3358031.      -3261967.      -3083893.      -2821817.
      -2478421.      -2061493.      -1577633.      -1046351.      -500318.0
       31619.00       514932.0       924552.0       1241752.       1452841.
       1557840.       1555617.       1461925.       1297997.       1077316.
       817982.0       532948.0       237492.0      -44119.00      -284169.0
      -466408.0      -588786.0      -662438.0      -709329.0      -744479.0
      -776979.0      -803755.0      -821777.0      -831569.0      -823278.0
      -801316.0      -773427.0      -733136.0      -669134.0      -571846.0
      -446458.0      -302004.0      -157220.0      -41657.00       31829.00
       55275.00       27911.00      -42037.00      -149713.0      -282478.0
      -421778.0      -542637.0      -627465.0      -677733.0      -701301.0
      -710904.0      -715612.0      -713703.0      -702808.0      -678698.0
      -634977.0      -573712.0      -501583.0      -427969.0      -356025.0
      -278356.0      -193388.0      -98341.00       15244.00       160372.0
       355864.0       609528.0       924661.0       1297546.       1704673.
       2129505.       2567014.       3009445.       3447871.       3872233.
       4276560.       4653375.       4979977.       5234077.       5408820.
       5504208.       5533057.       5519833.       5483516.       5441177.
       5410971.       5400594.       5402691.       5401828.       5381417.
       5324064.       5222910.       5083282.       4909158.       4704955.
       4472416.       4213394.       3937298.       3657208.       3384791.
       3121232.       2860172.       2585252.       2272388.       1911058.
       1504477.       1071931.       645477.0       243298.0      -127224.0
      -453024.0      -726410.0      -946957.0      -1109194.      -1215985.
      -1274361.      -1279883.      -1228132.      -1116325.      -947172.0
      -737288.0      -517747.0      -318266.0      -146139.0       3520.000
       142876.0       291179.0       464133.0       666497.0       889517.0
       1119040.       1336505.       1525916.       1671795.       1748481.
       1745662.       1675914.       1547115.       1362476.       1120573.
       817493.0       467747.0       92389.00      -291746.0      -671866.0
      -1045242.      -1415083.      -1778738.      -2118699.      -2408394.
      -2616892.      -2720855.      -2716221.      -2619669.      -2453157.
      -2232448.      -1982998.      -1730272.      -1486063.      -1258684.
      -1051690.      -863247.0      -701187.0      -581492.0      -518246.0
      -517890.0      -573362.0      -677174.0      -816190.0      -970822.0
      -1125090.      -1249919.      -1321361.      -1334239.      -1288775.
      -1205541.      -1126560.      -1088568.      -1108016.      -1184476.
      -1302372.      -1438432.      -1571835.      -1681332.      -1752664.
      -1790526.      -1808262.      -1818717.      -1829877.      -1832134.
      -1806699.      -1735701.      -1605813.      -1420197.      -1196032.
      -962136.0      -745584.0      -556467.0      -393144.0      -251034.0
      -138598.0      -68490.00      -49162.00      -87064.00      -166370.0
      -260487.0      -355979.0      -443977.0      -516061.0      -568150.0
      -603697.0      -639995.0      -690983.0      -757827.0      -850023.0
      -975317.0      -1129429.      -1313567.      -1525540.      -1753478.
      -1977772.      -2166482.      -2299728.      -2370367.      -2372986.
      -2320634.      -2223125.      -2084610.      -1921480.      -1744092.
      -1570894.      -1430457.      -1334165.      -1291431.      -1314452.
      -1395174.      -1518257.      -1674101.      -1846751.      -2014841.
      -2154034.      -2245247.      -2284102.      -2276628.      -2231875.
      -2154993.      -2046089.      -1903228.      -1733921.      -1554996.
      -1381899.      -1232509.      -1121668.      -1058684.      -1048737.
      -1073512.      -1094261.      -1077093.      -1004463.      -872776.0
      -687354.0      -464398.0      -224945.0       17475.00       254305.0
       480166.0       695342.0       896436.0       1076849.       1231399.
       1356692.       1451366.       1505051.       1510184.       1473995.
       1406722.       1317713.       1201820.       1045581.       848530.0
       618614.0       369866.0       116420.0      -135286.0      -381176.0
      -617313.0      -845956.0      -1075517.      -1308536.      -1535572.
      -1740137.      -1907143.      -2025558.      -2080301.      -2054061.
      -1939769.      -1739634.      -1470201.      -1168905.      -872988.0
      -607401.0      -391376.0      -232433.0      -125480.0      -65506.00
      -44249.00      -42999.00      -44364.00      -27990.00       38137.00
       178607.0       399914.0       687482.0       1012843.       1350883.
       1686886.       2016414.       2336475.       2643133.       2928895.
       3185622.       3402842.       3558754.       3632216.       3609223.
       3485202.       3275355.       3010951.       2722129.       2433104.
       2163264.       1925112.       1733951.       1609599.       1565286.
       1600643.       1704939.       1858110.       2035567.       2230666.
       2450817.       2704960.       3003817.       3352260.       3746328.
       4170486.       4608533.       5045644.       5458185.       5821550.
       6115605.       6334980.       6488219.       6592156.       6666814.
       6726909.       6786203.       6849502.       6921555.       7005789.
       7107145.       7239411.       7390728.       7543298.       7682187.
       7786964.       7850996.       7863400.       7826384.       7755256.
       7656549.       7526827.       7344080.       7106993.       6821126.
       6482685.       6102465.       5676435.       5199670.       4668183.
       4070504.       3412250.       2699553.       1942247.       1157151.
       353823.0      -445954.0      -1200765.      -1876005.      -2452379.
      -2921857.      -3291468.      -3569232.      -3764681.      -3892588.
      -3964932.      -3990817.      -3976998.      -3935790.      -3879775.
      -3816999.      -3749282.      -3669082.      -3565336.      -3432953.
      -3287636.      -3155075.      -3053919.      -2996161.      -2984836.
      -3016862.      -3087538.      -3190375.      -3321874.      -3483042.
      -3671253.      -3879728.      -4095695.      -4297149.      -4460909.
      -4567931.      -4610521.      -4583670.      -4477148.      -4284287.
      -4005190.      -3653750.      -3254532.      -2834265.      -2409944.
      -1992512.      -1589885.      -1197283.      -817102.0      -460437.0
      -137259.0       137008.0       344332.0       467861.0       496825.0
       431867.0       284929.0       79844.00      -153361.0      -389030.0
      -609430.0      -804763.0      -971139.0      -1112961.      -1240368.
      -1362586.      -1483925.      -1596654.      -1698206.      -1796190.
      -1897285.      -2020986.      -2186030.      -2400070.      -2665802.
      -2974161.      -3314634.      -3672068.      -4026946.      -4370126.
      -4691014.      -4973569.      -5207589.      -5387921.      -5517447.
      -5613719.      -5695312.      -5771734.      -5843745.      -5896323.
      -5908831.      -5864838.      -5756405.      -5585563.      -5355237.
      -5076271.      -4762661.      -4425886.      -4082551.      -3745663.
      -3422473.      -3117021.      -2829768.      -2559600.      -2301928.
      -2048941.      -1794539.      -1540180.      -1289836.      -1044733.
      -809313.0      -588983.0      -384005.0      -189501.0       3593.000
       200324.0       396558.0       588423.0       776709.0       970947.0
       1194059.       1464629.       1791428.       2181818.       2632188.
       3125421.       3630142.       4107072.       4526767.       4874618.
       5156120.       5390841.       5602010.       5810447.       6025029.
       6245127.       6458872.       6647815.       6802272.       6916775.
       6988985.       7017483.       7000871.       6947521.       6861246.
       6743940.       6611270.       6484377.       6387164.       6340852.
       6352006.       6417474.       6530657.       6680530.       6852541.
       7029029.       7191224.       7319376.       7390620.       7374902.
       7242881.       6980085.       6581007.       6049162.       5403898.
       4673555.       3885679.       3065938.       2248944.       1463854.
       730982.0       78413.00      -478438.0      -936727.0      -1294852.
      -1556402.      -1720284.      -1789445.      -1781425.      -1719364.
      -1627583.      -1527937.      -1432232.      -1343614.      -1262209.
      -1180749.      -1089147.      -979394.0      -842627.0      -679819.0
      -497372.0      -302074.0      -114676.0       44506.00       165069.0
       243584.0       286240.0       298244.0       290385.0       277397.0
       267462.0       265767.0       277438.0       306406.0       355221.0
       426897.0       523267.0       641709.0       774492.0       921625.0
       1076084.       1216414.       1331813.       1417704.       1475632.
       1519909.       1557308.       1590005.       1622822.       1652048.
       1679558.       1709119.       1738867.       1760785.       1748517.
       1673307.       1507283.       1225895.       826738.0       323192.0
      -264334.0      -911945.0      -1599675.      -2312619.      -3035424.
      -3759132.      -4478092.      -5179766.      -5861278.      -6526474.
      -7176000.      -7809407.      -8424399.      -9019813.      -9588159.
  -1.011703e+07  -1.059426e+07  -1.100858e+07  -1.134885e+07  -1.160733e+07
  -1.178420e+07  -1.187550e+07  -1.188261e+07  -1.181744e+07  -1.168709e+07
  -1.150271e+07  -1.127617e+07  -1.101668e+07  -1.074585e+07  -1.048597e+07
  -1.025174e+07  -1.004619e+07      -9850943.      -9645841.      -9414711.
      -9139753.      -8814811.      -8441336.      -8021889.      -7563790.
      -7075092.      -6563073.      -6035367.      -5502102.      -4968182.
      -4436056.      -3915828.      -3415041.      -2947540.      -2529732.
      -2162605.      -1840767.      -1556862.      -1304420.      -1082573.
      -900505.0      -776808.0      -730920.0      -773924.0      -900546.0
      -1099781.      -1357586.      -1647467.      -1939806.      -2210125.
      -2440549.      -2616574.      -2728354.      -2776147.      -2761311.
      -2688062.      -2564239.      -2396605.      -2197255.      -1976488.
      -1744776.      -1516701.      -1297664.      -1088039.      -884215.0
      -680810.0      -479655.0      -278944.0      -73391.00       136398.0
       339462.0       517990.0       655786.0       733510.0       737442.0
       662375.0       502252.0       258966.0      -62435.00      -450223.0
      -877114.0      -1314658.      -1737885.      -2130073.      -2486585.
      -2803896.      -3079863.      -3315591.      -3507555.      -3653057.
      -3745500.      -3773112.      -3726708.      -3596490.      -3382310.
      -3088938.      -2723240.      -2301813.      -1841179.      -1355939.
      -858429.0      -353970.0       154072.0       661302.0       1165191.
       1657606.       2131030.       2587586.       3026925.       3449901.
       3855725.       4233569.       4574814.       4862915.       5077885.
       5217008.       5283158.       5293824.       5275797.       5249866.
       5243166.       5277228.       5364065.       5506473.       5697283.
       5927297.       6180885.       6441853.       6702801.       6963879.
       7223758.       7481474.       7744772.       8017851.       8303352.
       8605252.       8917574.       9243730.       9591764.       9962650.
   1.036521e+07   1.080088e+07   1.125848e+07   1.172287e+07   1.217439e+07
   1.259009e+07   1.294718e+07   1.322727e+07   1.341334e+07   1.349703e+07
   1.348028e+07   1.336411e+07   1.314732e+07   1.283062e+07   1.241276e+07
   1.188703e+07   1.125274e+07   1.051994e+07       9703816.       8815353.
       7856202.       6832231.       5753529.       4630420.       3480614.
       2323318.       1178919.       63418.00      -1020225.      -2070834.
      -3088935.      -4072678.      -5008042.      -5876471.      -6660546.
      -7345963.      -7916825.      -8363481.      -8689364.      -8899407.
      -9003882.      -9020784.      -8969061.      -8862558.      -8716364.
      -8546243.      -8360807.      -8169645.      -7975286.      -7783291.
      -7600649.      -7417511.      -7231566.      -7048252.      -6864841.
      -6681678.      -6507899.      -6350312.      -6211547.      -6092292.
      -5993405.      -5919595.      -5874476.      -5859984.      -5877454.
      -5926617.      -6004290.      -6112029.      -6252384.      -6417542.
      -6596262.      -6779455.      -6950756.      -7086260.      -7172054.
      -7196003.      -7140906.      -6999141.      -6776714.      -6486872.
      -6139372.      -5747040.      -5331197.      -4903443.      -4465529.
      -4024239.      -3585367.      -3154762.      -2745035.      -2368437.
      -2035476.      -1756645.      -1541806.      -1390064.      -1296859.
      -1268520.      -1306551.      -1407237.      -1566470.      -1774212.
      -2010669.      -2254092.      -2492869.      -2714613.      -2908167.
      -3064888.      -3178666.      -3247291.      -3265460.      -3234920.
      -3167093.      -3064039.      -2917559.      -2737366.      -2537648.
      -2319736.      -2092553.      -1867309.      -1646829.      -1426937.
      -1202253.      -971501.0      -727590.0      -460784.0      -169377.0
       150206.0       501286.0       881294.0       1288840.       1717962.
       2166524.       2631113.       3097191.       3554994.       3988773.
       4380101.       4721923.       5010689.       5239899.       5402264.
       5501323.       5538022.       5506842.       5413843.       5265925.
       5069361.       4838642.       4590441.       4341886.       4108701.
       3904160.       3736455.       3610349.       3527632.       3482585.
       3471356.       3498313.       3566584.       3674103.       3820124.
       4007276.       4233061.       4483981.       4756917.       5053414.
       5358927.       5664206.       5966007.       6258391.       6534728.
       6787069.       7011671.       7203416.       7352737.       7448642.
       7478418.       7422424.       7260620.       6985798.       6591104.
       6067829.       5422920.       4672951.       3833179.       2922966.
       1961172.       963959.0      -49516.00      -1063701.      -2063512.
      -3033713.      -3963563.      -4845410.      -5672001.      -6435866.
      -7137185.      -7770177.      -8322785.      -8781542.      -9129298.
      -9363761.      -9485581.      -9494833.      -9400074.      -9205328.
      -8912507.      -8523956.      -8038325.      -7456940.      -6786847.
      -6039435.      -5227977.      -4365835.      -3469597.      -2547414.
      -1604890.      -652324.0       307592.0       1268797.       2226083.
       3172686.       4092425.       4969171.       5782243.       6510169.
       7138356.       7667753.       8101878.       8437911.       8685911.
       8854919.       8946908.       8972152.       8939779.       8859210.
       8744443.       8601665.       8439110.       8264164.       8068804.
       7850137.       7608617.       7336772.       7039982.       6725553.
       6392583.       6058709.       5745331.       5460729.       5221412.
       5039804.       4914112.       4844398.       4829195.       4870525.
       4975168.       5143383.       5370757.       5651554.       5979695.
       6343829.       6733020.       7141204.       7556955.       7966069.
       8352741.       8700940.       8996495.       9217874.       9351265.
       9393916.       9336837.       9178848.       8922431.       8561642.
       8099410.       7546707.       6911398.       6203471.       5444040.
       4652170.       3838291.       3026110.       2233189.       1459194.
       705491.0      -23484.00      -717663.0      -1375491.      -1989595.
      -2545037.      -3042312.      -3480381.      -3864594.      -4202683.
      -4498649.      -4768221.      -5014198.      -5230229.      -5419827.
      -5577867.      -5696409.      -5771791.      -5801437.      -5792046.
      -5749332.      -5682118.      -5609394.      -5545873.      -5501558.
      -5480585.      -5482396.      -5506590.      -5544514.      -5582980.
      -5619818.      -5664902.      -5720685.      -5775304.      -5824290.
      -5861880.      -5869506.      -5844036.      -5786872.      -5694578.
      -5577072.      -5439180.      -5283828.      -5123159.      -4967592.
      -4829422.      -4704929.      -4581420.      -4461946.      -4336939.
      -4186017.      -4009405.      -3816145.      -3609835.      -3398623.
      -3192080.      -2989915.      -2791199.      -2602940.      -2421460.
      -2237666.      -2054675.      -1868563.      -1672277.      -1465017.
      -1243945.      -1010792.      -769236.0      -517187.0      -252989.0
       22153.00       307405.0       601611.0       909816.0       1241766.
       1600160.       1986692.       2405993.       2857092.       3335007.
       3834498.       4351812.       4880582.       5407667.       5926071.
