     0.02500000      -12345.00      -12345.00   1.983070e+09      -12345.00
   0.0005380000       659.9755       15.98046      -12345.00      -12345.00
      -12345.00      -12345.00      -12345.00      -12345.00      -12345.00
      -12345.00      -12345.00      -12345.00      -12345.00      -12345.00
      -12345.00      -12345.00      -12345.00      -12345.00      -12345.00
      -12345.00      -12345.00      -12345.00      -12345.00      -12345.00
      -12345.00       7.069700       125.5791       150.0000       1.000000
       9.831100       126.5297      -12345.00       24.71000      -12345.00
      -12345.00      -12345.00      -12345.00      -12345.00      -12345.00
      -12345.00      -12345.00      -12345.00      -12345.00      -12345.00
       322.4923       198.9908       18.85196       2.900372      -12345.00
      -12345.00      -12345.00       90.00000       90.00000      -12345.00
      -12345.00      -12345.00      -12345.00      -12345.00      -12345.00
      -12345.00      -12345.00      -12345.00      -12345.00      -12345.00
      2019        39        11        54        52
        19         6    -12345    -12345     26400
    -12345    -12345    -12345    -12345    -12345
         1    -12345    -12345    -12345    -12345
    -12345    -12345    -12345    -12345    -12345
    -12345    -12345    -12345    -12345    -12345
    -12345    -12345    -12345    -12345    -12345
         1    -12345    -12345    -12345    -12345
DAV     Mindanao, Philip
10      -12345  -12345  
-12345  -12345  -12345  
-12345  -12345  -12345  
-12345  -12345  -12345  
-12345  -12345  -12345  
-12345  -12345  BH2     
IU      -12345  Trillium
[...]
       258094.0       196072.0       145468.0       102069.0       61086.00
       21094.00      -13777.00      -40021.00      -44131.00      -13278.00
       63930.00       191826.0       366694.0       581198.0       815612.0
       1052960.       1270534.       1451954.       1594492.       1688730.
       1736990.       1736718.       1679555.       1571148.       1414203.
       1217645.       994101.0       754818.0       517507.0       297301.0
       98359.00      -80034.00      -241365.0      -397845.0      -553825.0
      -707488.0      -861295.0      -1017145.      -1178076.      -1343364.
      -1502423.      -1646080.      -1774226.      -1890031.      -1999195.
      -2096341.      -2166560.      -2197783.      -2182192.      -2127214.
      -2050316.      -1981229.      -1949442.      -1971343.      -2059694.
      -2195596.      -2344673.      -2482092.      -2588884.      -2663605.
      -2698200.      -2679409.      -2600430.      -2454959.      -2242435.
      -1965935.      -1631136.      -1243152.      -821246.0      -391222.0
       23743.00       394854.0       704927.0       939573.0       1090270.
       1156757.       1139185.       1053947.       915654.0       736308.0
       530480.0       307834.0       82398.00      -126195.0      -296382.0
      -419576.0      -497087.0      -541436.0      -570904.0      -594888.0
      -618943.0      -636948.0      -647515.0      -649201.0      -633517.0
      -608755.0      -579251.0      -538136.0      -476805.0      -390955.0
      -287686.0      -173921.0      -68527.00       7503.000       47866.00
       46379.00       6799.000      -65339.00      -166340.0      -284373.0
      -404246.0      -504787.0      -575904.0      -621342.0      -648291.0
      -667314.0      -682866.0      -692162.0      -693236.0      -681599.0
      -653083.0      -610596.0      -559172.0      -506637.0      -452556.0
      -390959.0      -322417.0      -242832.0      -145093.0      -16477.00
       157665.0       381116.0       657339.0       979356.0       1326247.
       1687829.       2060521.       2436203.       2806151.       3162746.
       3502288.       3817728.       4088027.       4297766.       4444376.
       4527454.       4559978.       4560540.       4541367.       4517661.
       4504266.       4505338.       4512959.       4514381.       4496329.
       4445548.       4360190.       4245986.       4106400.       3944869.
       3761437.       3558349.       3342945.       3125639.       2914001.
       2706109.       2495934.       2267294.       2002396.       1697062.
       1356744.       1002145.       658223.0       335283.0       39573.00
      -217429.0      -431762.0      -603529.0      -727536.0      -809496.0
      -853691.0      -853833.0      -807949.0      -714154.0      -576042.0
      -410890.0      -246738.0      -103218.0       18149.00       122088.0
       220653.0       328186.0       455816.0       604485.0       764720.0
       926015.0       1073415.       1196429.       1282230.       1308781.
       1273477.       1188961.       1058962.       886153.0       668702.0
       405792.0       113280.0      -191980.0      -497398.0      -794990.0
      -1084685.      -1369939.      -1645689.      -1895104.      -2096379.
      -2224643.      -2265230.      -2219652.      -2104736.      -1937094.
      -1729649.      -1506080.      -1285134.      -1074420.      -879702.0
      -701310.0      -537943.0      -398593.0      -296624.0      -243701.0
      -243453.0      -288951.0      -375376.0      -490317.0      -618932.0
      -747304.0      -849119.0      -909490.0      -925715.0      -898650.0
      -850108.0      -814389.0      -815238.0      -859996.0      -944147.0
      -1052484.      -1167427.      -1274594.      -1358500.      -1411255.
      -1440748.      -1457988.      -1472098.      -1487698.      -1493431.
      -1473795.      -1415086.      -1307564.      -1157111.      -978817.0
      -795899.0      -628057.0      -479427.0      -347707.0      -232784.0
      -145202.0      -95714.00      -92371.00      -138043.0      -214256.0
      -300021.0      -386584.0      -465477.0      -529650.0      -575591.0
      -608009.0      -643128.0      -688162.0      -744330.0      -822649.0
      -926475.0      -1052674.      -1203605.      -1374827.      -1555752.
      -1727474.      -1863497.      -1953125.      -1991149.      -1975861.
      -1921260.      -1831497.      -1711877.      -1576257.      -1430594.
      -1293911.      -1187442.      -1116372.      -1090991.      -1120040.
      -1193495.      -1300552.      -1433153.      -1575951.      -1709889.
      -1813775.      -1875169.      -1893994.      -1876869.      -1831979.
      -1762591.      -1667403.      -1544876.      -1403924.      -1258758.
      -1121523.      -1008232.      -929489.0      -892072.0      -898418.0
      -926769.0      -942968.0      -922961.0      -855746.0      -740426.0
      -583755.0      -400851.0      -208189.0      -14817.00       173218.0
       352825.0       524425.0       684021.0       826236.0       947086.0
       1045586.       1120175.       1160646.       1164429.       1138713.
       1090995.       1027370.       938779.0       815730.0       661934.0
       485210.0       298458.0       111545.0      -72516.00      -251179.0
      -422753.0      -591538.0      -765614.0      -945060.0      -1120129.
      -1277090.      -1403537.      -1489679.      -1521749.      -1486424.
      -1380685.      -1208916.      -989503.0      -755797.0      -534622.0
      -343286.0      -195654.0      -93801.00      -31838.00      -6452.000
      -9187.000      -23157.00      -35192.00      -26914.00       28424.00
       146127.0       326291.0       552889.0       802223.0       1056166.
       1306436.       1551421.       1788476.       2014887.       2224937.
       2413414.       2570639.       2677825.       2719830.       2687183.
       2579272.       2412034.       2211048.       1997415.       1788411.
       1596764.       1430295.       1302724.       1229827.       1219709.
       1269833.       1370905.       1505494.       1655939.       1822611.
       2012218.       2231905.       2489309.       2785523.       3114746.
       3462236.       3816238.       4164077.       4486128.       4763820.
       4983050.       5143730.       5254079.       5329551.       5385227.
       5432022.       5481139.       5533799.       5595860.       5669057.
       5760110.       5879701.       6010346.       6140224.       6255392.
       6339718.       6390868.       6398286.       6369381.       6315790.
       6240229.       6135532.       5981809.       5784959.       5545692.
       5262904.       4947160.       4590825.       4194219.       3752272.
       3257421.       2717657.       2135238.       1520491.       885572.0
       237598.0      -398326.0      -986265.0      -1502275.      -1934305.
      -2279475.      -2545438.      -2739480.      -2870842.      -2951265.
      -2989847.      -2992227.      -2964663.      -2918763.      -2863365.
      -2804348.      -2740672.      -2663815.      -2563833.      -2439658.
      -2308627.      -2191229.      -2102012.      -2049687.      -2036155.
      -2059376.      -2115226.      -2199015.      -2308506.      -2444553.
      -2603853.      -2779992.      -2961480.      -3129857.      -3267248.
      -3360030.      -3404826.      -3397422.      -3329136.      -3195171.
      -2997162.      -2748555.      -2468611.      -2175448.      -1878249.
      -1584474.      -1297713.      -1012862.      -734946.0      -474046.0
      -238938.0      -43072.00       98584.00       173398.0       173887.0
       102255.0      -30279.00      -203504.0      -393245.0      -581024.0
      -754217.0      -905858.0      -1033407.      -1141103.      -1236955.
      -1327833.      -1415265.      -1491560.      -1558993.      -1624299.
      -1693743.      -1786424.      -1913781.      -2080677.      -2287548.
      -2524734.      -2784714.      -3053131.      -3315719.      -3567865.
      -3799430.      -3997850.      -4157001.      -4273802.      -4352895.
      -4410516.      -4459673.      -4505948.      -4547729.      -4570792.
      -4560076.      -4504689.      -4402003.      -4254874.      -4065521.
      -3844170.      -3600305.      -3342963.      -3086075.      -2838816.
      -2605549.      -2387725.      -2184840.      -1994282.      -1810604.
      -1626277.      -1436530.      -1244187.      -1052203.      -861868.0
      -678481.0      -506413.0      -345098.0      -189806.0      -32892.00
       127908.0       287845.0       444703.0       600032.0       764030.0
       956512.0       1189601.       1469657.       1801953.       2181143.
       2591519.       3004755.       3389868.       3726052.       4004921.
       4235363.       4433594.       4617990.       4803518.       4993915.
       5187139.       5370069.       5527057.       5652159.       5740464.
       5790670.       5801081.       5772601.       5714185.       5627216.
       5516186.       5397295.       5288791.       5211461.       5180478.
       5197504.       5258643.       5357207.       5482545.       5621482.
       5759079.       5880243.       5968588.       6004928.       5964615.
       5826669.       5582752.       5229999.       4774134.       4233602.
       3632005.       2989551.       2326994.       1673113.       1047187.
       465741.0      -47382.00      -482984.0      -839166.0      -1115617.
      -1314757.      -1433745.      -1477600.      -1463150.      -1409601.
      -1336758.      -1261427.      -1190824.      -1126700.      -1068694.
      -1009192.      -940510.0      -855642.0      -747421.0      -618279.0
      -471825.0      -314942.0      -166715.0      -41066.00       54609.00
       119271.0       157819.0       173460.0       176811.0       178094.0
       182885.0       195798.0       220776.0       260878.0       318380.0
       395992.0       494858.0       611213.0       739312.0       880011.0
       1022793.       1150271.       1256375.       1337128.       1397222.
       1448960.       1495002.       1538805.       1583345.       1624739.
       1667299.       1712671.       1758612.       1795922.       1800100.
       1749002.       1619705.       1395039.       1077523.       678935.0
       215884.0      -293616.0      -836041.0      -1400573.      -1976226.
      -2557739.      -3138743.      -3708959.      -4268543.      -4819469.
      -5361433.      -5892361.      -6408696.      -6908273.      -7382135.
      -7819895.      -8212470.      -8551392.      -8829091.      -9042769.
      -9193734.      -9278086.      -9300007.      -9268234.      -9186580.
      -9065097.      -8911229.      -8733919.      -8553187.      -8385515.
      -8242491.      -8122338.      -8007082.      -7882418.      -7734086.
      -7548400.      -7322872.      -7057587.      -6754512.      -6419465.
      -6057684.      -5674633.      -5276698.      -4871679.      -4461346.
      -4048743.      -3642805.      -3249550.      -2883927.      -2557641.
      -2268176.      -2011222.      -1780128.      -1570120.      -1382076.
      -1225725.      -1118225.      -1075454.      -1103926.      -1197667.
      -1349308.      -1546474.      -1766246.      -1986300.      -2188288.
      -2358798.      -2485888.      -2562550.      -2589906.      -2568376.
      -2502191.      -2397337.      -2259508.      -2098319.      -1919965.
      -1733720.      -1549931.      -1370020.      -1194009.      -1017291.
      -836642.0      -654802.0      -468590.0      -274736.0      -75867.00
       116420.0       286562.0       421058.0       503853.0       526731.0
       485666.0       376407.0       202110.0      -34168.00      -320089.0
      -632557.0      -950199.0      -1253776.      -1532941.      -1785178.
      -2006990.      -2197537.      -2357327.      -2482974.      -2573004.
      -2620953.      -2617893.      -2556689.      -2430228.      -2240634.
      -1991164.      -1688490.      -1347132.      -979377.0      -596494.0
      -207911.0       182895.0       572194.0       956610.0       1335125.
       1699541.       2045722.       2377272.       2693666.       2997369.
       3286207.       3550757.       3784966.       3972535.       4099930.
       4168480.       4181773.       4158879.       4120065.       4081750.
       4066862.       4088605.       4154767.       4264624.       4410535.
       4584279.       4772046.       4962416.       5151375.       5340413.
       5527940.       5714181.       5906836.       6107534.       6319219.
       6543872.       6776030.       7022454.       7288369.       7575397.
       7891950.       8235405.       8595571.       8959664.       9311586.
       9633228.       9907132.   1.011945e+07   1.025729e+07   1.031671e+07
   1.030042e+07   1.020753e+07   1.003619e+07       9786854.       9456534.
       9039115.       8535834.       7956461.       7313663.       6614036.
       5858806.       5054589.       4209424.       3332818.       2439330.
       1543130.       660080.0      -199297.0      -1034009.      -1843245.
      -2628536.      -3386375.      -4102874.      -4762903.      -5353251.
      -5862382.      -6276404.      -6589851.      -6806385.      -6929320.
      -6969283.      -6941751.      -6861335.      -6739257.      -6589362.
      -6423157.      -6246860.      -6068218.      -5887366.      -5711185.
      -5542942.      -5372579.      -5202619.      -5037192.      -4873179.
      -4713716.      -4567505.      -4439211.      -4330887.      -4242893.
      -4177028.      -4137347.      -4125788.      -4143751.      -4191557.
      -4267969.      -4370063.      -4499437.      -4656202.      -4831600.
      -5016564.      -5203882.      -5377628.      -5519133.      -5619081.
      -5665580.      -5645481.      -5554834.      -5400460.      -5192636.
      -4937628.      -4647081.      -4337099.      -4013888.      -3678824.
      -3338287.      -2996641.      -2659760.      -2338653.      -2043255.
      -1782321.      -1565195.      -1399884.      -1283419.      -1214384.
      -1199544.      -1238037.      -1326699.      -1461158.      -1631368.
      -1819491.      -2010574.      -2197472.      -2370420.      -2522704.
      -2647480.      -2740998.      -2800852.      -2821892.      -2807557.
      -2766396.      -2695684.      -2588810.      -2457441.      -2309380.
      -2144014.      -1970682.      -1796332.      -1621542.      -1442178.
      -1255163.      -1060707.      -852306.0      -624508.0      -377920.0
      -109490.0       180900.0       491071.0       820162.0       1162311.
       1518997.       1885989.       2251148.       2608754.       2943580.
       3243028.       3504020.       3723304.       3895100.       4014822.
       4086765.       4108732.       4077180.       3998625.       3876501.
       3716937.       3532414.       3336506.       3143480.       2964898.
       2811279.       2688981.       2601612.       2550072.       2528884.
       2536140.       2576715.       2651597.       2758405.       2897546.
       3070456.       3272328.       3491661.       3729080.       3983428.
       4241221.       4497898.       4750833.       4995488.       5226456.
       5437668.       5627211.       5790205.       5917772.       6000927.
       6028645.       5982929.       5849474.       5624751.       5301226.
       4873130.       4349747.       3744422.       3069534.       2340964.
       1572527.       776753.0      -31526.00      -839285.0      -1634617.
      -2408127.      -3151810.      -3859179.      -4523705.      -5139949.
      -5708064.      -6220101.      -6665836.      -7032580.      -7307454.
      -7492216.      -7586088.      -7590820.      -7513990.      -7357107.
      -7122589.      -6811434.      -6421858.      -5956365.      -5421222.
      -4826296.      -4181981.      -3499513.      -2791959.      -2062500.
      -1316889.      -561911.0       201625.0       965637.0       1727416.
       2480103.       3209314.       3902163.       4541019.       5110118.
       5600363.       6015849.       6357809.       6623659.       6824050.
       6963520.       7042550.       7070372.       7052821.       6997861.
       6916155.       6811271.       6691415.       6560019.       6409256.
       6239899.       6050312.       5834910.       5601926.       5354273.
       5092524.       4835726.       4597174.       4383067.       4208590.
       4079437.       3993918.       3952595.       3954132.       4003264.
       4105056.       4258822.       4460321.       4704478.       4986715.
       5295957.       5624345.       5967198.       6312925.       6649792.
       6964588.       7245270.       7480476.       7651985.       7752218.
       7779182.       7724586.       7590109.       7376166.       7077654.
       6699741.       6251103.       5737319.       5167534.       4560730.
       3929681.       3282605.       2641635.       2015708.       1402600.
       804288.0       224364.0      -327708.0      -852180.0      -1340531.
      -1782286.      -2179647.      -2530560.      -2841924.      -3117242.
      -3361098.      -3587758.      -3793952.      -3976278.      -4138808.
      -4274454.      -4377876.      -4446493.      -4479147.      -4481885.
      -4458320.      -4417545.      -4374764.      -4339795.      -4319836.
      -4316452.      -4329035.      -4356924.      -4391201.      -4422390.
      -4452272.      -4490451.      -4535987.      -4578565.      -4618128.
      -4647481.      -4652443.      -4635460.      -4595392.      -4531452.
      -4453061.      -4360789.      -4258766.      -4156320.      -4061345.
      -3982524.      -3911372.      -3839722.      -3771333.      -3693275.
      -3589996.      -3465962.      -3327300.      -3175498.      -3018404.
      -2862294.      -2705092.      -2547860.      -2396768.      -2245441.
      -2088791.      -1931094.      -1766565.      -1591502.      -1406117.
      -1208615.      -1002057.      -788703.0      -565837.0      -332665.0
      -91040.00       158353.0       414576.0       682756.0       970037.0
       1276663.       1604544.       1956841.       2331201.       2723584.
       3130081.       3548209.       3971666.       4390226.       4801004.
