     0.05000000      -12345.00      -12345.00   8.640260e+08      -12345.00
   0.0005380000       659.9506      -831.0195      -12345.00      -12345.00
      -12345.00      -12345.00      -12345.00      -12345.00      -12345.00
      -12345.00      -12345.00      -12345.00      -12345.00      -12345.00
      -12345.00      -12345.00      -12345.00      -12345.00      -12345.00
      -12345.00      -12345.00      -12345.00      -12345.00      -12345.00
      -12345.00       23.68580      -109.9443       825.0000       0.000000
       9.831100       126.5297      -12345.00       24.71000      -12345.00
      -12345.00      -12345.00      -12345.00      -12345.00      -12345.00
      -12345.00      -12345.00      -12345.00      -12345.00      -12345.00
       12847.55       57.89136       294.4156       115.5459      -12345.00
      -12345.00      -12345.00       2.000000       90.00000      -12345.00
      -12345.00      -12345.00      -12345.00      -12345.00      -12345.00
      -12345.00      -12345.00      -12345.00      -12345.00      -12345.00
      2019        39        12         8        59
        19         6    -12345    -12345     13200
    -12345    -12345    -12345    -12345    -12345
         1    -12345    -12345    -12345    -12345
    -12345    -12345    -12345    -12345    -12345
    -12345    -12345    -12345    -12345    -12345
    -12345    -12345    -12345    -12345    -12345
         1    -12345    -12345    -12345    -12345
SLBS    Mindanao, Philip
00      -12345  -12345  
-12345  -12345  -12345  
-12345  -12345  -12345  
-12345  -12345  -12345  
-12345  -12345  -12345  
-12345  -12345  BH1     
IU      -12345  Streckei
[...]
      -3551.000      -3582.000      -3619.000      -3659.000      -3698.000
      -3736.000      -3777.000      -3814.000      -3841.000      -3871.000
      -3903.000      -3934.000      -3969.000      -4007.000      -4056.000
      -4108.000      -4158.000      -4213.000      -4265.000      -4310.000
      -4349.000      -4379.000      -4400.000      -4410.000      -4416.000
      -4420.000      -4422.000      -4427.000      -4436.000      -4448.000
      -4458.000      -4469.000      -4481.000      -4486.000      -4483.000
      -4482.000      -4476.000      -4461.000      -4446.000      -4426.000
      -4405.000      -4387.000      -4361.000      -4327.000      -4294.000
      -4254.000      -4210.000      -4170.000      -4126.000      -4080.000
      -4048.000      -4007.000      -3964.000      -3926.000      -3883.000
      -3843.000      -3799.000      -3757.000      -3714.000      -3666.000
      -3628.000      -3595.000      -3563.000      -3539.000      -3519.000
      -3505.000      -3498.000      -3489.000      -3482.000      -3481.000
      -3471.000      -3464.000      -3458.000      -3451.000      -3445.000
      -3434.000      -3428.000      -3420.000      -3415.000      -3415.000
      -3417.000      -3418.000      -3426.000      -3441.000      -3444.000
      -3449.000      -3444.000      -3430.000      -3417.000      -3398.000
      -3389.000      -3396.000      -3398.000      -3411.000      -3434.000
      -3451.000      -3478.000      -3501.000      -3524.000      -3547.000
      -3563.000      -3579.000      -3590.000      -3600.000      -3604.000
      -3609.000      -3614.000      -3620.000      -3630.000      -3643.000
      -3664.000      -3682.000      -3705.000      -3738.000      -3759.000
      -3782.000      -3809.000      -3829.000      -3850.000      -3877.000
      -3901.000      -3929.000      -3956.000      -3984.000      -4017.000
      -4039.000      -4060.000      -4080.000      -4096.000      -4111.000
      -4123.000      -4135.000      -4140.000      -4137.000      -4133.000
      -4129.000      -4117.000      -4107.000      -4098.000      -4076.000
      -4053.000      -4027.000      -3996.000      -3967.000      -3936.000
      -3902.000      -3871.000      -3835.000      -3802.000      -3773.000
      -3746.000      -3728.000      -3708.000      -3696.000      -3687.000
      -3673.000      -3658.000      -3644.000      -3629.000      -3617.000
      -3601.000      -3590.000      -3586.000      -3573.000      -3571.000
      -3563.000      -3555.000      -3555.000      -3550.000      -3548.000
      -3541.000      -3535.000      -3531.000      -3528.000      -3530.000
      -3535.000      -3547.000      -3560.000      -3579.000      -3605.000
      -3622.000      -3648.000      -3668.000      -3687.000      -3714.000
      -3727.000      -3746.000      -3761.000      -3777.000      -3797.000
      -3811.000      -3834.000      -3853.000      -3873.000      -3897.000
      -3917.000      -3936.000      -3953.000      -3972.000      -3988.000
      -4000.000      -4013.000      -4018.000      -4020.000      -4026.000
      -4024.000      -4028.000      -4032.000      -4035.000      -4045.000
      -4048.000      -4056.000      -4061.000      -4062.000      -4064.000
      -4062.000      -4059.000      -4047.000      -4028.000      -4005.000
      -3968.000      -3924.000      -3875.000      -3826.000      -3776.000
      -3725.000      -3680.000      -3634.000      -3590.000      -3549.000
      -3505.000      -3461.000      -3412.000      -3373.000      -3338.000
      -3295.000      -3258.000      -3221.000      -3186.000      -3156.000
      -3123.000      -3105.000      -3088.000      -3069.000      -3063.000
      -3054.000      -3048.000      -3043.000      -3037.000      -3036.000
      -3041.000      -3048.000      -3058.000      -3078.000      -3096.000
      -3114.000      -3134.000      -3147.000      -3158.000      -3174.000
      -3188.000      -3205.000      -3229.000      -3257.000      -3296.000
      -3334.000      -3379.000      -3424.000      -3460.000      -3499.000
      -3540.000      -3576.000      -3613.000      -3648.000      -3679.000
      -3713.000      -3743.000      -3777.000      -3813.000      -3841.000
      -3873.000      -3902.000      -3934.000      -3963.000      -3996.000
      -4033.000      -4073.000      -4118.000      -4159.000      -4199.000
      -4234.000      -4269.000      -4301.000      -4327.000      -4349.000
      -4363.000      -4376.000      -4385.000      -4389.000      -4395.000
      -4404.000      -4416.000      -4428.000      -4444.000      -4459.000
      -4471.000      -4481.000      -4491.000      -4498.000      -4502.000
      -4509.000      -4518.000      -4527.000      -4532.000      -4535.000
      -4532.000      -4518.000      -4500.000      -4473.000      -4444.000
      -4407.000      -4371.000      -4342.000      -4301.000      -4260.000
      -4216.000      -4167.000      -4121.000      -4066.000      -4018.000
      -3974.000      -3926.000      -3887.000      -3852.000      -3810.000
      -3768.000      -3728.000      -3686.000      -3646.000      -3609.000
      -3568.000      -3523.000      -3479.000      -3433.000      -3393.000
      -3347.000      -3296.000      -3251.000      -3199.000      -3147.000
      -3097.000      -3051.000      -3012.000      -2970.000      -2935.000
      -2906.000      -2877.000      -2852.000      -2831.000      -2812.000
      -2798.000      -2786.000      -2774.000      -2761.000      -2745.000
      -2732.000      -2716.000      -2700.000      -2697.000      -2691.000
      -2694.000      -2706.000      -2716.000      -2734.000      -2757.000
      -2785.000      -2820.000      -2865.000      -2907.000      -2946.000
      -2991.000      -3029.000      -3068.000      -3108.000      -3146.000
      -3185.000      -3220.000      -3257.000      -3296.000      -3338.000
      -3382.000      -3423.000      -3467.000      -3512.000      -3555.000
      -3599.000      -3641.000      -3675.000      -3707.000      -3736.000
      -3758.000      -3777.000      -3796.000      -3810.000      -3826.000
      -3848.000      -3867.000      -3890.000      -3914.000      -3931.000
      -3953.000      -3972.000      -3992.000      -4011.000      -4021.000
      -4037.000      -4047.000      -4064.000      -4089.000      -4106.000
      -4126.000      -4143.000      -4153.000      -4168.000      -4180.000
      -4187.000      -4203.000      -4218.000      -4227.000      -4239.000
      -4242.000      -4244.000      -4246.000      -4229.000      -4211.000
      -4193.000      -4169.000      -4150.000      -4130.000      -4115.000
      -4106.000      -4092.000      -4087.000      -4084.000      -4078.000
      -4073.000      -4069.000      -4069.000      -4066.000      -4066.000
      -4065.000      -4070.000      -4071.000      -4068.000      -4072.000
      -4070.000      -4077.000      -4081.000      -4076.000      -4077.000
      -4076.000      -4081.000      -4086.000      -4091.000      -4096.000
      -4103.000      -4105.000      -4103.000      -4098.000      -4089.000
      -4078.000      -4064.000      -4056.000      -4044.000      -4030.000
      -4021.000      -4010.000      -3994.000      -3973.000      -3952.000
      -3927.000      -3903.000      -3878.000      -3857.000      -3841.000
      -3822.000      -3808.000      -3794.000      -3771.000      -3749.000
      -3721.000      -3683.000      -3647.000      -3604.000      -3563.000
      -3530.000      -3498.000      -3479.000      -3467.000      -3459.000
      -3452.000      -3438.000      -3426.000      -3408.000      -3382.000
      -3350.000      -3315.000      -3275.000      -3237.000      -3206.000
      -3171.000      -3147.000      -3128.000      -3107.000      -3094.000
      -3078.000      -3068.000      -3063.000      -3052.000      -3042.000
      -3032.000      -3013.000      -2994.000      -2975.000      -2952.000
      -2932.000      -2909.000      -2889.000      -2876.000      -2859.000
      -2842.000      -2827.000      -2808.000      -2784.000      -2758.000
      -2738.000      -2719.000      -2702.000      -2694.000      -2693.000
      -2693.000      -2699.000      -2703.000      -2705.000      -2712.000
      -2717.000      -2725.000      -2739.000      -2751.000      -2772.000
      -2801.000      -2828.000      -2869.000      -2917.000      -2963.000
      -3017.000      -3076.000      -3137.000      -3199.000      -3260.000
      -3322.000      -3385.000      -3444.000      -3505.000      -3564.000
      -3613.000      -3665.000      -3709.000      -3750.000      -3790.000
      -3827.000      -3872.000      -3911.000      -3952.000      -3997.000
      -4046.000      -4096.000      -4141.000      -4195.000      -4245.000
      -4291.000      -4343.000      -4398.000      -4452.000      -4504.000
      -4555.000      -4601.000      -4636.000      -4663.000      -4680.000
      -4691.000      -4699.000      -4711.000      -4727.000      -4740.000
      -4754.000      -4761.000      -4764.000      -4760.000      -4742.000
      -4725.000      -4706.000      -4690.000      -4676.000      -4664.000
      -4655.000      -4638.000      -4627.000      -4616.000      -4597.000
      -4575.000      -4551.000      -4530.000      -4498.000      -4468.000
      -4448.000      -4419.000      -4390.000      -4358.000      -4322.000
      -4279.000      -4229.000      -4183.000      -4137.000      -4083.000
      -4031.000      -3983.000      -3933.000      -3884.000      -3838.000
      -3794.000      -3747.000      -3699.000      -3645.000      -3582.000
      -3523.000      -3453.000      -3382.000      -3318.000      -3252.000
      -3201.000      -3156.000      -3117.000      -3083.000      -3054.000
      -3039.000      -3019.000      -3006.000      -3001.000      -2991.000
      -2984.000      -2980.000      -2977.000      -2967.000      -2964.000
      -2963.000      -2963.000      -2968.000      -2970.000      -2979.000
      -2988.000      -2999.000      -3006.000      -3015.000      -3025.000
      -3032.000      -3045.000      -3052.000      -3060.000      -3065.000
      -3071.000      -3080.000      -3084.000      -3093.000      -3105.000
      -3114.000      -3113.000      -3110.000      -3102.000      -3086.000
      -3069.000      -3053.000      -3042.000      -3029.000      -3021.000
      -3020.000      -3017.000      -3014.000      -3012.000      -3008.000
      -3007.000      -3013.000      -3021.000      -3036.000      -3055.000
      -3077.000      -3111.000      -3144.000      -3177.000      -3212.000
      -3235.000      -3257.000      -3277.000      -3291.000      -3308.000
      -3322.000      -3337.000      -3355.000      -3375.000      -3399.000
      -3425.000      -3442.000      -3459.000      -3480.000      -3496.000
      -3512.000      -3530.000      -3552.000      -3577.000      -3598.000
      -3620.000      -3640.000      -3663.000      -3687.000      -3706.000
      -3726.000      -3749.000      -3767.000      -3787.000      -3808.000
      -3823.000      -3836.000      -3844.000      -3849.000      -3854.000
      -3851.000      -3847.000      -3845.000      -3840.000      -3840.000
      -3848.000      -3855.000      -3861.000      -3876.000      -3889.000
      -3904.000      -3917.000      -3924.000      -3938.000      -3945.000
      -3960.000      -3982.000      -4001.000      -4028.000      -4059.000
      -4086.000      -4106.000      -4122.000      -4138.000      -4154.000
      -4163.000      -4176.000      -4196.000      -4212.000      -4229.000
      -4245.000      -4261.000      -4273.000      -4282.000      -4294.000
      -4304.000      -4311.000      -4318.000      -4326.000      -4328.000
      -4328.000      -4326.000      -4319.000      -4310.000      -4298.000
      -4289.000      -4283.000      -4274.000      -4270.000      -4270.000
      -4265.000      -4261.000      -4257.000      -4243.000      -4227.000
      -4202.000      -4174.000      -4142.000      -4105.000      -4069.000
      -4024.000      -3976.000      -3926.000      -3878.000      -3827.000
      -3775.000      -3724.000      -3670.000      -3621.000      -3571.000
      -3529.000      -3490.000      -3448.000      -3411.000      -3378.000
      -3340.000      -3299.000      -3263.000      -3223.000      -3187.000
      -3153.000      -3118.000      -3095.000      -3063.000      -3035.000
      -3011.000      -2981.000      -2956.000      -2925.000      -2900.000
      -2878.000      -2845.000      -2812.000      -2776.000      -2729.000
      -2680.000      -2630.000      -2574.000      -2525.000      -2480.000
      -2437.000      -2401.000      -2367.000      -2341.000      -2325.000
      -2313.000      -2306.000      -2313.000      -2326.000      -2343.000
      -2371.000      -2406.000      -2447.000      -2492.000      -2536.000
      -2587.000      -2645.000      -2708.000      -2783.000      -2860.000
      -2939.000      -3017.000      -3102.000      -3179.000      -3247.000
      -3316.000      -3376.000      -3434.000      -3489.000      -3535.000
      -3571.000      -3606.000      -3638.000      -3665.000      -3695.000
      -3719.000      -3745.000      -3774.000      -3798.000      -3828.000
      -3854.000      -3883.000      -3915.000      -3940.000      -3969.000
      -3997.000      -4018.000      -4037.000      -4058.000      -4074.000
      -4096.000      -4118.000      -4130.000      -4148.000      -4159.000
      -4172.000      -4185.000      -4193.000      -4210.000      -4220.000
      -4228.000      -4239.000      -4244.000      -4252.000      -4259.000
      -4254.000      -4251.000      -4245.000      -4228.000      -4209.000
      -4186.000      -4159.000      -4135.000      -4112.000      -4091.000
      -4082.000      -4069.000      -4063.000      -4061.000      -4051.000
      -4050.000      -4046.000      -4038.000      -4031.000      -4025.000
      -4019.000      -4008.000      -3994.000      -3979.000      -3964.000
      -3943.000      -3923.000      -3903.000      -3884.000      -3864.000
      -3846.000      -3836.000      -3819.000      -3804.000      -3789.000
      -3778.000      -3766.000      -3758.000      -3763.000      -3759.000
      -3759.000      -3754.000      -3743.000      -3730.000      -3705.000
      -3681.000      -3653.000      -3620.000      -3586.000      -3552.000
      -3517.000      -3479.000      -3447.000      -3417.000      -3388.000
      -3362.000      -3343.000      -3327.000      -3305.000      -3284.000
      -3271.000      -3256.000      -3238.000      -3227.000      -3217.000
      -3210.000      -3204.000      -3201.000      -3201.000      -3195.000
      -3191.000      -3191.000      -3185.000      -3178.000      -3176.000
      -3169.000      -3161.000      -3154.000      -3146.000      -3140.000
      -3128.000      -3115.000      -3110.000      -3098.000      -3090.000
      -3083.000      -3069.000      -3055.000      -3040.000      -3033.000
      -3024.000      -3013.000      -3006.000      -3003.000      -2994.000
      -2983.000      -2979.000      -2967.000      -2959.000      -2952.000
      -2945.000      -2946.000      -2944.000      -2947.000      -2953.000
      -2964.000      -2986.000      -3014.000      -3052.000      -3093.000
      -3134.000      -3176.000      -3217.000      -3254.000      -3286.000
      -3315.000      -3337.000      -3360.000      -3381.000      -3395.000
      -3410.000      -3422.000      -3435.000      -3449.000      -3455.000
      -3469.000      -3483.000      -3494.000      -3510.000      -3526.000
      -3549.000      -3575.000      -3605.000      -3640.000      -3677.000
      -3710.000      -3749.000      -3783.000      -3809.000      -3841.000
      -3868.000      -3896.000      -3929.000      -3958.000      -3991.000
      -4030.000      -4060.000      -4096.000      -4133.000      -4165.000
      -4203.000      -4234.000      -4264.000      -4293.000      -4320.000
      -4354.000      -4381.000      -4405.000      -4434.000      -4463.000
      -4483.000      -4499.000      -4512.000      -4515.000      -4504.000
      -4487.000      -4468.000      -4434.000      -4397.000      -4356.000
      -4311.000      -4267.000      -4221.000      -4177.000      -4126.000
      -4079.000      -4034.000      -3988.000      -3949.000      -3910.000
      -3871.000      -3830.000      -3783.000      -3735.000      -3690.000
      -3645.000      -3609.000      -3571.000      -3535.000      -3508.000
      -3472.000      -3439.000      -3406.000      -3361.000      -3321.000
      -3289.000      -3257.000      -3234.000      -3218.000      -3199.000
      -3184.000      -3164.000      -3145.000      -3128.000      -3109.000
      -3099.000      -3096.000      -3094.000      -3094.000      -3097.000
      -3107.000      -3118.000      -3122.000      -3136.000      -3147.000
      -3147.000      -3150.000      -3149.000      -3142.000      -3134.000
      -3121.000      -3108.000      -3103.000      -3091.000      -3084.000
      -3079.000      -3062.000      -3058.000      -3052.000      -3045.000
      -3043.000      -3041.000      -3049.000      -3058.000      -3068.000
      -3083.000      -3097.000      -3099.000      -3100.000      -3098.000
      -3093.000      -3090.000      -3087.000      -3094.000      -3107.000
      -3122.000      -3146.000      -3169.000      -3185.000      -3206.000
      -3223.000      -3237.000      -3257.000      -3283.000      -3312.000
      -3350.000      -3390.000      -3425.000      -3468.000      -3501.000
      -3532.000      -3565.000      -3589.000      -3618.000      -3643.000
      -3671.000      -3705.000      -3732.000      -3764.000      -3794.000
      -3822.000      -3849.000      -3869.000      -3889.000      -3897.000
      -3894.000      -3896.000      -3887.000      -3878.000      -3872.000
      -3866.000      -3865.000      -3870.000      -3878.000      -3881.000
      -3887.000      -3887.000      -3880.000      -3869.000      -3844.000
      -3813.000      -3783.000      -3746.000      -3707.000      -3673.000
      -3641.000      -3612.000      -3586.000      -3572.000      -3562.000
      -3556.000      -3559.000      -3564.000      -3561.000      -3557.000
