     0.02500000      -12345.00      -12345.00   3.262830e+10      -12345.00
   0.0005380000       659.9755      -831.0195      -12345.00      -12345.00
      -12345.00      -12345.00      -12345.00      -12345.00      -12345.00
      -12345.00      -12345.00      -12345.00      -12345.00      -12345.00
      -12345.00      -12345.00      -12345.00      -12345.00      -12345.00
      -12345.00      -12345.00      -12345.00      -12345.00      -12345.00
      -12345.00       23.68580      -109.9443       825.0000       0.000000
       9.831100       126.5297      -12345.00       24.71000      -12345.00
      -12345.00      -12345.00      -12345.00      -12345.00      -12345.00
      -12345.00      -12345.00      -12345.00      -12345.00      -12345.00
       12847.55       57.89136       294.4156       115.5459      -12345.00
      -12345.00      -12345.00       0.000000       90.00000      -12345.00
      -12345.00      -12345.00      -12345.00      -12345.00      -12345.00
      -12345.00      -12345.00      -12345.00      -12345.00      -12345.00
      2019        39        12         8        59
        19         6    -12345    -12345     26400
    -12345    -12345    -12345    -12345    -12345
         1    -12345    -12345    -12345    -12345
    -12345    -12345    -12345    -12345    -12345
    -12345    -12345    -12345    -12345    -12345
    -12345    -12345    -12345    -12345    -12345
         1    -12345    -12345    -12345    -12345
SLBS    Mindanao, Philip
10      -12345  -12345  
-12345  -12345  -12345  
-12345  -12345  -12345  
-12345  -12345  -12345  
-12345  -12345  -12345  
-12345  -12345  BH1     
IU      -12345  Streckei
[...]
      -37203.00      -37846.00      -38478.00      -39108.00      -39782.00
      -40436.00      -41151.00      -41857.00      -42567.00      -43393.00
      -44111.00      -44750.00      -45408.00      -46039.00      -46671.00
      -47309.00      -47932.00      -48397.00      -48910.00      -49543.00
      -50075.00      -50586.00      -51091.00      -51644.00      -52187.00
      -52670.00      -53109.00      -53496.00      -53973.00      -54447.00
      -54848.00      -55244.00      -55642.00      -55969.00      -56167.00
      -56410.00      -56723.00      -56919.00      -57038.00      -57181.00
      -57316.00      -57447.00      -57486.00      -57499.00      -57556.00
      -57565.00      -57570.00      -57498.00      -57427.00      -57258.00
      -57024.00      -56898.00      -56788.00      -56691.00      -56416.00
      -56241.00      -56116.00      -55769.00      -55632.00      -55447.00
      -55145.00      -54903.00      -54610.00      -54333.00      -53892.00
      -53479.00      -53105.00      -52641.00      -52236.00      -51804.00
      -51369.00      -50916.00      -50515.00      -50181.00      -49820.00
      -49489.00      -49158.00      -48786.00      -48362.00      -47952.00
      -47551.00      -47089.00      -46570.00      -45986.00      -45355.00
      -44679.00      -43948.00      -43147.00      -42272.00      -41417.00
      -40482.00      -39450.00      -38460.00      -37323.00      -36089.00
      -34938.00      -33826.00      -32718.00      -31624.00      -30567.00
      -29495.00      -28446.00      -27492.00      -26570.00      -25695.00
      -24812.00      -23952.00      -23165.00      -22289.00      -21433.00
      -20729.00      -20033.00      -19250.00      -18575.00      -17948.00
      -17168.00      -16498.00      -15921.00      -15375.00      -14835.00
      -14232.00      -13748.00      -13222.00      -12669.00      -12270.00
      -11901.00      -11478.00      -11006.00      -10590.00      -10118.00
      -9520.000      -8917.000      -8294.000      -7682.000      -7039.000
      -6293.000      -5522.000      -4733.000      -3899.000      -3117.000
      -2428.000      -1749.000      -1095.000      -467.0000       152.0000
       684.0000       1169.000       1593.000       1982.000       2388.000
       2846.000       3306.000       3598.000       4028.000       4519.000
       4831.000       5175.000       5462.000       5793.000       6227.000
       6596.000       7004.000       7384.000       7672.000       8008.000
       8332.000       8601.000       8814.000       8906.000       8939.000
       8942.000       8859.000       8672.000       8453.000       8162.000
       7816.000       7422.000       6836.000       6304.000       5757.000
       5080.000       4524.000       3880.000       3178.000       2517.000
       1766.000       1101.000       487.0000      -215.0000      -909.0000
      -1602.000      -2388.000      -3151.000      -3878.000      -4650.000
      -5446.000      -6287.000      -7062.000      -7800.000      -8633.000
      -9443.000      -10177.00      -10887.00      -11584.00      -12249.00
      -12945.00      -13787.00      -14660.00      -15477.00      -16249.00
      -16992.00      -17858.00      -18783.00      -19544.00      -20303.00
      -21104.00      -21860.00      -22660.00      -23362.00      -23993.00
      -24632.00      -25218.00      -25738.00      -26231.00      -26650.00
      -26918.00      -27132.00      -27324.00      -27549.00      -27631.00
      -27518.00      -27476.00      -27369.00      -27184.00      -27070.00
      -26932.00      -26803.00      -26653.00      -26539.00      -26550.00
      -26498.00      -26508.00      -26630.00      -26781.00      -27078.00
      -27382.00      -27693.00      -28084.00      -28400.00      -28737.00
      -29121.00      -29438.00      -29712.00      -29968.00      -30185.00
      -30376.00      -30584.00      -30825.00      -31021.00      -31117.00
      -31310.00      -31484.00      -31595.00      -31775.00      -31870.00
      -32090.00      -32342.00      -32508.00      -32756.00      -32918.00
      -33102.00      -33369.00      -33691.00      -34075.00      -34496.00
      -34920.00      -35344.00      -35936.00      -36513.00      -37021.00
      -37586.00      -38132.00      -38663.00      -39152.00      -39634.00
      -40206.00      -40758.00      -41287.00      -41851.00      -42422.00
      -43000.00      -43539.00      -44091.00      -44697.00      -45420.00
      -46116.00      -46722.00      -47414.00      -48019.00      -48542.00
      -49113.00      -49661.00      -50089.00      -50480.00      -50876.00
      -51130.00      -51330.00      -51520.00      -51685.00      -51797.00
      -51858.00      -51914.00      -51899.00      -51832.00      -51838.00
      -51915.00      -52007.00      -52182.00      -52316.00      -52364.00
      -52454.00      -52633.00      -52838.00      -52937.00      -53049.00
      -53057.00      -53000.00      -53100.00      -53030.00      -52931.00
      -52849.00      -52594.00      -52509.00      -52338.00      -52084.00
      -52003.00      -51826.00      -51716.00      -51743.00      -51746.00
      -51800.00      -51918.00      -52043.00      -52256.00      -52485.00
      -52689.00      -53019.00      -53176.00      -53292.00      -53519.00
      -53503.00      -53495.00      -53436.00      -53237.00      -53060.00
      -52763.00      -52368.00      -51823.00      -51295.00      -50743.00
      -50194.00      -49712.00      -48980.00      -48259.00      -47529.00
      -46745.00      -46124.00      -45434.00      -44632.00      -43843.00
      -43059.00      -42288.00      -41559.00      -40776.00      -39982.00
      -39304.00      -38571.00      -37849.00      -37247.00      -36442.00
      -35640.00      -35005.00      -34270.00      -33562.00      -32761.00
      -31883.00      -31061.00      -30200.00      -29471.00      -28703.00
      -27899.00      -27155.00      -26414.00      -25813.00      -25174.00
      -24580.00      -24038.00      -23456.00      -23035.00      -22602.00
      -22086.00      -21596.00      -21073.00      -20578.00      -20186.00
      -19704.00      -19104.00      -18554.00      -17921.00      -17239.00
      -16557.00      -15827.00      -15162.00      -14425.00      -13692.00
      -13026.00      -12286.00      -11572.00      -10836.00      -10072.00
      -9342.000      -8597.000      -7869.000      -7114.000      -6295.000
      -5537.000      -4864.000      -4225.000      -3569.000      -3001.000
      -2452.000      -1869.000      -1520.000      -1182.000      -773.0000
      -483.0000      -143.0000       235.0000       577.0000       797.0000
       1079.000       1385.000       1577.000       1950.000       2248.000
       2600.000       3009.000       3299.000       3665.000       3862.000
       4207.000       4535.000       4618.000       4836.000       4911.000
       4879.000       4837.000       4687.000       4483.000       4235.000
       3952.000       3583.000       3224.000       2735.000       2125.000
       1669.000       1086.000       590.0000       246.0000      -315.0000
      -749.0000      -1183.000      -1640.000      -1916.000      -2303.000
      -2597.000      -2911.000      -3432.000      -3712.000      -4014.000
      -4377.000      -4616.000      -4994.000      -5242.000      -5446.000
      -5701.000      -5889.000      -6157.000      -6259.000      -6349.000
      -6504.000      -6596.000      -6902.000      -7159.000      -7322.000
      -7587.000      -7816.000      -8077.000      -8364.000      -8694.000
      -9038.000      -9324.000      -9646.000      -9977.000      -10325.00
      -10648.00      -10993.00      -11430.00      -11831.00      -12330.00
      -12878.00      -13297.00      -13781.00      -14370.00      -14908.00
      -15524.00      -16225.00      -16811.00      -17406.00      -18074.00
      -18776.00      -19532.00      -20316.00      -21110.00      -21898.00
      -22691.00      -23431.00      -24134.00      -24836.00      -25573.00
      -26233.00      -26853.00      -27568.00      -28052.00      -28563.00
      -29219.00      -29780.00      -30439.00      -31061.00      -31654.00
      -32312.00      -32911.00      -33581.00      -34265.00      -34825.00
      -35395.00      -35957.00      -36491.00      -36971.00      -37322.00
      -37680.00      -38037.00      -38372.00      -38791.00      -39099.00
      -39350.00      -39688.00      -40035.00      -40485.00      -40890.00
      -41328.00      -41772.00      -42093.00      -42534.00      -42974.00
      -43379.00      -43741.00      -43961.00      -44234.00      -44430.00
      -44456.00      -44584.00      -44681.00      -44655.00      -44674.00
      -44720.00      -44752.00      -44772.00      -44838.00      -44965.00
      -45109.00      -45292.00      -45490.00      -45710.00      -45922.00
      -46169.00      -46539.00      -46862.00      -47234.00      -47566.00
      -47841.00      -48241.00      -48555.00      -48872.00      -49164.00
      -49452.00      -49784.00      -50047.00      -50376.00      -50666.00
      -50897.00      -51232.00      -51590.00      -51883.00      -52212.00
      -52474.00      -52715.00      -52997.00      -53181.00      -53495.00
      -53753.00      -53922.00      -54182.00      -54355.00      -54526.00
      -54752.00      -54970.00      -55208.00      -55504.00      -55757.00
      -55959.00      -56172.00      -56340.00      -56481.00      -56645.00
      -56780.00      -56747.00      -56654.00      -56559.00      -56377.00
      -56143.00      -55815.00      -55459.00      -54951.00      -54338.00
      -53876.00      -53260.00      -52599.00      -52093.00      -51498.00
      -50974.00      -50490.00      -49918.00      -49374.00      -48774.00
      -48194.00      -47662.00      -47023.00      -46377.00      -45750.00
      -45051.00      -44324.00      -43668.00      -43046.00      -42285.00
      -41500.00      -40850.00      -40187.00      -39498.00      -38820.00
      -38110.00      -37474.00      -36831.00      -36155.00      -35496.00
      -34654.00      -33746.00      -32877.00      -31923.00      -30962.00
      -29856.00      -28568.00      -27348.00      -26015.00      -24555.00
      -23113.00      -21576.00      -20081.00      -18578.00      -16982.00
      -15474.00      -14004.00      -12588.00      -11205.00      -9851.000
      -8670.000      -7548.000      -6401.000      -5291.000      -4287.000
      -3443.000      -2696.000      -1958.000      -1275.000      -708.0000
      -193.0000       173.0000       379.0000       680.0000       973.0000
       1142.000       1246.000       1197.000       1180.000       1194.000
       1154.000       1098.000       1001.000       921.0000       806.0000
       819.0000       969.0000       972.0000       1052.000       1335.000
       1574.000       1863.000       2147.000       2316.000       2475.000
       2584.000       2772.000       3052.000       3216.000       3340.000
       3439.000       3480.000       3531.000       3622.000       3870.000
       4011.000       4167.000       4564.000       4811.000       5020.000
       5261.000       5551.000       5928.000       6202.000       6434.000
       6700.000       7014.000       7273.000       7580.000       7925.000
       8159.000       8452.000       8720.000       8943.000       9097.000
       9130.000       9156.000       9211.000       9340.000       9365.000
       9355.000       9316.000       9157.000       9073.000       8973.000
       8853.000       8665.000       8317.000       7967.000       7585.000
       7230.000       6815.000       6261.000       5781.000       5209.000
       4598.000       3994.000       3174.000       2390.000       1624.000
       731.0000      -96.00000      -1053.000      -2122.000      -3124.000
      -4214.000      -5339.000      -6518.000      -7741.000      -9041.000
      -10428.00      -11802.00      -13258.00      -14752.00      -16337.00
      -17952.00      -19499.00      -21135.00      -22909.00      -24645.00
      -26339.00      -28140.00      -29868.00      -31583.00      -33333.00
      -35046.00      -36795.00      -38495.00      -40113.00      -41681.00
      -43248.00      -44845.00      -46436.00      -47974.00      -49487.00
      -50968.00      -52460.00      -53945.00      -55357.00      -56840.00
      -58288.00      -59676.00      -61100.00      -62428.00      -63755.00
      -64985.00      -66122.00      -67361.00      -68435.00      -69427.00
      -70396.00      -71215.00      -71990.00      -72660.00      -73376.00
      -74101.00      -74626.00      -75165.00      -75631.00      -75987.00
      -76363.00      -76628.00      -76881.00      -77127.00      -77260.00
      -77305.00      -77279.00      -77255.00      -77155.00      -77008.00
      -76906.00      -76619.00      -76191.00      -75724.00      -75219.00
      -74669.00      -73952.00      -73188.00      -72360.00      -71473.00
      -70560.00      -69534.00      -68507.00      -67496.00      -66547.00
      -65663.00      -64752.00      -63862.00      -62906.00      -62019.00
      -61285.00      -60505.00      -59747.00      -59049.00      -58321.00
      -57537.00      -56737.00      -55958.00      -55225.00      -54503.00
      -53728.00      -52916.00      -52060.00      -51259.00      -50424.00
      -49488.00      -48660.00      -47764.00      -46745.00      -45822.00
      -44794.00      -43695.00      -42669.00      -41637.00      -40615.00
      -39491.00      -38362.00      -37258.00      -36047.00      -34877.00
      -33770.00      -32646.00      -31523.00      -30415.00      -29283.00
      -28173.00      -27094.00      -26014.00      -25017.00      -24040.00
      -23148.00      -22286.00      -21373.00      -20576.00      -19780.00
      -19056.00      -18346.00      -17539.00      -16814.00      -16084.00
      -15395.00      -14726.00      -14026.00      -13458.00      -12840.00
      -12202.00      -11645.00      -11042.00      -10471.00      -9891.000
      -9395.000      -8920.000      -8284.000      -7718.000      -7116.000
      -6415.000      -5824.000      -5253.000      -4706.000      -4252.000
      -3737.000      -3225.000      -2818.000      -2455.000      -2187.000
      -1923.000      -1608.000      -1363.000      -1135.000      -896.0000
      -708.0000      -546.0000      -365.0000      -252.0000      -233.0000
      -87.00000       122.0000       206.0000       285.0000       464.0000
       605.0000       676.0000       768.0000       885.0000       1044.000
       1154.000       1230.000       1302.000       1424.000       1644.000
       1834.000       2026.000       2249.000       2453.000       2637.000
       2780.000       2839.000       2904.000       3018.000       3024.000
       2916.000       2808.000       2503.000       2267.000       2164.000
       1769.000       1397.000       973.0000       458.0000       33.00000
      -540.0000      -1107.000      -1684.000      -2397.000      -3080.000
      -3805.000      -4536.000      -5272.000      -6043.000      -6629.000
      -7216.000      -7776.000      -8277.000      -8882.000      -9386.000
      -9861.000      -10372.00      -10817.00      -11276.00      -11780.00
      -12281.00      -12798.00      -13315.00      -13910.00      -14516.00
      -15059.00      -15710.00      -16329.00      -16980.00      -17690.00
      -18354.00      -19100.00      -19705.00      -20266.00      -20949.00
      -21519.00      -22058.00      -22646.00      -23064.00      -23423.00
      -23831.00      -24237.00      -24678.00      -25000.00      -25401.00
      -25856.00      -26263.00      -26672.00      -27065.00      -27638.00
      -28081.00      -28540.00      -29101.00      -29474.00      -29862.00
      -30194.00      -30527.00      -30899.00      -31176.00      -31479.00
      -31721.00      -31921.00      -32249.00      -32450.00      -32623.00
      -32996.00      -33163.00      -33395.00      -33805.00      -33985.00
      -34313.00      -34615.00      -34849.00      -35142.00      -35305.00
      -35572.00      -35545.00      -35488.00      -35597.00      -35515.00
      -35661.00      -35659.00      -35578.00      -35670.00      -35568.00
      -35628.00      -35754.00      -35875.00      -35993.00      -36087.00
      -36379.00      -36574.00      -36707.00      -36928.00      -37232.00
      -37456.00      -37794.00      -38135.00      -38273.00      -38691.00
      -38798.00      -38942.00      -39359.00      -39418.00      -39568.00
      -39605.00      -39540.00      -39629.00      -39546.00      -39408.00
      -39330.00      -39161.00      -39104.00      -39045.00      -38828.00
      -38839.00      -38887.00      -38848.00      -38888.00      -38877.00
      -38867.00      -38912.00      -39100.00      -39303.00      -39460.00
      -39749.00      -39866.00      -39944.00      -40217.00      -40350.00
      -40384.00      -40488.00      -40523.00      -40536.00      -40619.00
      -40650.00      -40712.00      -40854.00      -40973.00      -41104.00
      -41303.00      -41481.00      -41608.00      -41793.00      -42023.00
      -42277.00      -42594.00      -42957.00      -43203.00      -43458.00
      -43746.00      -44003.00      -44415.00      -44548.00      -44628.00
      -44981.00      -45063.00      -45109.00      -45156.00      -45039.00
      -45012.00      -44910.00      -44659.00      -44477.00      -44210.00
      -43833.00      -43649.00      -43460.00      -43212.00      -43015.00
      -42720.00      -42501.00      -42297.00      -42039.00      -41859.00
      -41658.00      -41406.00      -41017.00      -40633.00      -40204.00
      -39593.00      -39043.00      -38447.00      -37808.00      -37150.00
      -36392.00      -35612.00      -34743.00      -33915.00      -33218.00
      -32481.00      -31715.00      -30971.00      -30210.00      -29516.00
      -28869.00      -28263.00      -27727.00      -27162.00      -26600.00
      -26071.00      -25581.00      -25099.00      -24569.00      -24057.00
      -23568.00      -23030.00      -22512.00      -21983.00      -21404.00
      -20946.00      -20501.00      -19978.00      -19529.00      -19053.00
      -18583.00      -18282.00      -18053.00      -17815.00      -17566.00
