     0.02500000      -12345.00      -12345.00   3.262830e+10      -12345.00
   0.0005380000       659.9755      -556.0195      -12345.00      -12345.00
      -12345.00      -12345.00      -12345.00      -12345.00      -12345.00
      -12345.00      -12345.00      -12345.00      -12345.00      -12345.00
      -12345.00      -12345.00      -12345.00      -12345.00      -12345.00
      -12345.00      -12345.00      -12345.00      -12345.00      -12345.00
      -12345.00       71.63410       128.8667       40.00000       0.000000
       9.831100       126.5297      -12345.00       24.71000      -12345.00
      -12345.00      -12345.00      -12345.00      -12345.00      -12345.00
      -12345.00      -12345.00      -12345.00      -12345.00      -12345.00
       6868.101      0.8406327       182.6143       61.76905      -12345.00
      -12345.00      -12345.00       90.00000       90.00000      -12345.00
      -12345.00      -12345.00      -12345.00      -12345.00      -12345.00
      -12345.00      -12345.00      -12345.00      -12345.00      -12345.00
      2019        39        12         4        24
        19         6    -12345    -12345     26400
    -12345    -12345    -12345    -12345    -12345
         1    -12345    -12345    -12345    -12345
    -12345    -12345    -12345    -12345    -12345
    -12345    -12345    -12345    -12345    -12345
    -12345    -12345    -12345    -12345    -12345
         1    -12345    -12345    -12345    -12345
TIXI    Mindanao, Philip
10      -12345  -12345  
-12345  -12345  -12345  
-12345  -12345  -12345  
-12345  -12345  -12345  
-12345  -12345  -12345  
-12345  -12345  BH2     
IU      -12345  Streckei
[...]
      -4678.000       6616.000       10765.00      -2787.000       2064.000
       9560.000       1067.000       4364.000       5995.000       855.0000
       6788.000       8477.000      -1273.000      -1995.000       13206.00
       5921.000      -5280.000       7149.000       7951.000      -901.0000
       6175.000       3012.000       2850.000       7568.000       3061.000
      -3043.000       2310.000       10431.00      -2003.000      -1972.000
       11445.00       4239.000      -1280.000       4559.000      -1450.000
       1432.000       6712.000       3228.000      -2994.000       4222.000
       9960.000      -4262.000      -2913.000       7960.000      -1259.000
      -1239.000       2994.000      -2162.000       2740.000       4779.000
       193.0000      -7593.000       2595.000       6666.000      -7372.000
      -685.0000       5319.000      -5706.000      -817.0000      -1477.000
      -2707.000       2853.000      -910.0000      -5307.000      -7328.000
       4732.000      -993.0000      -11062.00       3319.000       799.0000
      -9243.000       329.0000      -4440.000      -5910.000       1099.000
      -2066.000      -8020.000      -3136.000       5230.000      -6351.000
      -9024.000       3345.000      -2669.000      -4627.000       2148.000
      -4611.000       46.00000       2736.000      -1675.000      -6202.000
       2997.000       9781.000      -5399.000      -2821.000       7738.000
      -429.0000       2289.000       5029.000       1788.000       8729.000
       5785.000       308.0000      -1645.000       9798.000       10905.00
      -3258.000       5550.000       12602.00       1463.000       8736.000
       6182.000       881.0000       11575.00       7747.000       1351.000
       4738.000       15593.00       9253.000      -1133.000       11342.00
       10057.00       450.0000       12878.00       5810.000       4369.000
       14269.00       8494.000       2061.000       2882.000       11956.00
       5531.000       1181.000       15722.00       8722.000       1124.000
       10996.00       3148.000       2453.000       8771.000       7308.000
       442.0000       8558.000       14980.00      -1013.000       709.0000
       9469.000      -31.00000       3313.000       6776.000       1456.000
       6939.000       6678.000       1750.000      -4118.000       7192.000
       8339.000      -7827.000       4021.000       9994.000      -4186.000
       7094.000       4775.000      -5488.000       7086.000       6492.000
      -4627.000      -3918.000       9679.000       5612.000      -5460.000
       5909.000       5760.000      -6373.000       3301.000      -21.00000
      -841.0000       6438.000       2169.000      -3647.000      -1293.000
       8461.000      -557.0000      -5143.000       5539.000      -55.00000
      -380.0000       5825.000      -1772.000       2963.000       5918.000
       84.00000      -5656.000       4546.000       12300.00      -4183.000
      -2413.000       11104.00       48.00000       907.0000       4442.000
      -2332.000       8291.000       7852.000      -320.0000       263.0000
       9227.000       7673.000      -1406.000       6465.000       8936.000
      -695.0000       7811.000       5540.000       2359.000       11637.00
       6113.000      -1773.000       1308.000       13218.00       5407.000
      -1424.000       11220.00       4887.000      -1721.000       9939.000
       3436.000       1213.000       7096.000       5583.000      -1623.000
       1995.000       11204.00      -373.0000      -1487.000       10981.00
       3528.000      -24.00000       6153.000      -18.00000       3456.000
       3862.000      -1424.000      -2966.000       4968.000       8627.000
      -3848.000      -1871.000       5252.000      -5433.000      -23.00000
       3148.000      -4934.000       4520.000       5353.000      -4038.000
      -5679.000       9089.000       4736.000      -8077.000       6861.000
       8534.000      -3079.000       7626.000       5953.000       545.0000
       8783.000       10706.00       3798.000       3320.000       17818.00
       11488.00       2773.000       17950.00       15067.00       6893.000
       19976.00       17286.00       17772.00       23886.00       20885.00
       16756.00       22939.00       31143.00       21273.00       21565.00
       35430.00       28597.00       26527.00       35251.00       28559.00
       32893.00       35165.00       31439.00       30471.00       38846.00
       43612.00       31020.00       35440.00       43016.00       32268.00
       39539.00       40843.00       34203.00       44383.00       43289.00
       34658.00       35353.00       48697.00       42520.00       29129.00
       40839.00       45413.00       35569.00       42750.00       40009.00
       35851.00       41799.00       38133.00       33267.00       34097.00
       44401.00       39055.00       29404.00       41743.00       39274.00
       28114.00       37002.00       33291.00       34074.00       39073.00
       34683.00       27814.00       33028.00       41307.00       24963.00
       24797.00       39614.00       29234.00       27640.00       33695.00
       24241.00       28383.00       31266.00       24107.00       21306.00
       30969.00       30302.00       16199.00       20571.00       27680.00
       15738.00       17843.00       20964.00       14109.00       19393.00
       19651.00       10493.00       4667.000       17335.00       15586.00
       1034.000       10748.00       13491.00       37.00000       6158.000
       4185.000      -2601.000       2271.000       1914.000      -6870.000
      -7422.000       4905.000      -4536.000      -15211.00      -4964.000
      -8094.000      -15867.00      -9604.000      -15056.00      -14236.00
      -10486.00      -16035.00      -22953.00      -19313.00      -14523.00
      -26696.00      -26249.00      -15452.00      -26247.00      -27286.00
      -20693.00      -32387.00      -28508.00      -23192.00      -28823.00
      -36110.00      -28664.00      -21729.00      -35032.00      -32982.00
      -23990.00      -36322.00      -32208.00      -27924.00      -33835.00
      -27371.00      -28972.00      -34732.00      -35951.00      -24576.00
      -27744.00      -38914.00      -27474.00      -26393.00      -36138.00
      -28800.00      -33837.00      -35693.00      -26556.00      -29844.00
      -39122.00      -35417.00      -22421.00      -34066.00      -41102.00
      -28265.00      -33017.00      -40047.00      -31909.00      -34590.00
      -33765.00      -30625.00      -35098.00      -43077.00      -36894.00
      -28165.00      -41198.00      -41651.00      -28719.00      -37632.00
      -39492.00      -32898.00      -39898.00      -35482.00      -33257.00
      -36048.00      -38911.00      -30949.00      -27450.00      -40541.00
      -35413.00      -27007.00      -37850.00      -32183.00      -27516.00
      -33177.00      -27648.00      -25648.00      -32167.00      -36458.00
      -20281.00      -22112.00      -34115.00      -20416.00      -19376.00
      -28047.00      -19923.00      -21882.00      -23812.00      -21614.00
      -19459.00      -23285.00      -23754.00      -9997.000      -19751.00
      -28026.00      -16732.00      -22166.00      -24729.00      -14613.00
      -22493.00      -20506.00      -15732.00      -22736.00      -28278.00
      -21718.00      -13393.00      -23612.00      -25247.00      -13258.00
      -22528.00      -23789.00      -15721.00      -25344.00      -18267.00
      -13573.00      -21887.00      -21818.00      -9555.000      -11013.00
      -23335.00      -17048.00      -10817.00      -19616.00      -15280.00
      -12561.00      -17038.00      -11077.00      -9318.000      -15572.00
      -18794.00      -7346.000      -11080.00      -19578.00      -7036.000
      -6075.000      -13895.00      -4096.000      -7127.000      -10191.00
      -2754.000      -2763.000      -8577.000      -5367.000       6805.000
      -2582.000      -7655.000       6379.000       3100.000      -1814.000
       4626.000      -813.0000       4323.000       8322.000       3810.000
      -1549.000       2347.000       10139.00      -870.0000       184.0000
       12128.00       1910.000       991.0000       6271.000      -588.0000
       4626.000       7761.000       6069.000       2333.000       10551.00
       12962.00       2000.000       8091.000       14820.00       7790.000
       12940.00       13777.00       11599.00       21301.00       18947.00
       11930.00       13633.00       25855.00       23777.00       12086.00
       19356.00       23907.00       15126.00       22196.00       18345.00
       14301.00       23901.00       19243.00       10738.00       13635.00
       23232.00       13319.00       6229.000       21745.00       15747.00
       6460.000       16599.00       11658.00       11913.00       16186.00
       12913.00       6308.000       14459.00       22636.00       8643.000
       9973.000       20046.00       11249.00       13195.00       17509.00
       10852.00       16300.00       17711.00       12870.00       5071.000
       14599.00       20111.00       2744.000       7927.000       18240.00
       3953.000       7139.000       9404.000       2484.000       8933.000
       7189.000      -355.0000      -1977.000       8081.000       3208.000
      -8331.000       472.0000       230.0000      -7387.000      -1394.000
      -8954.000      -8386.000      -2972.000      -9166.000      -16123.00
      -13349.00      -2236.000      -16890.00      -22216.00      -6766.000
      -16895.00      -23144.00      -13699.00      -21333.00      -20497.00
      -17911.00      -23034.00      -28083.00      -22298.00      -17518.00
      -31896.00      -30676.00      -18420.00      -30597.00      -31357.00
      -23569.00      -33566.00      -29509.00      -26527.00      -34331.00
      -36571.00      -25974.00      -28082.00      -39751.00      -32953.00
      -31319.00      -40802.00      -34758.00      -36794.00      -40892.00
      -34784.00      -36243.00      -43666.00      -45843.00      -33563.00
      -40493.00      -51434.00      -40557.00      -40241.00      -49645.00
      -43351.00      -46271.00      -48433.00      -40615.00      -41952.00
      -51714.00      -47799.00      -36079.00      -48258.00      -52647.00
      -38614.00      -41886.00      -47096.00      -41159.00      -46240.00
      -45314.00      -40540.00      -41700.00      -48988.00      -42780.00
      -34383.00      -45726.00      -43088.00      -33993.00      -43935.00
      -42544.00      -38678.00      -42166.00      -34856.00      -35175.00
      -39362.00      -42289.00      -32751.00      -31866.00      -42418.00
      -34025.00      -28102.00      -35197.00      -30275.00      -31963.00
      -34378.00      -25750.00      -26614.00      -32388.00      -30520.00
      -18834.00      -24369.00      -32998.00      -22894.00      -23084.00
      -30736.00      -21375.00      -23638.00      -25538.00      -18767.00
      -19898.00      -27975.00      -24729.00      -13490.00      -24037.00
      -25834.00      -13375.00      -20040.00      -20572.00      -9996.000
      -19417.00      -18401.00      -10279.00      -16384.00      -22797.00
      -9594.000      -1706.000      -14437.00      -11857.00      -1959.000
      -10314.00      -8310.000      -3252.000      -8516.000       226.0000
       3060.000      -2748.000      -3845.000       5757.000       5472.000
      -5974.000       3254.000       13764.00       3484.000       10865.00
       12060.00       4857.000       17026.00       17351.00       9928.000
       13018.00       26548.00       23666.00       14610.00       26596.00
       28850.00       21654.00       30581.00       28173.00       30306.00
       38393.00       36545.00       30859.00       35409.00       46337.00
       37304.00       35724.00       48779.00       43796.00       39944.00
       48463.00       41067.00       42059.00       49003.00       44758.00
       37530.00       47744.00       55684.00       40066.00       41518.00
       51948.00       41481.00       44022.00       48603.00       40879.00
       47224.00       50457.00       44535.00       40571.00       52267.00
       51023.00       37096.00       46318.00       54759.00       45928.00
       50810.00       53202.00       49924.00       54090.00       55405.00
       51693.00       49825.00       66138.00       63972.00       52337.00
       65938.00       67399.00       61035.00       71571.00       68750.00
       67445.00       75502.00       78903.00       71959.00       77399.00
       91560.00       80222.00       79431.00       94111.00       88623.00
       86179.00       94402.00       90478.00       96525.00       99229.00
       94761.00       91507.00       98056.00       106870.0       93660.00
       92201.00       103749.0       92311.00       95503.00       101859.0
       91483.00       98035.00       99225.00       91583.00       84950.00
       94014.00       95656.00       81020.00       86122.00       90087.00
       79905.00       83745.00       80943.00       73122.00       76484.00
       76456.00       65434.00       61689.00       75772.00       66565.00
       52894.00       62985.00       61005.00       50158.00       56224.00
       50890.00       48971.00       52266.00       44584.00       36877.00
       39392.00       47247.00       35308.00       30347.00       41100.00
       31939.00       27550.00       34343.00       24668.00       25581.00
       29902.00       22752.00       12329.00       21126.00       27479.00
       8842.000       10060.00       22046.00       8068.000       6198.000
       11971.00       4101.000       5814.000       8013.000       401.0000
      -8184.000       4720.000       2396.000      -15562.00      -5777.000
      -1902.000      -17008.00      -12003.00      -12707.00      -19180.00
      -13051.00      -16311.00      -27510.00      -28992.00      -16715.00
      -23184.00      -33504.00      -23033.00      -26610.00      -36181.00
      -29571.00      -36988.00      -36897.00      -32493.00      -37599.00
      -43014.00      -39612.00      -31063.00      -45382.00      -50064.00
      -38059.00      -47357.00      -48086.00      -40882.00      -52496.00
      -49077.00      -45251.00      -53548.00      -58459.00      -48491.00
      -45827.00      -59270.00      -57665.00      -51002.00      -58566.00
      -54992.00      -53333.00      -61142.00      -53450.00      -51596.00
      -59064.00      -59917.00      -46378.00      -50984.00      -65118.00
      -52221.00      -47809.00      -57705.00      -48702.00      -50305.00
      -52298.00      -45165.00      -46692.00      -52153.00      -53296.00
      -39049.00      -45473.00      -53722.00      -37145.00      -40178.00
      -46289.00      -37736.00      -44648.00      -41195.00      -34388.00
      -37690.00      -42802.00      -35327.00      -25700.00      -37974.00
      -38358.00      -26733.00      -32592.00      -34099.00      -26574.00
      -27801.00      -25205.00      -23903.00      -26118.00      -32706.00
      -22818.00      -13662.00      -27818.00      -25307.00      -14274.00
      -27131.00      -25513.00      -18835.00      -26577.00      -23233.00
      -20807.00      -26283.00      -31714.00      -19903.00      -21038.00
      -35625.00      -27758.00      -26938.00      -37154.00      -27217.00
      -31978.00      -39399.00      -29867.00      -32232.00      -44335.00
      -43188.00      -32025.00      -42844.00      -49898.00      -37523.00
      -42553.00      -51054.00      -43615.00      -49190.00      -50360.00
      -45837.00      -50638.00      -57944.00      -48711.00      -41307.00
      -55836.00      -56172.00      -46595.00      -55751.00      -56448.00
      -47874.00      -55603.00      -51046.00      -46234.00      -52962.00
      -55850.00      -46211.00      -42931.00      -55742.00      -50667.00
      -38154.00      -46336.00      -40879.00      -37797.00      -44336.00
      -36602.00      -32934.00      -34015.00      -36377.00      -23003.00
      -23164.00      -35812.00      -20581.00      -14840.00      -23817.00
      -12227.00      -13654.00      -14091.00      -1965.000      -3272.000
      -9664.000      -5103.000       10934.00       7586.000       1207.000
       15452.00       12673.00       5984.000       18570.00       12719.00
       16260.00       27120.00       22308.00       16490.00       23905.00
       33137.00       19058.00       16263.00       32121.00       23519.00
       21331.00       30272.00       22063.00       26094.00       29416.00
       20995.00       15280.00       27270.00       27959.00       12515.00
       21230.00       28997.00       15574.00       19086.00       22571.00
       17340.00       19598.00       17979.00       14346.00       11547.00
       23762.00       21899.00       5682.000       15125.00       19411.00
       8169.000       15325.00       12486.00       10491.00       18689.00
       14304.00       5446.000       7396.000       17760.00       10308.00
       4973.000       17307.00       11531.00       5422.000       14981.00
       7336.000       7886.000       11549.00       8404.000       3219.000
       8821.000       18205.00       4353.000       3368.000       14028.00
       5803.000       6970.000       10092.00       4461.000       11364.00
       12192.00       6872.000       6092.000       16669.00       13757.00
       1694.000       10994.00       15819.00       5989.000       13306.00
       15263.00       8995.000       16542.00       18811.00       11393.00
       8079.000       19147.00       15522.00       6894.000       19919.00
       19791.00       9876.000       17661.00       13659.00       12951.00
       20025.00       14342.00       5407.000       13072.00       23980.00
       13295.00       10039.00       18590.00       12103.00       6930.000
       13116.00       9215.000       11226.00       15268.00       12513.00
       2730.000       6131.000       15117.00       1651.000       318.0000
       10653.00       1088.000       1322.000       5442.000      -1248.000
       2302.000       2427.000      -5280.000      -9404.000       2101.000
       1591.000      -9838.000      -2634.000      -727.0000      -13056.00
