     0.02500000      -12345.00      -12345.00   3.262830e+10      -12345.00
   0.0005390000       659.9755      -811.0195      -12345.00      -12345.00
      -12345.00      -12345.00      -12345.00      -12345.00      -12345.00
      -12345.00      -12345.00      -12345.00      -12345.00      -12345.00
      -12345.00      -12345.00      -12345.00      -12345.00      -12345.00
      -12345.00      -12345.00      -12345.00      -12345.00      -12345.00
      -12345.00      -19.20220       17.58380       1260.000       0.000000
       9.831100       126.5297      -12345.00       24.71000      -12345.00
      -12345.00      -12345.00      -12345.00      -12345.00      -12345.00
      -12345.00      -12345.00      -12345.00      -12345.00      -12345.00
       12338.53       253.1835       86.58014       110.9680      -12345.00
      -12345.00      -12345.00       90.00000       90.00000      -12345.00
      -12345.00      -12345.00      -12345.00      -12345.00      -12345.00
      -12345.00      -12345.00      -12345.00      -12345.00      -12345.00
      2019        39        12         8        39
        19         6    -12345    -12345     26400
    -12345    -12345    -12345    -12345    -12345
         1    -12345    -12345    -12345    -12345
    -12345    -12345    -12345    -12345    -12345
    -12345    -12345    -12345    -12345    -12345
    -12345    -12345    -12345    -12345    -12345
         1    -12345    -12345    -12345    -12345
TSUM    Mindanao, Philip
10      -12345  -12345  
-12345  -12345  -12345  
-12345  -12345  -12345  
-12345  -12345  -12345  
-12345  -12345  -12345  
-12345  -12345  BH2     
IU      -12345  Streckei
[...]
       12536.00       8170.000       12318.00       11517.00       8941.000
       13694.00       10549.00       10767.00       14089.00       9512.000
       12171.00       13759.00       9238.000       13754.00       13056.00
       10074.00       15156.00       11218.00       11638.00       15664.00
       9772.000       13844.00       14927.00       9644.000       15384.00
       12985.00       10637.00       15849.00       11102.00       12308.00
       15240.00       10464.00       13793.00       13236.00       10914.00
       14778.00       10857.00       11442.00       13921.00       9336.000
       13000.00       12562.00       8523.000       13476.00       10429.00
       8577.000       13117.00       8283.000       9455.000       12130.00
       6949.000       10172.00       9994.000       6495.000       10579.00
       8079.000       6975.000       9328.000       5678.000       7384.000
       7709.000       4639.000       7656.000       5973.000       4293.000
       7245.000       4294.000       4575.000       6310.000       2829.000
       4852.000       4628.000       2477.000       5342.000       2509.000
       3116.000       4710.000       609.0000       4440.000       3146.000
      -122.0000       5218.000       1167.000       93.00000       4862.000
      -509.0000       1631.000       3973.000      -1701.000       2695.000
       2081.000      -1745.000       3020.000       119.0000      -524.0000
       3139.000      -1183.000       655.0000       2298.000      -1904.000
       1421.000       728.0000      -1317.000       1996.000      -883.0000
       44.00000       1938.000      -1220.000       1806.000       996.0000
      -1040.000       2615.000      -517.0000       28.00000       3312.000
      -1413.000       1940.000       3852.000      -1391.000       3586.000
       3225.000      -625.0000       4507.000       2136.000       919.0000
       4623.000       1446.000       2722.000       4625.000       2030.000
       4096.000       3874.000       3269.000       4694.000       2787.000
       4608.000       4336.000       2942.000       6195.000       3570.000
       4016.000       6765.000       2985.000       5872.000       6617.000
       2845.000       7502.000       5681.000       3455.000       8644.000
       4515.000       5091.000       8806.000       3514.000       7107.000
       7977.000       3332.000       8696.000       6682.000       4063.000
       9427.000       5504.000       5815.000       9335.000       4558.000
       7526.000       8226.000       4458.000       8486.000       6852.000
       5598.000       8616.000       5925.000       7350.000       8048.000
       5600.000       8318.000       6523.000       5858.000       8557.000
       5107.000       7107.000       8509.000       4583.000       8481.000
       7224.000       4806.000       9362.000       5679.000       5862.000
       9040.000       4496.000       7052.000       7983.000       4570.000
       8012.000       6609.000       5288.000       8474.000       5076.000
       6302.000       8238.000       4137.000       7858.000       7304.000
       4160.000       8709.000       5880.000       5097.000       8493.000
       4382.000       6546.000       7843.000       4200.000       7920.000
       6249.000       4899.000       8401.000       4662.000       6365.000
       7944.000       3894.000       7985.000       6806.000       4158.000
       8881.000       5364.000       4952.000       8897.000       4587.000
       6242.000       8107.000       4286.000       7564.000       7247.000
       5168.000       8609.000       5935.000       5924.000       8180.000
       4912.000       7228.000       7447.000       5082.000       8492.000
       6130.000       5632.000       9104.000       4920.000       6764.000
       8688.000       4226.000       8044.000       7740.000       4811.000
       8963.000       6544.000       6002.000       8967.000       5549.000
       7409.000       8331.000       5448.000       8813.000       7418.000
       6071.000       9235.000       6052.000       7378.000       9038.000
       5262.000       8854.000       7940.000       5352.000       9828.000
       6452.000       6520.000       9987.000       4973.000       7768.000
       9061.000       4688.000       9357.000       7651.000       4939.000
       9548.000       5919.000       6050.000       9079.000       4987.000
       7532.000       8106.000       4890.000       8866.000       7054.000
       5676.000       9293.000       5455.000       6764.000       8604.000
       4576.000       8317.000       7458.000       4710.000       8885.000
       6002.000       6192.000       8788.000       4609.000       7472.000
       7753.000       4382.000       8786.000       6540.000       5400.000
       9536.000       5471.000       7054.000       9397.000       5215.000
       8792.000       8539.000       5699.000       10055.00       7383.000
       6792.000       10418.00       6644.000       8398.000       9846.000
       6835.000       10219.00       9027.000       7610.000       11106.00
       8071.000       8970.000       11212.00       7542.000       10295.00
       10362.00       7816.000       11696.00       9475.000       8849.000
       12035.00       8311.000       10067.00       11211.00       7298.000
       10966.00       10071.00       7772.000       11936.00       8986.000
       8849.000       11631.00       7971.000       10211.00       10379.00
       7588.000       11286.00       8850.000       8219.000       11728.00
       7956.000       9969.000       11440.00       7311.000       11203.00
       9923.000       7571.000       12356.00       8448.000       9048.000
       12449.00       7428.000       11121.00       11592.00       7228.000
       12151.00       9581.000       7856.000       12178.00       7840.000
       9277.000       11823.00       7116.000       10422.00       10344.00
       6728.000       10993.00       8265.000       6897.000       10544.00
       6355.000       7996.000       9359.000       5327.000       9185.000
       7623.000       5261.000       9117.000       5325.000       5932.000
       8363.000       3797.000       7226.000       6979.000       3273.000
       7804.000       4581.000       4152.000       7751.000       2488.000
       5204.000       6479.000       1566.000       6500.000       4841.000
       1822.000       7101.000       2625.000       2556.000       6462.000
       973.0000       4001.000       5287.000       962.0000       5594.000
       3738.000       1920.000       6066.000       2418.000       3595.000
       5683.000       1871.000       5148.000       4480.000       2526.000
       6557.000       3506.000       4227.000       6881.000       2827.000
       6221.000       6511.000       3429.000       8221.000       5624.000
       4918.000       9229.000       5055.000       7172.000       9090.000
       5216.000       9383.000       8367.000       6462.000       10870.00
       7654.000       8776.000       11599.00       7196.000       10819.00
       11209.00       7763.000       12897.00       10136.00       8451.000
       13723.00       9702.000       10460.00       13289.00       9055.000
       12516.00       12658.00       9643.000       13364.00       10775.00
       10777.00       14216.00       10231.00       11755.00       12967.00
       9488.000       13066.00       11925.00       9672.000       13113.00
       10125.00       10828.00       12835.00       8950.000       11712.00
       11455.00       9028.000       12888.00       9801.000       9570.000
       13067.00       8714.000       11296.00       12549.00       8250.000
       12764.00       11294.00       9107.000       14007.00       9871.000
       10238.00       14055.00       9149.000       12326.00       13425.00
       9022.000       13828.00       12123.00       10228.00       14435.00
       10284.00       11871.00       14374.00       10073.00       14080.00
       13133.00       10330.00       15379.00       12153.00       11820.00
       15542.00       11550.00       13619.00       14766.00       11505.00
       15075.00       13840.00       12348.00       15874.00       12861.00
       13618.00       15874.00       12687.00       15603.00       15377.00
       12866.00       16228.00       14016.00       13953.00       16632.00
       13159.00       15425.00       16149.00       13218.00       17100.00
       14977.00       13877.00       18013.00       13649.00       15050.00
       17817.00       12141.00       16183.00       17044.00       11977.00
       17514.00       15551.00       12581.00       18115.00       14056.00
       13834.00       17533.00       13142.00       15142.00       16380.00
       13374.00       15817.00       14724.00       14065.00       15822.00
       13364.00       14771.00       14649.00       12612.00       15962.00
       13491.00       12587.00       16076.00       12007.00       13427.00
       15414.00       10882.00       14330.00       13774.00       10465.00
       15006.00       11633.00       10581.00       14931.00       10109.00
       11569.00       13828.00       9272.000       12675.00       12172.00
       9193.000       13052.00       10314.00       9766.000       12662.00
       8798.000       10303.00       11298.00       8378.000       11425.00
       9808.000       8835.000       12009.00       8507.000       10255.00
       11904.00       7937.000       11742.00       10763.00       8513.000
       13452.00       9969.000       9906.000       13559.00       9212.000
       11971.00       13372.00       9560.000       13740.00       12671.00
       10842.00       14765.00       11858.00       12545.00       15207.00
       12192.00       14616.00       14945.00       13213.00       16480.00
       14714.00       14970.00       17370.00       14714.00       17394.00
       17786.00       15200.00       19279.00       17539.00       16901.00
       21224.00       17423.00       18531.00       21223.00       17123.00
       20544.00       21136.00       17591.00       21662.00       20070.00
       18745.00       22366.00       19426.00       20619.00       22474.00
       19291.00       22190.00       21449.00       19401.00       23226.00
       20453.00       20545.00       23377.00       19390.00       21999.00
       23008.00       19262.00       22625.00       20893.00       19359.00
       22916.00       19481.00       20075.00       21970.00       18562.00
       21533.00       21131.00       18499.00       21599.00       19159.00
       19052.00       21306.00       17361.00       19152.00       19758.00
       16210.00       19897.00       18220.00       15866.00       19459.00
       15874.00       16236.00       18320.00       13575.00       16292.00
       16364.00       12585.00       16554.00       13871.00       12320.00
       16300.00       11757.00       12886.00       14655.00       9653.000
       13511.00       12661.00       9204.000       13536.00       9991.000
       9517.000       13088.00       8275.000       10196.00       11413.00
       7110.000       10674.00       9575.000       7171.000       10785.00
       8033.000       8123.000       10311.00       6901.000       9005.000
       9095.000       6578.000       9380.000       7601.000       7325.000
       9806.000       6624.000       8483.000       9245.000       6171.000
       9637.000       8023.000       6454.000       9858.000       6519.000
       7573.000       9615.000       5836.000       9279.000       8956.000
       6223.000       10382.00       7564.000       7200.000       10882.00
       6722.000       8962.000       10670.00       6590.000       10785.00
       10083.00       7585.000       11944.00       9406.000       9703.000
       12715.00       9095.000       11846.00       12333.00       9216.000
       13460.00       11823.00       10609.00       14509.00       11495.00
       12762.00       15067.00       11730.00       14957.00       14579.00
       12029.00       16336.00       13747.00       13429.00       17270.00
       13382.00       15476.00       17167.00       13910.00       17744.00
       16507.00       15033.00       18914.00       15893.00       17123.00
       19376.00       16056.00       19779.00       19492.00       16596.00
       21426.00       19069.00       18405.00       22670.00       18375.00
       20446.00       22882.00       18829.00       23015.00       22785.00
       20211.00       24580.00       22279.00       22233.00       25172.00
       21792.00       24064.00       24863.00       22417.00       26061.00
       24139.00       23614.00       27116.00       23565.00       25570.00
       26941.00       22943.00       26907.00       25876.00       23511.00
       28317.00       24771.00       24710.00       28603.00       23991.00
       26206.00       27279.00       23107.00       27083.00       25949.00
       23276.00       27109.00       24403.00       24099.00       26878.00
       23284.00       24685.00       25369.00       22410.00       25212.00
       23681.00       22047.00       24781.00       21989.00       22284.00
       23642.00       20462.00       22573.00       21732.00       19193.00
       22306.00       19384.00       19163.00       21628.00       17056.00
       19400.00       19706.00       15280.00       19456.00       17026.00
       14542.00       19036.00       14397.00       14380.00       17472.00
       12325.00       14941.00       15691.00       11034.00       14555.00
       13174.00       10775.00       14296.00       11109.00       10709.00
       13112.00       9567.000       10936.00       10972.00       8601.000
       11066.00       8992.000       8698.000       10498.00       7359.000
       9346.000       9194.000       6413.000       9793.000       7242.000
       6092.000       9777.000       5742.000       6881.000       9184.000
       4502.000       7873.000       7755.000       3930.000       8462.000
       5518.000       4031.000       8793.000       4367.000       5444.000
       7769.000       2916.000       6439.000       6371.000       3060.000
       7297.000       4623.000       3907.000       7442.000       3633.000
       6002.000       6696.000       3170.000       7720.000       5624.000
       4401.000       8834.000       4538.000       6430.000       9088.000
       4452.000       8704.000       8340.000       5219.000       10660.00
       7870.000       7221.000       11469.00       6824.000       9136.000
       11475.00       7008.000       11274.00       10522.00       8009.000
       13045.00       9554.000       9699.000       13486.00       8767.000
       11744.00       12808.00       8407.000       13246.00       11579.00
       9772.000       14208.00       9667.000       11470.00       14300.00
       8976.000       12991.00       12584.00       9166.000       14235.00
       10731.00       10471.00       14568.00       9621.000       12202.00
       13691.00       9462.000       13570.00       12125.00       10235.00
       14370.00       11005.00       11886.00       14200.00       10364.00
       13542.00       13107.00       10716.00       15059.00       11828.00
       12177.00       15588.00       10940.00       14115.00       15054.00
       11111.00       15835.00       13969.00       12469.00       17194.00
       13139.00       14597.00       17478.00       13144.00       17046.00
       16965.00       14357.00       19162.00       16411.00       16528.00
       20251.00       16185.00       19020.00       20440.00       17049.00
       21487.00       19852.00       18694.00       23315.00       19840.00
       21418.00       23500.00       19507.00       23336.00       23010.00
       20793.00       25059.00       22495.00       22781.00       25367.00
       21678.00       24419.00       24514.00       21713.00       25393.00
       22751.00       22380.00       25684.00       21378.00       23333.00
       24585.00       20360.00       23695.00       22339.00       19743.00
       23290.00       19727.00       19592.00       22292.00       17763.00
       19791.00       20224.00       16244.00       19211.00       16872.00
       15238.00       18187.00       13886.00       15119.00       16221.00
       11400.00       15169.00       13726.00       10250.00       14678.00
       10504.00       9937.000       13407.00       7819.000       10181.00
       11108.00       6361.000       10531.00       8287.000       5877.000
       9899.000       5457.000       6045.000       8134.000       3572.000
       6771.000       6133.000       2868.000       6756.000       3929.000
       3210.000       6079.000       2323.000       4275.000       4824.000
       1587.000       4981.000       3022.000       2188.000       5348.000
       1694.000       3703.000       5079.000       1386.000       5095.000
       3832.000       1741.000       6482.000       3244.000       3349.000
       7048.000       2553.000       5228.000       6993.000       2845.000
       7110.000       6068.000       3773.000       8587.000       5252.000
       5708.000       9237.000       5374.000       8224.000       9020.000
       6084.000       9957.000       8368.000       7899.000       11330.00
       7960.000       10007.00       11354.00       7741.000       11823.00
       10825.00       8776.000       13367.00       9978.000       10730.00
       14178.00       9648.000       13085.00       13757.00       9799.000
       14663.00       12649.00       10846.00       15288.00       11395.00
       12590.00       15469.00       11304.00       14861.00       14837.00
       11875.00       16323.00       13429.00       13134.00       16935.00
       12700.00       14872.00       16507.00       12816.00       16761.00
       15679.00       13651.00       17819.00       14485.00       15334.00
       18325.00       13790.00       16960.00       17463.00       13641.00
       18446.00       16263.00       14490.00       19000.00       14828.00
       16227.00       18737.00       13998.00       17853.00       17384.00
       14373.00       18929.00       15795.00       15469.00       19079.00
       14834.00       16607.00       17735.00       14026.00       17757.00
       16354.00       14310.00       18239.00       14978.00       15637.00
