     0.02500000      -12345.00      -12345.00   3.355610e+10      -12345.00
   0.0005380000       659.9755      -161.0195      -12345.00      -12345.00
      -12345.00      -12345.00      -12345.00      -12345.00      -12345.00
      -12345.00      -12345.00      -12345.00      -12345.00      -12345.00
      -12345.00      -12345.00      -12345.00      -12345.00      -12345.00
      -12345.00      -12345.00      -12345.00      -12345.00      -12345.00
      -12345.00       24.97350       121.4971       159.7000      0.3000000
       9.831100       126.5297      -12345.00       24.71000      -12345.00
      -12345.00      -12345.00      -12345.00      -12345.00      -12345.00
      -12345.00      -12345.00      -12345.00      -12345.00      -12345.00
       1757.075       343.0008       161.4906       15.80245      -12345.00
      -12345.00      -12345.00       90.00000       90.00000      -12345.00
      -12345.00      -12345.00      -12345.00      -12345.00      -12345.00
      -12345.00      -12345.00      -12345.00      -12345.00      -12345.00
      2019        39        11        57        49
        19         6    -12345    -12345     26400
    -12345    -12345    -12345    -12345    -12345
         1    -12345    -12345    -12345    -12345
    -12345    -12345    -12345    -12345    -12345
    -12345    -12345    -12345    -12345    -12345
    -12345    -12345    -12345    -12345    -12345
         1    -12345    -12345    -12345    -12345
TATO    Mindanao, Philip
10      -12345  -12345  
-12345  -12345  -12345  
-12345  -12345  -12345  
-12345  -12345  -12345  
-12345  -12345  -12345  
-12345  -12345  BH2     
IU      -12345  Streckei
[...]
       27438.00       29193.00       13406.00       18629.00       29928.00
       6824.000       11389.00       22062.00       1817.000       9044.000
       18975.00       4312.000      -570.0000       11591.00       15219.00
       3561.000       1653.000       7713.000      -1716.000      -1775.000
       6938.000      -9093.000      -12373.00       538.0000       1652.000
       6811.000      -3526.000      -17886.00       1827.000      -3021.000
      -32670.00      -11966.00      -12591.00      -36338.00      -19292.00
      -42913.00      -54738.00      -26625.00      -52659.00      -61106.00
      -44836.00      -63306.00      -68500.00      -66192.00      -78986.00
      -84790.00      -89081.00      -102039.0      -107542.0      -112453.0
      -117387.0      -119976.0      -130286.0      -121494.0      -112769.0
      -117608.0      -126910.0      -132375.0      -138578.0      -154284.0
      -139562.0      -141939.0      -159550.0      -162331.0      -160118.0
      -144598.0      -158986.0      -167042.0      -153122.0      -144746.0
      -160794.0      -179598.0      -165782.0      -162274.0      -168143.0
      -186036.0      -177112.0      -149994.0      -164143.0      -170602.0
      -163846.0      -163438.0      -162532.0      -155774.0      -158851.0
      -160781.0      -149535.0      -164200.0      -168417.0      -153334.0
      -158387.0      -161170.0      -157584.0      -155154.0      -158092.0
      -152660.0      -137150.0      -144267.0      -161101.0      -155350.0
      -133821.0      -150967.0      -157004.0      -127293.0      -154365.0
      -155456.0      -126798.0      -147098.0      -146150.0      -136435.0
      -136726.0      -140770.0      -138703.0      -135282.0      -146113.0
      -123956.0      -125984.0      -153301.0      -132355.0      -121476.0
      -129372.0      -135788.0      -134154.0      -119523.0      -156534.0
      -138723.0      -102554.0      -149900.0      -135081.0      -108696.0
      -116405.0      -131352.0      -112413.0      -98272.00      -141069.0
      -103307.0      -95854.00      -131781.0      -110355.0      -124274.0
      -130758.0      -116087.0      -121398.0      -130949.0      -126071.0
      -126446.0      -151875.0      -139538.0      -127271.0      -144383.0
      -155753.0      -160309.0      -141594.0      -158893.0      -194956.0
      -171099.0      -163646.0      -207961.0      -193215.0      -160959.0
      -204001.0      -206710.0      -179649.0      -198396.0      -204775.0
      -198909.0      -187712.0      -199498.0      -213482.0      -205863.0
      -218605.0      -212518.0      -218074.0      -231844.0      -238016.0
      -234536.0      -205054.0      -244608.0      -246229.0      -194648.0
      -238767.0      -244160.0      -203082.0      -238364.0      -237533.0
      -201446.0      -229887.0      -244630.0      -213735.0      -224434.0
      -257897.0      -227473.0      -231101.0      -270049.0      -249149.0
      -259900.0      -282447.0      -274090.0      -273578.0      -290562.0
      -301998.0      -295201.0      -320054.0      -328475.0      -323511.0
      -346131.0      -344240.0      -335780.0      -357199.0      -366624.0
      -354064.0      -359862.0      -366557.0      -365344.0      -368283.0
      -372015.0      -370244.0      -364574.0      -365423.0      -378632.0
      -383627.0      -373500.0      -384048.0      -393310.0      -398331.0
      -399085.0      -390474.0      -394345.0      -389421.0      -382836.0
      -373842.0      -390691.0      -395503.0      -359529.0      -380987.0
      -379214.0      -350251.0      -374367.0      -353109.0      -320621.0
      -339515.0      -330675.0      -295054.0      -303978.0      -315624.0
      -284565.0      -285570.0      -278180.0      -248846.0      -272694.0
      -242298.0      -216385.0      -264226.0      -224308.0      -191106.0
      -230067.0      -194970.0      -161686.0      -200011.0      -177325.0
      -129807.0      -147793.0      -142802.0      -102495.0      -92889.00
      -103241.0      -84599.00      -63345.00      -66957.00      -46192.00
      -32273.00      -40639.00      -21891.00      -50.00000      -1264.000
       1573.000       30085.00       29042.00       21404.00       56783.00
       55875.00       47646.00       68249.00       73206.00       70236.00
       87450.00       106535.0       88274.00       105690.0       122841.0
       96089.00       108193.0       113711.0       122044.0       125176.0
       101375.0       124030.0       138321.0       121461.0       108932.0
       114090.0       125869.0       113187.0       114334.0       109088.0
       99371.00       109263.0       106331.0       104580.0       96563.00
       99154.00       98860.00       79170.00       85456.00       83512.00
       76595.00       70482.00       59399.00       76495.00       74043.00
       54035.00       64646.00       68225.00       52052.00       58599.00
       70525.00       57711.00       57474.00       80382.00       71740.00
       56539.00       75484.00       71013.00       63847.00       76358.00
       74549.00       85372.00       90669.00       92758.00       100178.0
       87630.00       104161.0       113952.0       94440.00       109415.0
       123165.0       114727.0       111956.0       116620.0       120282.0
       112529.0       107336.0       111852.0       108514.0       104860.0
       100694.0       92300.00       88886.00       81442.00       78842.00
       77209.00       75551.00       75164.00       66592.00       64784.00
       60506.00       59134.00       55778.00       41305.00       48280.00
       44295.00       33134.00       38476.00       32548.00       38033.00
       29695.00       11108.00       14397.00       17770.00       6622.000
      -9375.000       5456.000      -303.0000       1224.000       16460.00
      -12613.00       10791.00       25898.00       7419.000       19871.00
       7344.000       22249.00       33632.00       15891.00       20129.00
       21861.00       39771.00       36500.00       23257.00       41633.00
       54722.00       44473.00       34817.00       57933.00       62942.00
       59566.00       70642.00       71935.00       72049.00       69240.00
       77226.00       84897.00       81699.00       72765.00       86936.00
       95657.00       68198.00       80603.00       97097.00       70444.00
       58934.00       80279.00       90528.00       66250.00       69165.00
       86830.00       57395.00       55928.00       81947.00       63661.00
       59024.00       72879.00       58184.00       55693.00       62034.00
       37149.00       42345.00       56283.00       30162.00       36966.00
       43034.00       31684.00       42593.00       36552.00       30308.00
       36556.00       28129.00       27566.00       28039.00       17461.00
       20499.00       26523.00       17696.00       12582.00       15405.00
       4332.000      -3480.000      -22643.00      -29377.00      -20061.00
      -47102.00      -48417.00      -44148.00      -56702.00      -59512.00
      -72332.00      -79480.00      -88663.00      -97826.00      -107510.0
      -115626.0      -116800.0      -120033.0      -125767.0      -136399.0
      -139394.0      -136400.0      -145194.0      -153468.0      -146774.0
      -154241.0      -156367.0      -157098.0      -174481.0      -164018.0
      -159638.0      -178796.0      -177200.0      -172834.0      -188832.0
      -198399.0      -198405.0      -193454.0      -199396.0      -213641.0
      -199050.0      -210228.0      -221374.0      -194163.0      -209794.0
      -220743.0      -202129.0      -209652.0      -203605.0      -186071.0
      -198443.0      -188974.0      -172787.0      -182949.0      -173272.0
      -174279.0      -174229.0      -167844.0      -183228.0      -187918.0
      -188265.0      -177978.0      -183064.0      -197766.0      -171616.0
      -172631.0      -209757.0      -212411.0      -207698.0      -222164.0
      -220026.0      -227413.0      -249080.0      -243200.0      -238772.0
      -253248.0      -265181.0      -260203.0      -269053.0      -289246.0
      -280282.0      -285023.0      -302171.0      -296675.0      -308812.0
      -325310.0      -322989.0      -335369.0      -344370.0      -342151.0
      -350918.0      -357418.0      -360852.0      -362606.0      -374738.0
      -389042.0      -379227.0      -385732.0      -393429.0      -380292.0
      -390553.0      -407526.0      -400620.0      -392788.0      -397167.0
      -390158.0      -392027.0      -394260.0      -382968.0      -384107.0
      -383626.0      -387103.0      -390291.0      -380872.0      -369431.0
      -380978.0      -390685.0      -372329.0      -366917.0      -373777.0
      -376074.0      -366107.0      -367038.0      -378015.0      -368059.0
      -365672.0      -383182.0      -382060.0      -362218.0      -372251.0
      -387169.0      -379920.0      -379100.0      -394105.0      -395031.0
      -372866.0      -386476.0      -399415.0      -378480.0      -371925.0
      -381668.0      -383446.0      -368222.0      -376767.0      -374431.0
      -363688.0      -373540.0      -354775.0      -358669.0      -358641.0
      -339800.0      -348248.0      -336645.0      -336590.0      -336283.0
      -321903.0      -320099.0      -316215.0      -321802.0      -306215.0
      -305119.0      -318423.0      -308531.0      -305331.0      -291824.0
      -289515.0      -293248.0      -292657.0      -286117.0      -272721.0
      -292015.0      -280342.0      -255065.0      -272230.0      -266271.0
      -250082.0      -255878.0      -254944.0      -225515.0      -216058.0
      -223231.0      -207230.0      -210037.0      -194176.0      -186457.0
      -196418.0      -173087.0      -173776.0      -166455.0      -154828.0
      -163894.0      -142650.0      -139410.0      -151695.0      -115812.0
      -103462.0      -146127.0      -125764.0      -69761.00      -109971.0
      -119034.0      -53550.00      -77914.00      -98275.00      -50022.00
      -51671.00      -87723.00      -65045.00      -36057.00      -77779.00
      -71826.00      -25156.00      -40085.00      -49934.00      -34756.00
      -32190.00      -43269.00      -36116.00      -31087.00      -54825.00
      -28827.00      -4776.000      -36280.00      -28587.00      -10067.00
      -15813.00      -10209.00      -8006.000      -1351.000      -2473.000
      -1721.000       13514.00       3833.000       12089.00       26260.00
       12512.00       17437.00       28488.00       22866.00       21829.00
       38763.00       50725.00       56045.00       57587.00       60341.00
       78001.00       85811.00       83038.00       89561.00       103631.0
       113699.0       113907.0       116121.0       135603.0       131186.0
       132039.0       152931.0       140575.0       157976.0       162370.0
       152058.0       166316.0       150804.0       163882.0       158784.0
       143694.0       170685.0       150359.0       149535.0       172275.0
       147477.0       148912.0       157899.0       148973.0       165861.0
       171079.0       169561.0       176624.0       168352.0       175551.0
       173685.0       167292.0       183591.0       163295.0       151919.0
       169237.0       169914.0       171926.0       168240.0       154327.0
       137113.0       148654.0       135521.0       108368.0       133063.0
       96668.00       87021.00       102342.0       69228.00       98788.00
       83508.00       52700.00       73849.00       55294.00       36738.00
       47387.00       37650.00       18476.00       21449.00       14260.00
       6691.000       14553.00       16042.00       9237.000       6534.000
      -1410.000      -5501.000       1880.000       179.0000      -1846.000
      -7675.000      -13054.00      -9590.000      -4680.000       6838.000
       3113.000      -5644.000       1576.000       9081.000       17932.00
       12830.00       24700.00       34027.00       12483.00       34255.00
       58161.00       50472.00       46174.00       53546.00       71193.00
       62980.00       75717.00       103623.0       94105.00       106088.0
       117014.0       108566.0       121401.0       138916.0       142851.0
       153638.0       178410.0       180586.0       184952.0       190128.0
       189658.0       204742.0       213030.0       231668.0       246528.0
       258307.0       266391.0       272816.0       285926.0       279872.0
       305815.0       316952.0       314626.0       341037.0       347530.0
       369764.0       372853.0       387689.0       420350.0       412545.0
       418178.0       432803.0       440191.0       439328.0       460854.0
       462442.0       445151.0       478644.0       473658.0       466468.0
       501964.0       475609.0       472922.0       510736.0       475159.0
       464700.0       504857.0       485844.0       467494.0       497294.0
       488602.0       476449.0       482685.0       474284.0       472450.0
       460922.0       461892.0       458798.0       444794.0       441194.0
       422408.0       412991.0       401929.0       383061.0       384069.0
       364318.0       347072.0       342224.0       316939.0       295893.0
       285255.0       297579.0       256750.0       228143.0       265428.0
       226361.0       196832.0       206250.0       191413.0       168227.0
       160198.0       170056.0       138310.0       126673.0       143226.0
       127978.0       117198.0       124352.0       128919.0       117398.0
       103104.0       92004.00       103501.0       116523.0       86307.00
       92754.00       114789.0       78418.00       83852.00       99630.00
       76076.00       91365.00       95013.00       64177.00       75337.00
       100705.0       65911.00       49958.00       88521.00       60889.00
       38247.00       67505.00       36110.00       31418.00       47352.00
       15009.00       18235.00       17710.00       6465.000       3384.000
      -23236.00      -20817.00      -11465.00      -35998.00      -32554.00
      -27144.00      -51953.00      -48319.00      -47438.00      -63159.00
      -63196.00      -62072.00      -61580.00      -62707.00      -65866.00
      -64895.00      -68160.00      -84368.00      -69166.00      -51669.00
      -89100.00      -80124.00      -51434.00      -98277.00      -95430.00
      -61624.00      -93977.00      -100144.0      -87942.00      -96467.00
      -111178.0      -111113.0      -107400.0      -136634.0      -127115.0
      -119559.0      -156565.0      -166813.0      -161769.0      -181616.0
      -211136.0      -206175.0      -210589.0      -239945.0      -247201.0
      -251180.0      -265657.0      -280259.0      -294597.0      -317227.0
      -307817.0      -299048.0      -350930.0      -349271.0      -325876.0
      -346089.0      -343425.0      -363762.0      -367444.0      -328121.0
      -352737.0      -378223.0      -346049.0      -332118.0      -350572.0
      -347718.0      -307298.0      -319934.0      -320602.0      -279397.0
      -296151.0      -299048.0      -279672.0      -254257.0      -254097.0
      -260217.0      -219945.0      -214629.0      -211136.0      -199668.0
      -191756.0      -175899.0      -170770.0      -149007.0      -138687.0
      -129302.0      -130470.0      -126051.0      -99193.00      -116636.0
      -109458.0      -81402.00      -92743.00      -87881.00      -73050.00
      -79886.00      -89315.00      -66650.00      -59801.00      -88599.00
      -61572.00      -45636.00      -91011.00      -84333.00      -61199.00
      -93044.00      -106931.0      -84737.00      -101941.0      -130919.0
      -113725.0      -120245.0      -141517.0      -115628.0      -150948.0
      -186112.0      -135436.0      -173960.0      -194633.0      -158595.0
      -210236.0      -203937.0      -189115.0      -229742.0      -221989.0
      -216823.0      -226859.0      -236379.0      -234804.0      -241538.0
      -252448.0      -235155.0      -260990.0      -279487.0      -254658.0
      -269222.0      -277808.0      -256968.0      -274672.0      -289949.0
      -262146.0      -273630.0      -291935.0      -268212.0      -275994.0
      -292884.0      -283050.0      -281892.0      -289960.0      -285745.0
      -288845.0      -291999.0      -282398.0      -281215.0      -284362.0
      -303234.0      -295179.0      -282253.0      -293171.0      -278251.0
      -271379.0      -280229.0      -286647.0      -266202.0      -254618.0
      -272952.0      -249515.0      -240964.0      -268253.0      -237776.0
      -217024.0      -241001.0      -222398.0      -214397.0      -226341.0
      -206762.0      -206556.0      -212991.0      -194127.0      -191531.0
      -194095.0      -181205.0      -174888.0      -165895.0      -158551.0
      -153347.0      -144882.0      -141782.0      -133480.0      -132051.0
      -128522.0      -124226.0      -115926.0      -104588.0      -105653.0
      -93375.00      -100888.0      -89718.00      -66919.00      -87464.00
      -74960.00      -53939.00      -53843.00      -47657.00      -39398.00
      -29498.00      -20880.00      -17337.00      -7846.000       7416.000
       5495.000       15796.00       30137.00       35406.00       48476.00
       45541.00       55994.00       73416.00       67248.00       72031.00
       57276.00       74549.00       111824.0       66964.00       70212.00
       101470.0       77245.00       79954.00       87208.00       84698.00
       88693.00       81997.00       80379.00       78023.00       64487.00
       82833.00       81475.00       47697.00       79822.00       76089.00
       49850.00       92009.00       66326.00       36357.00       76145.00
       74933.00       46098.00       59484.00       80747.00       64192.00
       68413.00       81673.00       70604.00       93841.00       88443.00
       58759.00       96950.00       95900.00       68232.00       89335.00
       91117.00       80011.00       83764.00       96642.00       82401.00
       71860.00       88988.00       76945.00       69517.00       70251.00
       63673.00       62942.00       59399.00       58588.00       56470.00
       53133.00       45297.00       51026.00       45610.00       29016.00
       50367.00       38494.00       22242.00       39941.00       22190.00
