     0.05000000      -12345.00      -12345.00   3.440520e+09      -12345.00
   0.0005380000       659.9506      -161.0195      -12345.00      -12345.00
      -12345.00      -12345.00      -12345.00      -12345.00      -12345.00
      -12345.00      -12345.00      -12345.00      -12345.00      -12345.00
      -12345.00      -12345.00      -12345.00      -12345.00      -12345.00
      -12345.00      -12345.00      -12345.00      -12345.00      -12345.00
      -12345.00       24.97350       121.4971       77.10000       82.90000
       9.831100       126.5297      -12345.00       24.71000      -12345.00
      -12345.00      -12345.00      -12345.00      -12345.00      -12345.00
      -12345.00      -12345.00      -12345.00      -12345.00      -12345.00
       1757.075       343.0008       161.4906       15.80245      -12345.00
      -12345.00      -12345.00       62.00000       90.00000      -12345.00
      -12345.00      -12345.00      -12345.00      -12345.00      -12345.00
      -12345.00      -12345.00      -12345.00      -12345.00      -12345.00
      2019        39        11        57        49
        19         6    -12345    -12345     13200
    -12345    -12345    -12345    -12345    -12345
         1    -12345    -12345    -12345    -12345
    -12345    -12345    -12345    -12345    -12345
    -12345    -12345    -12345    -12345    -12345
    -12345    -12345    -12345    -12345    -12345
         1    -12345    -12345    -12345    -12345
TATO    Mindanao, Philip
00      -12345  -12345  
-12345  -12345  -12345  
-12345  -12345  -12345  
-12345  -12345  -12345  
-12345  -12345  -12345  
-12345  -12345  BH2     
IU      -12345  Geotech 
[...]
       193274.0       193379.0       193648.0       194068.0       194582.0
       195092.0       195679.0       196400.0       197125.0       197872.0
       198650.0       199411.0       200200.0       201013.0       201752.0
       202172.0       202308.0       202224.0       201875.0       201406.0
       200968.0       200673.0       200329.0       199919.0       199630.0
       199235.0       198745.0       198337.0       197955.0       197639.0
       197360.0       197185.0       197035.0       196654.0       196181.0
       195638.0       195166.0       194999.0       194901.0       194712.0
       194424.0       194080.0       193774.0       193468.0       193043.0
       192432.0       191553.0       190339.0       189068.0       187996.0
       187218.0       186612.0       185914.0       185426.0       185241.0
       185169.0       185369.0       185838.0       186584.0       187545.0
       188587.0       189684.0       190698.0       191839.0       193275.0
       194883.0       196451.0       197712.0       198676.0       199445.0
       200059.0       200545.0       201040.0       201548.0       201868.0
       201933.0       201749.0       201398.0       201067.0       200818.0
       200498.0       200096.0       199688.0       199232.0       198769.0
       198298.0       197922.0       197820.0       197848.0       197833.0
       197892.0       198137.0       198491.0       199018.0       199666.0
       200164.0       200571.0       201025.0       201469.0       201898.0
       202435.0       203011.0       203493.0       203921.0       204236.0
       204359.0       204243.0       203881.0       203574.0       203353.0
       202884.0       202139.0       201076.0       199769.0       198253.0
       196492.0       194803.0       193368.0       192143.0       191058.0
       189922.0       188628.0       187401.0       186382.0       185766.0
       185598.0       185568.0       185684.0       185965.0       186318.0
       186665.0       187023.0       187522.0       188235.0       188995.0
       189585.0       190113.0       190723.0       191423.0       192169.0
       193061.0       194019.0       194897.0       195647.0       196254.0
       196877.0       197651.0       198633.0       199497.0       200156.0
       200796.0       201411.0       201942.0       202109.0       202182.0
       202438.0       202638.0       202582.0       202330.0       202286.0
       202415.0       202651.0       203059.0       203422.0       203698.0
       203999.0       204221.0       204292.0       204287.0       204153.0
       203886.0       203404.0       202727.0       201965.0       201285.0
       200804.0       200205.0       199406.0       198357.0       197024.0
       195670.0       194321.0       193022.0       191961.0       191089.0
       190307.0       189661.0       189093.0       188620.0       188322.0
       188128.0       188040.0       187928.0       187626.0       187278.0
       186984.0       186849.0       186900.0       187036.0       187323.0
       187669.0       187996.0       188403.0       188777.0       189161.0
       189787.0       190512.0       191150.0       191722.0       192212.0
       192671.0       193102.0       193500.0       194052.0       194837.0
       195688.0       196529.0       197364.0       198157.0       199018.0
       199980.0       201010.0       202041.0       202886.0       203603.0
       204383.0       205219.0       205858.0       206347.0       206740.0
       206680.0       206172.0       205368.0       204307.0       203090.0
       201798.0       200465.0       199065.0       197707.0       196619.0
       195889.0       195344.0       194960.0       194720.0       194580.0
       194583.0       194354.0       193743.0       192881.0       191817.0
       190725.0       189760.0       188981.0       188238.0       187574.0
       187071.0       186675.0       186474.0       186552.0       186864.0
       187330.0       188036.0       188827.0       189541.0       190255.0
       191033.0       191998.0       193133.0       194348.0       195513.0
       196610.0       197653.0       198806.0       200205.0       201477.0
       202622.0       203720.0       204553.0       205225.0       205754.0
       206046.0       206214.0       206358.0       206505.0       206605.0
       206540.0       206416.0       206358.0       206439.0       206586.0
       206474.0       206224.0       206050.0       205905.0       205803.0
       205887.0       206247.0       206659.0       206958.0       207259.0
       207563.0       207791.0       207916.0       208039.0       208241.0
       208306.0       208183.0       208044.0       207929.0       207850.0
       207820.0       207836.0       208022.0       208117.0       207824.0
       207340.0       206684.0       206044.0       205418.0       204559.0
       203621.0       202552.0       201410.0       200381.0       199491.0
       198819.0       198450.0       198442.0       198473.0       198253.0
       197870.0       197284.0       196665.0       196271.0       196007.0
       195792.0       195596.0       195375.0       195127.0       194765.0
       194121.0       193283.0       192330.0       191341.0       190692.0
       190572.0       190923.0       191768.0       192952.0       194277.0
       195782.0       197246.0       198661.0       200121.0       201437.0
       202769.0       204298.0       205970.0       207580.0       209063.0
       210609.0       212045.0       213175.0       214117.0       214820.0
       215353.0       215840.0       216261.0       216819.0       217508.0
       218180.0       218848.0       219290.0       219309.0       218754.0
       217635.0       216442.0       215311.0       214133.0       212926.0
       211692.0       210577.0       209654.0       209068.0       208613.0
       208135.0       207744.0       207336.0       207001.0       206845.0
       206972.0       207205.0       207360.0       207474.0       207485.0
       207398.0       207233.0       207054.0       206945.0       207042.0
       207087.0       206886.0       206692.0       206520.0       206280.0
       205883.0       205321.0       204526.0       203656.0       202858.0
       201959.0       201180.0       200577.0       200135.0       199889.0
       199538.0       198956.0       198353.0       197948.0       197660.0
       197406.0       197323.0       197629.0       198140.0       198535.0
       198695.0       198617.0       198515.0       198481.0       198547.0
       198632.0       198737.0       198976.0       199280.0       199578.0
       199919.0       200431.0       200779.0       200792.0       200765.0
       200551.0       199981.0       199387.0       198880.0       198253.0
       197535.0       196653.0       195620.0       194722.0       194051.0
       193535.0       192938.0       191957.0       190675.0       189570.0
       188751.0       187967.0       187259.0       186658.0       186092.0
       185534.0       184929.0       184326.0       183737.0       183188.0
       182736.0       182419.0       182023.0       181498.0       181241.0
       181247.0       181375.0       181509.0       181543.0       181569.0
       181724.0       181826.0       181701.0       181645.0       181792.0
       182153.0       182738.0       183375.0       183812.0       184098.0
       184517.0       185165.0       186061.0       187246.0       188639.0
       189812.0       190462.0       190616.0       190326.0       189957.0
       189753.0       189390.0       188770.0       188022.0       186998.0
       185865.0       184908.0       184148.0       183403.0       182528.0
       181626.0       180691.0       179836.0       178920.0       177855.0
       176830.0       175861.0       175061.0       174208.0       173368.0
       172628.0       171699.0       170590.0       169302.0       167910.0
       166352.0       164593.0       162698.0       160700.0       158671.0
       156540.0       154534.0       152898.0       151380.0       149893.0
       148604.0       147459.0       146467.0       145659.0       144919.0
       144285.0       143971.0       144110.0       144606.0       145187.0
       145794.0       146640.0       147778.0       149041.0       150471.0
       152259.0       154239.0       156401.0       158720.0       160934.0
       163208.0       165791.0       168518.0       171137.0       173775.0
       176411.0       178894.0       181274.0       183410.0       185320.0
       187191.0       189026.0       190847.0       192586.0       194224.0
       195750.0       197175.0       198461.0       199359.0       200040.0
       200680.0       201055.0       201133.0       201018.0       200858.0
       200833.0       200845.0       200907.0       201141.0       201303.0
       201240.0       201159.0       201228.0       201526.0       202087.0
       202805.0       203656.0       204674.0       205908.0       207273.0
       208769.0       210508.0       212283.0       214114.0       215825.0
       217272.0       218632.0       219746.0       220629.0       221160.0
       221231.0       221130.0       220775.0       220142.0       219540.0
       218807.0       217892.0       216911.0       215736.0       214594.0
       213440.0       212238.0       211191.0       210290.0       209672.0
       209321.0       209132.0       209106.0       209104.0       208969.0
       208781.0       208782.0       209134.0       209655.0       210150.0
       210869.0       211806.0       212709.0       213537.0       214162.0
       214608.0       214911.0       214920.0       214638.0       214250.0
       213932.0       213585.0       213180.0       212769.0       212194.0
       211421.0       210428.0       209395.0       208606.0       207970.0
       207477.0       206960.0       206183.0       205118.0       203784.0
       202247.0       200361.0       198201.0       195941.0       193623.0
       191348.0       189013.0       186505.0       184103.0       182085.0
       180278.0       178614.0       177144.0       175807.0       174645.0
       173675.0       172912.0       172148.0       171266.0       170605.0
       170220.0       169914.0       169754.0       169844.0       170172.0
       170796.0       171634.0       172378.0       172830.0       172805.0
       172398.0       172003.0       171683.0       171246.0       170541.0
       169629.0       168748.0       167999.0       167262.0       166439.0
       165499.0       164399.0       163074.0       161602.0       160045.0
       158365.0       156788.0       155402.0       154239.0       153336.0
       152765.0       152512.0       152342.0       152491.0       152949.0
       153392.0       153687.0       153925.0       154280.0       154705.0
       155200.0       155591.0       155741.0       155756.0       155615.0
       155312.0       154855.0       154326.0       153989.0       153859.0
       153840.0       154007.0       154211.0       154467.0       155107.0
       156015.0       156966.0       158003.0       158951.0       159815.0
       160775.0       161640.0       162496.0       163545.0       164626.0
       165683.0       166834.0       167994.0       169135.0       170476.0
       172109.0       173936.0       175561.0       176963.0       178359.0
       179681.0       181080.0       182469.0       183740.0       185097.0
       186700.0       188366.0       189799.0       191094.0       192322.0
       193519.0       194788.0       196257.0       197805.0       199112.0
       200420.0       202020.0       203798.0       205535.0       207064.0
       208516.0       209887.0       211133.0       212372.0       213549.0
       214763.0       216108.0       217569.0       219088.0       220579.0
       222092.0       223486.0       224770.0       225920.0       226709.0
       227243.0       227420.0       227193.0       226673.0       225988.0
       225170.0       224094.0       223078.0       222305.0       221708.0
       221017.0       219976.0       218715.0       217353.0       216059.0
       214461.0       212163.0       209548.0       206902.0       204432.0
       202195.0       199955.0       197807.0       195881.0       194112.0
       192607.0       191483.0       190802.0       190496.0       190412.0
       190541.0       190754.0       191072.0       191647.0       192524.0
       193714.0       195057.0       196423.0       197925.0       199681.0
       201622.0       203789.0       206074.0       208293.0       210648.0
       213146.0       215698.0       218221.0       220447.0       222618.0
       224998.0       227228.0       229166.0       231120.0       233345.0
       235869.0       238392.0       240705.0       242904.0       244815.0
       246320.0       247558.0       248468.0       248959.0       249018.0
       248764.0       248426.0       248078.0       247700.0       247240.0
       246494.0       245514.0       244365.0       242770.0       240836.0
       238725.0       236414.0       234001.0       231558.0       229255.0
       227120.0       225122.0       223225.0       221270.0       219467.0
       218076.0       216960.0       215970.0       214909.0       213803.0
       213083.0       212659.0       212169.0       211646.0       211135.0
       210611.0       210010.0       209310.0       208405.0       207227.0
       206043.0       204939.0       203840.0       202670.0       201461.0
       200278.0       199046.0       197853.0       196744.0       195862.0
       195181.0       194506.0       194016.0       193789.0       193589.0
       193281.0       193000.0       192502.0       191638.0       190436.0
       188790.0       186733.0       184228.0       181414.0       178519.0
       175664.0       172763.0       169901.0       167297.0       164999.0
       163023.0       161350.0       160074.0       159224.0       158811.0
       158845.0       159433.0       160547.0       161881.0       163389.0
       165324.0       167547.0       169717.0       172026.0       174592.0
       177294.0       179871.0       182079.0       184101.0       186187.0
       188254.0       189965.0       191226.0       192196.0       192815.0
       193020.0       192849.0       192448.0       192104.0       191747.0
       191263.0       190486.0       189456.0       188443.0       187354.0
       186312.0       185253.0       184049.0       182789.0       181430.0
       180120.0       179011.0       178087.0       177266.0       176570.0
       176041.0       175603.0       175135.0       174803.0       174628.0
       174391.0       174136.0       173965.0       174109.0       174401.0
       174655.0       175002.0       175287.0       175456.0       175420.0
       175189.0       174928.0       174631.0       174468.0       174432.0
       174429.0       174420.0       174205.0       173849.0       173483.0
       173334.0       173457.0       173505.0       173688.0       174088.0
       174458.0       174887.0       175530.0       176498.0       177774.0
       179277.0       180788.0       182244.0       183608.0       184925.0
       186292.0       187623.0       189079.0       190624.0       192076.0
       193389.0       194704.0       196159.0       197558.0       198898.0
       200283.0       201715.0       203270.0       204974.0       206655.0
       208142.0       209382.0       210395.0       211201.0       211602.0
       211673.0       211596.0       211282.0       210720.0       209841.0
       208838.0       207941.0       206968.0       205905.0       204807.0
       203614.0       202492.0       201558.0       200824.0       200409.0
       200082.0       199636.0       199393.0       199438.0       199531.0
       199651.0       199860.0       200298.0       201065.0       202240.0
       203925.0       205890.0       208163.0       210663.0       213117.0
       215607.0       218017.0       220164.0       221976.0       223548.0
       224837.0       225776.0       226524.0       227069.0       227378.0
       227290.0       226795.0       225944.0       224757.0       223374.0
       221780.0       220025.0       218136.0       216235.0       214372.0
       212497.0       210733.0       209145.0       207698.0       206395.0
       205362.0       204589.0       203940.0       203321.0       202647.0
       201871.0       201114.0       200601.0       200271.0       200136.0
       200254.0       200424.0       200561.0       200625.0       200738.0
       201038.0       201596.0       202355.0       202973.0       203522.0
       204210.0       204914.0       205589.0       206346.0       207247.0
       208240.0       209128.0       209731.0       210018.0       210204.0
       210543.0       211068.0       211727.0       212365.0       213013.0
       213738.0       214519.0       215316.0       215919.0       216240.0
       216295.0       216325.0       216427.0       216461.0       216416.0
       216187.0       215755.0       215189.0       214484.0       213699.0
       212960.0       212298.0       211655.0       210959.0       210433.0
       210052.0       209542.0       208874.0       208092.0       207397.0
       206594.0       205625.0       204539.0       203281.0       201851.0
       200085.0       198151.0       196233.0       194336.0       192393.0
       190533.0       188911.0       187448.0       185957.0       184476.0
       183234.0       182118.0       181078.0       180238.0       179658.0
       179231.0       178596.0       177828.0       177259.0       176650.0
       175910.0       175292.0       174871.0       174567.0       174215.0
       173881.0       173651.0       173446.0       173189.0       172895.0
       172549.0       172003.0       171323.0       170685.0       170066.0
       169526.0       169170.0       168892.0       168741.0       168766.0
       168730.0       168497.0       168164.0       167781.0       167265.0
       166717.0       166117.0       165473.0       164899.0       164339.0
       163919.0       163509.0       163098.0       162936.0       162928.0
       163120.0       163576.0       164177.0       164879.0       165574.0
       166330.0       167178.0       168015.0       168832.0       169434.0
       169694.0       169629.0       169460.0       169430.0       169416.0
