     0.05000000      -12345.00      -12345.00   3.649040e+09      -12345.00
   0.0005380000       659.9506      -556.0195      -12345.00      -12345.00
      -12345.00      -12345.00      -12345.00      -12345.00      -12345.00
      -12345.00      -12345.00      -12345.00      -12345.00      -12345.00
      -12345.00      -12345.00      -12345.00      -12345.00      -12345.00
      -12345.00      -12345.00      -12345.00      -12345.00      -12345.00
      -12345.00       71.63410       128.8667       40.00000       0.000000
       9.831100       126.5297      -12345.00       24.71000      -12345.00
      -12345.00      -12345.00      -12345.00      -12345.00      -12345.00
      -12345.00      -12345.00      -12345.00      -12345.00      -12345.00
       6868.101      0.8406327       182.6143       61.76905      -12345.00
      -12345.00      -12345.00       0.000000       90.00000      -12345.00
      -12345.00      -12345.00      -12345.00      -12345.00      -12345.00
      -12345.00      -12345.00      -12345.00      -12345.00      -12345.00
      2019        39        12         4        24
        19         6    -12345    -12345     13200
    -12345    -12345    -12345    -12345    -12345
         1    -12345    -12345    -12345    -12345
    -12345    -12345    -12345    -12345    -12345
    -12345    -12345    -12345    -12345    -12345
    -12345    -12345    -12345    -12345    -12345
         1    -12345    -12345    -12345    -12345
TIXI    Mindanao, Philip
00      -12345  -12345  
-12345  -12345  -12345  
-12345  -12345  -12345  
-12345  -12345  -12345  
-12345  -12345  -12345  
-12345  -12345  BH1     
IU      -12345  Streckei
[...]
      -5967.000      -5855.000      -5909.000      -6082.000      -6049.000
      -5999.000      -6065.000      -6105.000      -6016.000      -6252.000
      -6154.000      -5989.000      -6308.000      -6145.000      -6198.000
      -6118.000      -6128.000      -6307.000      -6153.000      -6339.000
      -6228.000      -6197.000      -6504.000      -6205.000      -6236.000
      -6395.000      -6252.000      -6344.000      -6298.000      -6306.000
      -6250.000      -6413.000      -6426.000      -6149.000      -6353.000
      -6334.000      -6169.000      -6466.000      -6363.000      -6221.000
      -6295.000      -6377.000      -6377.000      -6144.000      -6300.000
      -6352.000      -6298.000      -6300.000      -6242.000      -6255.000
      -6381.000      -6460.000      -6189.000      -6169.000      -6464.000
      -6349.000      -6352.000      -6206.000      -6081.000      -6378.000
      -6375.000      -6293.000      -6037.000      -6250.000      -6437.000
      -6168.000      -6281.000      -6168.000      -6143.000      -6232.000
      -6153.000      -6160.000      -6032.000      -6271.000      -6078.000
      -5941.000      -6263.000      -6081.000      -6078.000      -6010.000
      -6114.000      -6221.000      -6051.000      -6139.000      -5991.000
      -5978.000      -6286.000      -6034.000      -5915.000      -6184.000
      -6055.000      -5972.000      -6148.000      -6041.000      -5981.000
      -6110.000      -6051.000      -5947.000      -6048.000      -6144.000
      -5868.000      -6075.000      -6139.000      -5766.000      -6027.000
      -6135.000      -5940.000      -5913.000      -5940.000      -5948.000
      -5988.000      -6053.000      -5792.000      -5876.000      -6076.000
      -5995.000      -5956.000      -5815.000      -5954.000      -5895.000
      -5993.000      -6048.000      -5787.000      -5894.000      -6100.000
      -5995.000      -5808.000      -5940.000      -5901.000      -5909.000
      -6062.000      -5827.000      -5729.000      -5996.000      -5991.000
      -5896.000      -5891.000      -5906.000      -5831.000      -5931.000
      -6042.000      -5804.000      -5857.000      -6024.000      -5873.000
      -5887.000      -6042.000      -5911.000      -5797.000      -6044.000
      -6048.000      -5769.000      -5999.000      -5999.000      -5945.000
      -6053.000      -6031.000      -6059.000      -5964.000      -6062.000
      -6110.000      -6110.000      -6193.000      -6087.000      -6125.000
      -6197.000      -6207.000      -6219.000      -6181.000      -6244.000
      -6206.000      -6341.000      -6357.000      -6216.000      -6283.000
      -6422.000      -6322.000      -6319.000      -6445.000      -6338.000
      -6399.000      -6528.000      -6430.000      -6186.000      -6462.000
      -6707.000      -6432.000      -6249.000      -6449.000      -6550.000
      -6448.000      -6514.000      -6371.000      -6315.000      -6557.000
      -6460.000      -6332.000      -6369.000      -6326.000      -6288.000
      -6315.000      -6324.000      -6140.000      -6243.000      -6320.000
      -6109.000      -6118.000      -6174.000      -6074.000      -6128.000
      -6081.000      -6022.000      -5999.000      -5964.000      -6010.000
      -5849.000      -5852.000      -5872.000      -5819.000      -5869.000
      -5805.000      -5687.000      -5824.000      -5772.000      -5616.000
      -5714.000      -5812.000      -5719.000      -5561.000      -5658.000
      -5763.000      -5681.000      -5743.000      -5705.000      -5598.000
      -5839.000      -5755.000      -5697.000      -5812.000      -5732.000
      -5714.000      -5795.000      -5855.000      -5782.000      -5842.000
      -5929.000      -5816.000      -5820.000      -5898.000      -5944.000
      -5852.000      -5901.000      -6015.000      -5882.000      -5999.000
      -5909.000      -5852.000      -6097.000      -6048.000      -5855.000
      -6044.000      -6175.000      -6065.000      -5956.000      -5969.000
      -6153.000      -6040.000      -6048.000      -6114.000      -6060.000
      -6161.000      -6182.000      -6021.000      -6008.000      -6216.000
      -6206.000      -6007.000      -6208.000      -6165.000      -6141.000
      -6336.000      -6065.000      -6149.000      -6367.000      -6196.000
      -6090.000      -6311.000      -6304.000      -6134.000      -6290.000
      -6333.000      -6143.000      -6147.000      -6213.000      -6283.000
      -6247.000      -6162.000      -6153.000      -6194.000      -6303.000
      -6114.000      -6047.000      -6188.000      -6181.000      -6045.000
      -6083.000      -6147.000      -6032.000      -6131.000      -6150.000
      -5838.000      -5970.000      -6216.000      -5978.000      -5810.000
      -5917.000      -5966.000      -5823.000      -5861.000      -5932.000
      -5705.000      -5762.000      -5994.000      -5721.000      -5714.000
      -5792.000      -5698.000      -5709.000      -5698.000      -5654.000
      -5639.000      -5755.000      -5666.000      -5546.000      -5626.000
      -5628.000      -5603.000      -5636.000      -5564.000      -5579.000
      -5601.000      -5743.000      -5568.000      -5511.000      -5811.000
      -5689.000      -5586.000      -5713.000      -5743.000      -5668.000
      -5854.000      -5852.000      -5610.000      -5857.000      -5999.000
      -5703.000      -5892.000      -5942.000      -5819.000      -5970.000
      -5926.000      -5959.000      -5973.000      -5970.000      -6101.000
      -5968.000      -5998.000      -6089.000      -6027.000      -6185.000
      -6091.000      -5987.000      -6132.000      -6316.000      -6219.000
      -6100.000      -6142.000      -6185.000      -6312.000      -6370.000
      -6133.000      -6140.000      -6361.000      -6225.000      -6257.000
      -6265.000      -6294.000      -6313.000      -6252.000      -6325.000
      -6232.000      -6268.000      -6452.000      -6274.000      -6240.000
      -6345.000      -6287.000      -6359.000      -6336.000      -6164.000
      -6263.000      -6490.000      -6238.000      -6117.000      -6326.000
      -6295.000      -6226.000      -6260.000      -6176.000      -6197.000
      -6248.000      -6176.000      -6054.000      -6122.000      -6219.000
      -6016.000      -5975.000      -6083.000      -6126.000      -5989.000
      -5967.000      -6013.000      -5861.000      -6018.000      -6117.000
      -5829.000      -5862.000      -6033.000      -5858.000      -5772.000
      -5930.000      -5779.000      -5804.000      -5865.000      -5772.000
      -5752.000      -5747.000      -5761.000      -5616.000      -5825.000
      -5737.000      -5553.000      -5710.000      -5767.000      -5670.000
      -5595.000      -5591.000      -5608.000      -5703.000      -5644.000
      -5499.000      -5446.000      -5695.000      -5798.000      -5475.000
      -5476.000      -5727.000      -5611.000      -5692.000      -5737.000
      -5557.000      -5703.000      -5832.000      -5746.000      -5747.000
      -5863.000      -5922.000      -5762.000      -5989.000      -6069.000
      -5810.000      -6112.000      -6023.000      -6006.000      -6175.000
      -6091.000      -6127.000      -6150.000      -6222.000      -6191.000
      -6169.000      -6332.000      -6297.000      -6350.000      -6402.000
      -6252.000      -6339.000      -6524.000      -6564.000      -6268.000
      -6371.000      -6607.000      -6503.000      -6452.000      -6487.000
      -6490.000      -6498.000      -6478.000      -6382.000      -6444.000
      -6544.000      -6472.000      -6252.000      -6362.000      -6540.000
      -6371.000      -6280.000      -6353.000      -6263.000      -6343.000
      -6341.000      -6108.000      -6216.000      -6328.000      -6091.000
      -6085.000      -6201.000      -5988.000      -5980.000      -6080.000
      -5935.000      -5935.000      -5952.000      -5790.000      -5909.000
      -5860.000      -5762.000      -5676.000      -5792.000      -5981.000
      -5611.000      -5544.000      -5766.000      -5808.000      -5696.000
      -5600.000      -5467.000      -5562.000      -5862.000      -5659.000
      -5421.000      -5471.000      -5684.000      -5639.000      -5369.000
      -5609.000      -5466.000      -5503.000      -5728.000      -5415.000
      -5468.000      -5608.000      -5575.000      -5411.000      -5509.000
      -5722.000      -5629.000      -5534.000      -5586.000      -5626.000
      -5681.000      -5725.000      -5595.000      -5613.000      -5778.000
      -5712.000      -5707.000      -5776.000      -5731.000      -5734.000
      -5898.000      -5875.000      -5712.000      -5940.000      -5979.000
      -5847.000      -5894.000      -6005.000      -5928.000      -5962.000
      -6175.000      -6008.000      -5916.000      -6183.000      -6237.000
      -6215.000      -6184.000      -6097.000      -6209.000      -6448.000
      -6456.000      -6106.000      -6307.000      -6420.000      -6377.000
      -6478.000      -6277.000      -6261.000      -6477.000      -6558.000
      -6359.000      -6288.000      -6542.000      -6512.000      -6107.000
      -6357.000      -6581.000      -6202.000      -6229.000      -6316.000
      -6168.000      -6193.000      -6260.000      -6168.000      -6006.000
      -6127.000      -6077.000      -6011.000      -5950.000      -5832.000
      -5953.000      -5937.000      -5827.000      -5665.000      -5728.000
      -5781.000      -5701.000      -5513.000      -5651.000      -5802.000
      -5505.000      -5547.000      -5683.000      -5537.000      -5600.000
      -5540.000      -5526.000      -5702.000      -5437.000      -5500.000
      -5704.000      -5635.000      -5494.000      -5572.000      -5702.000
      -5623.000      -5718.000      -5773.000      -5626.000      -5663.000
      -5849.000      -5806.000      -5704.000      -5810.000      -5753.000
      -5737.000      -5946.000      -5846.000      -5861.000      -5891.000
      -5899.000      -5952.000      -5912.000      -5941.000      -5969.000
      -6005.000      -6055.000      -5952.000      -5971.000      -6221.000
      -6167.000      -5970.000      -6107.000      -6160.000      -6052.000
      -6201.000      -6193.000      -6107.000      -6101.000      -6318.000
      -6225.000      -6136.000      -6324.000      -6102.000      -6237.000
      -6380.000      -6192.000      -6205.000      -6244.000      -6247.000
      -6196.000      -6239.000      -6255.000      -6116.000      -6216.000
      -6234.000      -6170.000      -6091.000      -6157.000      -6125.000
      -6060.000      -6211.000      -6074.000      -5993.000      -6140.000
      -6163.000      -5928.000      -6015.000      -6112.000      -5914.000
      -6012.000      -6047.000      -5859.000      -5993.000      -6089.000
      -5891.000      -5812.000      -5967.000      -5979.000      -5853.000
      -5895.000      -5925.000      -5842.000      -5928.000      -5963.000
      -5742.000      -5824.000      -5974.000      -5888.000      -5779.000
      -5881.000      -5861.000      -5824.000      -5986.000      -5904.000
      -5675.000      -5875.000      -6050.000      -5785.000      -5793.000
      -5831.000      -5804.000      -5841.000      -5692.000      -5524.000
      -5509.000      -5449.000      -5248.000      -4963.000      -4933.000
      -4712.000      -4356.000      -4225.000      -3930.000      -3733.000
      -3628.000      -3429.000      -3304.000      -3386.000      -3322.000
      -3265.000      -3517.000      -3714.000      -3664.000      -4041.000
      -4505.000      -4748.000      -5209.000      -5693.000      -6314.000
      -7136.000      -7899.000      -8531.000      -9306.000      -10119.00
      -10650.00      -11035.00      -11377.00      -11478.00      -11425.00
      -11283.00      -11212.00      -10889.00      -10644.00      -10483.00
      -9964.000      -9582.000      -9261.000      -8424.000      -7419.000
      -6787.000      -5731.000      -4323.000      -3214.000      -2371.000
      -1399.000      -784.0000      -375.0000       96.00000       33.00000
      -174.0000      -240.0000      -500.0000      -1074.000      -1615.000
      -2294.000      -3193.000      -4077.000      -5222.000      -6600.000
      -8070.000      -9805.000      -11512.00      -13287.00      -14952.00
      -16608.00      -18186.00      -19127.00      -20023.00      -20903.00
      -21256.00      -21185.00      -20559.00      -19264.00      -17906.00
      -16486.00      -14682.00      -12600.00      -10479.00      -8414.000
      -6222.000      -4138.000      -2011.000       589.0000       2777.000
       4919.000       6968.000       8482.000       9603.000       9942.000
       10007.00       9788.000       9399.000       8878.000       7980.000
       6891.000       6303.000       5714.000       5000.000       4634.000
       3798.000       2603.000       1266.000      -636.0000      -2368.000
      -3711.000      -5598.000      -7624.000      -9163.000      -10221.00
      -11086.00      -11816.00      -12399.00      -13452.00      -14938.00
      -16094.00      -17010.00      -17163.00      -16662.00      -15823.00
      -14790.00      -13934.00      -12838.00      -11659.00      -9911.000
      -7901.000      -6349.000      -5296.000      -4685.000      -4145.000
      -3355.000      -2595.000      -2447.000      -2662.000      -2361.000
      -2494.000      -3403.000      -3705.000      -3832.000      -4606.000
      -5614.000      -6735.000      -7801.000      -7854.000      -7608.000
      -7436.000      -7090.000      -6459.000      -6201.000      -6559.000
      -6084.000      -5213.000      -4789.000      -4693.000      -5195.000
      -6070.000      -6527.000      -6689.000      -6891.000      -6667.000
      -6261.000      -6561.000      -6800.000      -6208.000      -5550.000
      -5713.000      -5940.000      -5936.000      -5682.000      -4770.000
      -4143.000      -3900.000      -3430.000      -3029.000      -3436.000
      -4166.000      -4493.000      -5047.000      -6157.000      -6588.000
      -6416.000      -6543.000      -6379.000      -6003.000      -5310.000
      -4307.000      -4133.000      -4733.000      -5928.000      -6909.000
      -7712.000      -8734.000      -8955.000      -9549.000      -10203.00
      -10193.00      -10407.00      -10524.00      -10388.00      -10850.00
      -12326.00      -13988.00      -15453.00      -16424.00      -16647.00
      -16216.00      -14962.00      -13763.00      -13018.00      -12311.00
      -11071.00      -9155.000      -7775.000      -6549.000      -5336.000
      -4253.000      -3095.000      -2449.000      -2252.000      -2031.000
      -1694.000      -1848.000      -2324.000      -2193.000      -1585.000
      -862.0000       114.0000       848.0000       1293.000       1727.000
       2200.000       2854.000       3568.000       3640.000       3262.000
       3130.000       3164.000       3275.000       3246.000       3041.000
       2499.000       1632.000       798.0000      -563.0000      -2170.000
      -3497.000      -4895.000      -6381.000      -7957.000      -9005.000
      -10038.00      -10800.00      -11034.00      -11612.00      -12135.00
      -12357.00      -12670.00      -12350.00      -10599.00      -8826.000
      -7601.000      -6468.000      -5263.000      -4516.000      -3781.000
      -2841.000      -2534.000      -2126.000      -1859.000      -2105.000
      -2550.000      -3210.000      -3447.000      -3902.000      -4549.000
      -4698.000      -5279.000      -5890.000      -5952.000      -5801.000
      -5345.000      -4663.000      -4489.000      -4135.000      -3683.000
      -4001.000      -4519.000      -4991.000      -5669.000      -6947.000
      -8176.000      -9250.000      -10458.00      -11749.00      -13338.00
      -14975.00      -16235.00      -16680.00      -16756.00      -16809.00
      -16535.00      -16356.00      -16212.00      -15740.00      -15054.00
      -13970.00      -12086.00      -10188.00      -8571.000      -6577.000
      -4609.000      -3219.000      -1994.000      -1056.000      -1053.000
      -1299.000      -1595.000      -1838.000      -2323.000      -2930.000
      -3894.000      -5205.000      -5842.000      -5917.000      -5511.000
      -5386.000      -5560.000      -6381.000      -7782.000      -8724.000
      -10131.00      -11337.00      -11740.00      -12485.00      -12611.00
      -12577.00      -12853.00      -12676.00      -12204.00      -11604.00
      -11371.00      -11375.00      -11517.00      -11628.00      -11321.00
      -10878.00      -10324.00      -9513.000      -8728.000      -7965.000
      -7302.000      -6289.000      -5319.000      -4595.000      -3970.000
      -3751.000      -3435.000      -2945.000      -2445.000      -2167.000
      -1772.000      -1257.000      -996.0000      -311.0000       710.0000
       1484.000       2303.000       2677.000       2447.000       2211.000
       2275.000       2359.000       2291.000       2257.000       1705.000
       749.0000       129.0000      -862.0000      -2311.000      -3396.000
      -4582.000      -6100.000      -7734.000      -9130.000      -10319.00
      -11361.00      -12063.00      -12477.00      -12765.00      -12661.00
      -12609.00      -12627.00      -12274.00      -11752.00      -11075.00
      -10608.00      -10186.00      -9826.000      -9177.000      -8498.000
      -8137.000      -7673.000      -7190.000      -6878.000      -6933.000
      -7068.000      -7284.000      -7800.000      -7847.000      -7561.000
      -7327.000      -6782.000      -6290.000      -5667.000      -4528.000
      -3379.000      -2841.000      -2492.000      -2284.000      -2026.000
      -1420.000      -840.0000      -840.0000      -1380.000      -1691.000
      -2151.000      -2788.000      -2912.000      -3114.000      -3960.000
      -4703.000      -5287.000      -6008.000      -6626.000      -7298.000
      -8174.000      -8567.000      -8325.000      -8094.000      -8078.000
      -7782.000      -7586.000      -8004.000      -8624.000      -9353.000
      -10113.00      -10387.00      -10053.00      -9507.000      -8233.000
      -6795.000      -5926.000      -4882.000      -4066.000      -4309.000
