     0.02500000      -12345.00      -12345.00   3.262830e+10      -12345.00
   0.0005390000       659.9755      -811.0195      -12345.00      -12345.00
      -12345.00      -12345.00      -12345.00      -12345.00      -12345.00
      -12345.00      -12345.00      -12345.00      -12345.00      -12345.00
      -12345.00      -12345.00      -12345.00      -12345.00      -12345.00
      -12345.00      -12345.00      -12345.00      -12345.00      -12345.00
      -12345.00      -19.20220       17.58380       1260.000       0.000000
       9.831100       126.5297      -12345.00       24.71000      -12345.00
      -12345.00      -12345.00      -12345.00      -12345.00      -12345.00
      -12345.00      -12345.00      -12345.00      -12345.00      -12345.00
       12338.53       253.1835       86.58014       110.9680      -12345.00
      -12345.00      -12345.00       0.000000       90.00000      -12345.00
      -12345.00      -12345.00      -12345.00      -12345.00      -12345.00
      -12345.00      -12345.00      -12345.00      -12345.00      -12345.00
      2019        39        12         8        39
        19         6    -12345    -12345     26400
    -12345    -12345    -12345    -12345    -12345
         1    -12345    -12345    -12345    -12345
    -12345    -12345    -12345    -12345    -12345
    -12345    -12345    -12345    -12345    -12345
    -12345    -12345    -12345    -12345    -12345
         1    -12345    -12345    -12345    -12345
TSUM    Mindanao, Philip
10      -12345  -12345  
-12345  -12345  -12345  
-12345  -12345  -12345  
-12345  -12345  -12345  
-12345  -12345  -12345  
-12345  -12345  BH1     
IU      -12345  Streckei
[...]
       9578.000       9069.000       9293.000       9228.000       8923.000
       9196.000       8484.000       8531.000       9107.000       8453.000
       8048.000       8786.000       8369.000       7153.000       8409.000
       8457.000       6998.000       7897.000       7963.000       7029.000
       7284.000       7581.000       6668.000       6725.000       7403.000
       5905.000       6625.000       7483.000       5591.000       6948.000
       7464.000       5300.000       6927.000       7038.000       5539.000
       7382.000       6313.000       5577.000       7611.000       6116.000
       6107.000       7431.000       5991.000       6652.000       7432.000
       6510.000       7353.000       7776.000       7315.000       7902.000
       8025.000       7965.000       8619.000       8506.000       8354.000
       8719.000       8502.000       8791.000       9120.000       9245.000
       9652.000       9461.000       10047.00       10353.00       10237.00
       10856.00       10331.00       10768.00       11434.00       10622.00
       11693.00       11948.00       11094.00       12388.00       12253.00
       11674.00       12886.00       12241.00       11831.00       12999.00
       12311.00       12920.00       13956.00       13045.00       14031.00
       14198.00       13554.00       14565.00       14330.00       14442.00
       14676.00       14089.00       14987.00       14749.00       14237.00
       15607.00       14872.00       14744.00       16176.00       15161.00
       15682.00       16492.00       15649.00       16293.00       16272.00
       16307.00       17053.00       16222.00       16633.00       17036.00
       15977.00       17332.00       17110.00       16119.00       17683.00
       16466.00       16322.00       17842.00       16479.00       17241.00
       17723.00       16338.00       17721.00       17785.00       16975.00
       17991.00       17298.00       16938.00       17451.00       17029.00
       17658.00       17568.00       16848.00       17261.00       16836.00
       17058.00       17750.00       16822.00       17100.00       17210.00
       16067.00       17061.00       17504.00       16730.00       17426.00
       16907.00       16207.00       16788.00       16464.00       16698.00
       16694.00       16046.00       16537.00       16306.00       16105.00
       16436.00       15921.00       16214.00       16171.00       15708.00
       16567.00       16028.00       15229.00       16303.00       15737.00
       15488.00       16164.00       14687.00       15101.00       15446.00
       14198.00       15405.00       14998.00       13994.00       14794.00
       13822.00       13842.00       14555.00       13731.00       13706.00
       13247.00       12533.00       12992.00       12732.00       12422.00
       12532.00       11574.00       11376.00       11624.00       11001.00
       11487.00       11365.00       10482.00       10900.00       10195.00
       10137.00       10950.00       9714.000       9612.000       9503.000
       8596.000       9617.000       9267.000       8800.000       9559.000
       8457.000       8688.000       9416.000       8542.000       9151.000
       9016.000       8244.000       9044.000       8637.000       8494.000
       9076.000       8409.000       8615.000       8678.000       8325.000
       9006.000       8668.000       8497.000       8850.000       8231.000
       8708.000       8913.000       8351.000       9048.000       8533.000
       8159.000       9277.000       8424.000       8503.000       9236.000
       8191.000       9230.000       9448.000       8351.000       9598.000
       9347.000       8877.000       10017.00       9464.000       9484.000
       9841.000       9193.000       9735.000       9578.000       9458.000
       10315.00       9765.000       10150.00       10563.00       9836.000
       11091.00       11144.00       10264.00       11443.00       10868.00
       10444.00       11878.00       11149.00       11050.00       12057.00
       11132.00       11471.00       12111.00       11380.00       12130.00
       11850.00       11080.00       12367.00       11840.00       11776.00
       12951.00       11858.00       12348.00       12600.00       11856.00
       13137.00       12683.00       12497.00       13180.00       12422.00
       12962.00       13269.00       13066.00       13767.00       13280.00
       13313.00       14042.00       13480.00       13893.00       14335.00
       13742.00       14455.00       14594.00       14111.00       14843.00
       14643.00       14686.00       15154.00       14703.00       15505.00
       15485.00       14931.00       15979.00       15592.00       15702.00
       16601.00       15531.00       15733.00       16419.00       15711.00
       16511.00       16661.00       15739.00       16615.00       16410.00
       15811.00       16726.00       16517.00       16428.00       16917.00
       16369.00       16578.00       16871.00       16726.00       17050.00
       16596.00       16407.00       16379.00       16033.00       16465.00
       16179.00       16189.00       16658.00       15788.00       15983.00
       16500.00       15711.00       16068.00       16234.00       15448.00
       16169.00       15985.00       15448.00       16185.00       15215.00
       15333.00       15953.00       14711.00       15538.00       15213.00
       14059.00       15523.00       14728.00       14227.00       15428.00
       14303.00       14497.00       15171.00       13964.00       14348.00
       14643.00       14254.00       14774.00       14111.00       14119.00
       14967.00       14230.00       14490.00       14601.00       13953.00
       14648.00       14671.00       14484.00       14511.00       14035.00
       14508.00       14942.00       14619.00       14896.00       14763.00
       14511.00       14911.00       14675.00       14927.00       14973.00
       14296.00       15452.00       15374.00       14055.00       15261.00
       14895.00       14148.00       15360.00       14360.00       14507.00
       15349.00       14112.00       15097.00       15256.00       14143.00
       15208.00       14959.00       14589.00       15318.00       14466.00
       14677.00       15448.00       14750.00       15329.00       15471.00
       14610.00       15112.00       14816.00       14695.00       15390.00
       14692.00       14906.00       15301.00       14977.00       15501.00
       15076.00       15134.00       15981.00       15457.00       15639.00
       15797.00       15480.00       16233.00       15847.00       15598.00
       16426.00       15719.00       16065.00       16874.00       16081.00
       16691.00       16779.00       16337.00       17212.00       16686.00
       16565.00       17430.00       16696.00       17088.00       17633.00
       16561.00       17344.00       17620.00       16991.00       18122.00
       17651.00       17019.00       18212.00       17542.00       17013.00
       17995.00       17179.00       17044.00       18061.00       17287.00
       17393.00       17926.00       17469.00       17784.00       17871.00
       17939.00       17753.00       17574.00       18299.00       17654.00
       17685.00       18166.00       16798.00       17567.00       17992.00
       16781.00       17980.00       17677.00       16597.00       17832.00
       17041.00       16650.00       17674.00       16334.00       16524.00
       16892.00       15434.00       16537.00       16808.00       15718.00
       16373.00       15771.00       15508.00       16151.00       15477.00
       15571.00       15819.00       15487.00       15716.00       15515.00
       15492.00       15717.00       15217.00       15526.00       15614.00
       14814.00       15458.00       15064.00       14283.00       15546.00
       14897.00       14706.00       15565.00       14133.00       14556.00
       15309.00       14129.00       14857.00       14785.00       13911.00
       14778.00       13940.00       13366.00       13987.00       13284.00
       13294.00       13155.00       12729.00       12765.00       12204.00
       12688.00       12393.00       11255.00       12037.00       11765.00
       11265.00       12058.00       10872.00       10637.00       11562.00
       10059.00       10144.00       10852.00       9427.000       9994.000
       10129.00       9183.000       10370.00       9988.000       9563.000
       10609.00       9735.000       9573.000       9845.000       9110.000
       9793.000       9437.000       8973.000       10289.00       9798.000
       9705.000       10349.00       9493.000       10497.00       10991.00
       10281.00       11249.00       10785.00       10637.00       11669.00
       11205.00       11770.00       12182.00       11623.00       12361.00
       12391.00       12589.00       13197.00       12605.00       13294.00
       13776.00       13020.00       13872.00       13983.00       13766.00
       15149.00       14807.00       14729.00       15999.00       15471.00
       15902.00       16808.00       15747.00       16811.00       17361.00
       16395.00       18174.00       18067.00       17446.00       18877.00
       18296.00       18931.00       19866.00       18643.00       19478.00
       19997.00       19327.00       20632.00       20713.00       20322.00
       21584.00       21253.00       21615.00       22508.00       22225.00
       23053.00       23107.00       23101.00       24019.00       23998.00
       24083.00       24338.00       24272.00       24423.00       24483.00
       24971.00       25476.00       25075.00       25404.00       25797.00
       25419.00       26131.00       26279.00       26008.00       26914.00
       26785.00       26564.00       27320.00       26860.00       27183.00
       27843.00       26936.00       27497.00       27762.00       27258.00
       27940.00       27417.00       27276.00       27741.00       26616.00
       27028.00       27219.00       26087.00       26912.00       26905.00
       26106.00       26734.00       26320.00       25894.00       26336.00
       25464.00       25415.00       25420.00       24446.00       24849.00
       23974.00       23343.00       24161.00       22875.00       22613.00
       22677.00       21265.00       21821.00       21573.00       20383.00
       21228.00       20486.00       19437.00       20138.00       19293.00
       18885.00       18979.00       18041.00       18167.00       17525.00
       16939.00       17363.00       16143.00       15984.00       16096.00
       14715.00       15048.00       15132.00       14132.00       14184.00
       13622.00       13367.00       13800.00       12538.00       12459.00
       12912.00       11301.00       11509.00       11732.00       10486.00
       10766.00       10250.00       10134.00       10521.00       9259.000
       9592.000       9310.000       8285.000       9199.000       8483.000
       8122.000       8773.000       7834.000       8039.000       7874.000
       6853.000       7942.000       7557.000       6631.000       7928.000
       6785.000       6203.000       7500.000       6454.000       6671.000
       7164.000       5882.000       6535.000       6721.000       6128.000
       7028.000       6419.000       6296.000       7047.000       6245.000
       6477.000       6582.000       6254.000       6714.000       6328.000
       6621.000       7007.000       6619.000       7372.000       7462.000
       7130.000       8155.000       7906.000       7664.000       8832.000
       8327.000       8521.000       9701.000       8889.000       9272.000
       10035.00       9122.000       10056.00       10591.00       10101.00
       11374.00       11196.00       11189.00       12174.00       11546.00
       12311.00       12989.00       12547.00       13473.00       13614.00
       13633.00       14937.00       14884.00       14556.00       15474.00
       15829.00       16007.00       16171.00       16425.00       17353.00
       17448.00       17745.00       18354.00       18220.00       18909.00
       18975.00       19099.00       20144.00       19572.00       20037.00
       21268.00       20544.00       21362.00       22097.00       21147.00
       22401.00       22568.00       21810.00       23271.00       23008.00
       22931.00       24172.00       23471.00       23940.00       24851.00
       23996.00       24545.00       25171.00       24799.00       25227.00
       25127.00       25293.00       26123.00       25828.00       25899.00
       26256.00       26029.00       26317.00       26066.00       26290.00
       27246.00       26239.00       26545.00       27599.00       26538.00
       27229.00       27523.00       26550.00       27641.00       27340.00
       27101.00       28200.00       27125.00       27546.00       28430.00
       26993.00       27482.00       27959.00       26969.00       27464.00
       27338.00       27055.00       27433.00       26565.00       26822.00
       26945.00       25783.00       26157.00       25919.00       25351.00
       25757.00       25211.00       24998.00       24572.00       23946.00
       24780.00       23940.00       22892.00       23679.00       22807.00
       22253.00       22569.00       21432.00       21515.00       21430.00
       19909.00       20557.00       20395.00       19041.00       19583.00
       19051.00       18307.00       18479.00       17893.00       17507.00
       16933.00       16527.00       16511.00       15610.00       15531.00
       15386.00       14461.00       14517.00       13839.00       13183.00
       13519.00       12512.00       12298.00       12949.00       11732.00
       11571.00       11896.00       10908.00       10887.00       10552.00
       9986.000       10115.00       9407.000       9597.000       10021.00
       9091.000       9230.000       9337.000       8478.000       8972.000
       8780.000       7843.000       8342.000       8179.000       8056.000
       8376.000       7946.000       8056.000       7771.000       7684.000
       8124.000       7317.000       7825.000       8102.000       7235.000
       8204.000       7899.000       7257.000       8298.000       7754.000
       7539.000       8309.000       7741.000       8120.000       8395.000
       7989.000       9047.000       8613.000       8141.000       9092.000
       8476.000       8919.000       9368.000       8515.000       9683.000
       9886.000       9226.000       10339.00       9983.000       9645.000
       10441.00       10050.00       10638.00       10928.00       10349.00
       11500.00       11229.00       10731.00       12210.00       11530.00
       11369.00       12376.00       11483.00       12072.00       12635.00
       11995.00       12826.00       12884.00       12669.00       13328.00
       13000.00       13270.00       13649.00       13170.00       13791.00
       13807.00       13445.00       14158.00       13633.00       13679.00
       14541.00       13884.00       14295.00       14662.00       14236.00
       14777.00       14341.00       14408.00       14962.00       14293.00
       14935.00       15133.00       14581.00       15678.00       15407.00
       14992.00       16031.00       15385.00       15444.00       16381.00
       15585.00       16031.00       16758.00       16076.00       16974.00
       17170.00       16496.00       17718.00       17436.00       17289.00
       18389.00       17537.00       18248.00       19355.00       18661.00
       19313.00       19331.00       19474.00       20170.00       19274.00
       20078.00       20756.00       19944.00       21102.00       21198.00
       20777.00       21718.00       20977.00       21295.00       21867.00
       20947.00       22131.00       22462.00       21714.00       22960.00
       22695.00       22384.00       23522.00       22511.00       22559.00
       23491.00       22509.00       23056.00       23423.00       22847.00
       23619.00       23271.00       23032.00       23396.00       22572.00
       23090.00       23418.00       22682.00       23636.00       23440.00
       22799.00       23484.00       22753.00       22683.00       23089.00
       22539.00       22911.00       22450.00       22046.00       22849.00
       22112.00       21824.00       22207.00       21059.00       20985.00
       21280.00       20458.00       20807.00       20617.00       19859.00
       20427.00       19596.00       18993.00       19614.00       18668.00
       18795.00       18887.00       17802.00       18185.00       17778.00
       17376.00       17810.00       16636.00       16316.00       16776.00
       16057.00       16264.00       15746.00       15137.00       15957.00
       14969.00       14739.00       15206.00       14194.00       14797.00
       14524.00       13460.00       14460.00       13900.00       13127.00
       13814.00       13039.00       12877.00       13227.00       12449.00
       12752.00       12393.00       11877.00       13043.00       12561.00
       11925.00       12337.00       11844.00       12032.00       11837.00
       11325.00       12032.00       11649.00       11241.00       12029.00
       11476.00       11084.00       11561.00       10783.00       11009.00
       11276.00       10659.00       11243.00       10818.00       10699.00
       11135.00       10325.00       10714.00       10604.00       9926.000
       10666.00       10168.00       9763.000       10720.00       10059.00
       10021.00       10856.00       9968.000       10358.00       10506.00
       9783.000       11050.00       10707.00       9957.000       10937.00
       10513.00       10628.00       11040.00       10175.00       10996.00
       11347.00       10488.00       11337.00       11215.00       10828.00
       11806.00       11092.00       10887.00       11653.00       11122.00
       11517.00       11704.00       11495.00       12197.00       11688.00
       11968.00       12552.00       11574.00       11984.00       11988.00
       11219.00       12390.00       12152.00       11347.00       12519.00
       12085.00       12002.00       12586.00       11670.00       12618.00
       12874.00       11906.00       12991.00       12771.00       12020.00
       12756.00       12489.00       12388.00       12791.00       12193.00
